{
  "type": "FeatureCollection",
  "features": [
    {
      "type": "Feature",
      "geometry": {
        "type": "Polygon",
        "coordinates": [
          [
            [
              -125.435768,
              39.001089
            ],
            [
              -126.185768,
              40.051089
            ],
            [
              -126.085768,
              41.551089
            ],
            [
              -126.485768,
              42.451089
            ],
            [
              -125.985768,
              44.451089
            ],
            [
              -126.085768,
              47.351089
            ],
            [
              -126.885768,
              48.351089
            ],
            [
              -124.835768,
              48.501089
            ],
            [
              -124.085768,
              48.251089
            ],
            [
              -124.285768,
              47.551089
            ],
            [
              -123.885768,
              46.851089
            ],
            [
              -123.785768,
              44.651089
            ],
            [
              -124.385768,
              42.351089
            ],
            [
              -123.985768,
              41.351089
            ],
            [
              -124.085768,
              39.951089
            ],
            [
              -123.785768,
              39.551089
            ],
            [
              -125.435768,
              39.001089
            ]
          ]
        ]
      },
      "properties": {
        "hazard": "IFR",
        "threshold_pct": 50.0,
        "neighborhood_radius_nm": 50.0,
        "min_area_sq_mi": 3000.0,
        "valid_time": "2026-10-04T09:00:00Z",
        "model_cycle": "2026-10-03T21:00:00Z",
        "forecast_hour": 12,
        "cause": "CIG/VIS",
        "weather_type": "BR"
      }
    },
    {
      "type": "Feature",
      "geometry": {
        "type": "Polygon",
        "coordinates": [
          [
            [
              -81.135768,
              32.901089
            ],
            [
              -82.435768,
              33.301089
            ],
            [
              -82.835768,
              33.201089
            ],
            [
              -83.735768,
              33.601089
            ],
            [
              -84.585768,
              34.651089
            ],
            [
              -83.685768,
              35.251089
            ],
            [
              -83.635768,
              35.801089
            ],
            [
              -82.685768,
              36.251089
            ],
            [
              -82.235768,
              37.301089
            ],
            [
              -81.435768,
              37.401089
            ],
            [
              -80.635768,
              38.401089
            ],
            [
              -78.835768,
              39.201089
            ],
            [
              -77.135768,
              38.701089
            ],
            [
              -76.235768,
              38.801089
            ],
            [
              -75.085768,
              38.551089
            ],
            [
              -75.185768,
              36.751089
            ],
            [
              -74.485768,
              36.151089
            ],
            [
              -74.735768,
              35.901089
            ],
            [
              -75.735768,
              35.801089
            ],
            [
              -76.535768,
              34.901089
            ],
            [
              -77.135768,
              34.801089
            ],
            [
              -77.635768,
              34.401089
            ],
            [
              -78.635768,
              34.301089
            ],
            [
              -79.835768,
              33.401089
            ],
            [
              -80.535768,
              33.401089
            ],
            [
              -81.135768,
              32.901089
            ]
          ]
        ]
      },
      "properties": {
        "hazard": "IFR",
        "threshold_pct": 50.0,
        "neighborhood_radius_nm": 50.0,
        "min_area_sq_mi": 3000.0,
        "valid_time": "2026-10-04T09:00:00Z",
        "model_cycle": "2026-10-03T21:00:00Z",
        "forecast_hour": 12,
        "cause": "CIG"
      }
    },
    {
      "type": "Feature",
      "geometry": {
        "type": "Polygon",
        "coordinates": [
          [
            [
              -98.635768,
              30.001089
            ],
            [
              -99.435768,
              30.201089
            ],
            [
              -100.185768,
              31.051089
            ],
            [
              -99.785768,
              31.551089
            ],
            [
              -99.885768,
              32.051089
            ],
            [
              -99.335768,
              32.901089
            ],
            [
              -98.085768,
              33.751089
            ],
            [
              -97.835768,
              35.301089
            ],
            [
              -97.535768,
              35.501089
            ],
            [
              -96.435768,
              35.301089
            ],
            [
              -96.685768,
              34.551089
            ],
            [
              -97.585768,
              33.951089
            ],
            [
              -97.885768,
              32.751089
            ],
            [
              -97.685768,
              32.151089
            ],
            [
              -97.885768,
              31.551089
            ],
            [
              -97.785768,
              30.751089
            ],
            [
              -98.635768,
              30.001089
            ]
          ]
        ]
      },
      "properties": {
        "hazard": "IFR",
        "threshold_pct": 50.0,
        "neighborhood_radius_nm": 50.0,
        "min_area_sq_mi": 3000.0,
        "valid_time": "2026-10-04T09:00:00Z",
        "model_cycle": "2026-10-03T21:00:00Z",
        "forecast_hour": 12,
        "cause": "CIG"
      }
    },
    {
      "type": "Feature",
      "geometry": {
        "type": "Polygon",
        "coordinates": [
          [
            [
              -90.935768,
              29.401089
            ],
            [
              -92.835768,
              29.601089
            ],
            [
              -93.485768,
              30.251089
            ],
            [
              -92.835768,
              30.901089
            ],
            [
              -90.435768,
              31.101089
            ],
            [
              -89.535768,
              31.601089
            ],
            [
              -88.735768,
              31.501089
            ],
            [
              -87.785768,
              30.651089
            ],
            [
              -89.535768,
              29.901089
            ],
            [
              -90.335768,
              29.801089
            ],
            [
              -90.935768,
              29.401089
            ]
          ]
        ]
      },
      "properties": {
        "hazard": "IFR",
        "threshold_pct": 50.0,
        "neighborhood_radius_nm": 50.0,
        "min_area_sq_mi": 3000.0,
        "valid_time": "2026-10-04T09:00:00Z",
        "model_cycle": "2026-10-03T21:00:00Z",
        "forecast_hour": 12,
        "cause": "CIG"
      }
    }
  ]
}