{
  "type": "FeatureCollection",
  "features": [
    {
      "type": "Feature",
      "geometry": {
        "type": "Polygon",
        "coordinates": [
          [
            [
              -124.735768,
              47.901089
            ],
            [
              -124.785768,
              47.951089
            ],
            [
              -124.785768,
              48.051089
            ],
            [
              -124.735768,
              48.101089
            ],
            [
              -124.685768,
              48.051089
            ],
            [
              -124.685768,
              47.951089
            ],
            [
              -124.735768,
              47.901089
            ]
          ]
        ]
      },
      "properties": {
        "hazard": "IFR",
        "threshold_pct": 50.0,
        "neighborhood_radius_nm": 50.0,
        "min_area_sq_mi": 3000.0,
        "valid_time": "2026-10-04T06:00:00Z",
        "model_cycle": "2026-10-03T21:00:00Z",
        "forecast_hour": 9,
        "cause": "CIG"
      }
    },
    {
      "type": "Feature",
      "geometry": {
        "type": "Polygon",
        "coordinates": [
          [
            [
              -126.835768,
              38.901089
            ],
            [
              -126.985768,
              40.451089
            ],
            [
              -126.385768,
              43.251089
            ],
            [
              -126.485768,
              45.151089
            ],
            [
              -127.185768,
              46.551089
            ],
            [
              -126.535768,
              47.101089
            ],
            [
              -125.935768,
              46.901089
            ],
            [
              -125.135768,
              47.101089
            ],
            [
              -124.635768,
              47.901089
            ],
            [
              -123.885768,
              46.951089
            ],
            [
              -123.885768,
              45.951089
            ],
            [
              -124.185768,
              45.551089
            ],
            [
              -123.885768,
              44.751089
            ],
            [
              -124.085768,
              44.251089
            ],
            [
              -123.985768,
              43.651089
            ],
            [
              -124.385768,
              42.651089
            ],
            [
              -124.085768,
              41.851089
            ],
            [
              -124.085768,
              40.551089
            ],
            [
              -124.935768,
              39.701089
            ],
            [
              -126.835768,
              38.901089
            ]
          ]
        ]
      },
      "properties": {
        "hazard": "IFR",
        "threshold_pct": 50.0,
        "neighborhood_radius_nm": 50.0,
        "min_area_sq_mi": 3000.0,
        "valid_time": "2026-10-04T06:00:00Z",
        "model_cycle": "2026-10-03T21:00:00Z",
        "forecast_hour": 9,
        "cause": "CIG"
      }
    },
    {
      "type": "Feature",
      "geometry": {
        "type": "Polygon",
        "coordinates": [
          [
            [
              -83.435768,
              33.801089
            ],
            [
              -83.285768,
              34.551089
            ],
            [
              -83.585768,
              34.951089
            ],
            [
              -83.285768,
              35.651089
            ],
            [
              -82.585768,
              36.251089
            ],
            [
              -82.585768,
              36.851089
            ],
            [
              -81.635768,
              37.001089
            ],
            [
              -80.235768,
              38.401089
            ],
            [
              -78.335768,
              38.801089
            ],
            [
              -77.235768,
              38.501089
            ],
            [
              -75.185768,
              38.451089
            ],
            [
              -75.185768,
              36.851089
            ],
            [
              -74.585768,
              36.151089
            ],
            [
              -75.935768,
              35.801089
            ],
            [
              -76.535768,
              34.801089
            ],
            [
              -77.335768,
              34.501089
            ],
            [
              -79.735768,
              34.701089
            ],
            [
              -81.335768,
              34.101089
            ],
            [
              -82.635768,
              34.301089
            ],
            [
              -83.435768,
              33.801089
            ]
          ]
        ]
      },
      "properties": {
        "hazard": "IFR",
        "threshold_pct": 50.0,
        "neighborhood_radius_nm": 50.0,
        "min_area_sq_mi": 3000.0,
        "valid_time": "2026-10-04T06:00:00Z",
        "model_cycle": "2026-10-03T21:00:00Z",
        "forecast_hour": 9,
        "cause": "CIG"
      }
    },
    {
      "type": "Feature",
      "geometry": {
        "type": "Polygon",
        "coordinates": [
          [
            [
              -120.735768,
              33.001089
            ],
            [
              -121.935768,
              33.001089
            ],
            [
              -122.785768,
              33.851089
            ],
            [
              -122.785768,
              34.251089
            ],
            [
              -121.435768,
              35.701089
            ],
            [
              -120.585768,
              34.851089
            ],
            [
              -121.085768,
              34.251089
            ],
            [
              -121.085768,
              33.651089
            ],
            [
              -120.735768,
              33.001089
            ]
          ]
        ]
      },
      "properties": {
        "hazard": "IFR",
        "threshold_pct": 50.0,
        "neighborhood_radius_nm": 50.0,
        "min_area_sq_mi": 3000.0,
        "valid_time": "2026-10-04T06:00:00Z",
        "model_cycle": "2026-10-03T21:00:00Z",
        "forecast_hour": 9,
        "cause": "CIG"
      }
    },
    {
      "type": "Feature",
      "geometry": {
        "type": "Polygon",
        "coordinates": [
          [
            [
              -98.635768,
              30.101089
            ],
            [
              -99.185768,
              30.351089
            ],
            [
              -98.785768,
              31.151089
            ],
            [
              -98.785768,
              31.751089
            ],
            [
              -99.385768,
              32.351089
            ],
            [
              -97.785768,
              33.951089
            ],
            [
              -97.585768,
              34.851089
            ],
            [
              -96.935768,
              35.101089
            ],
            [
              -96.785768,
              34.551089
            ],
            [
              -97.685768,
              33.951089
            ],
            [
              -97.885768,
              33.451089
            ],
            [
              -97.685768,
              31.651089
            ],
            [
              -98.635768,
              30.101089
            ]
          ]
        ]
      },
      "properties": {
        "hazard": "IFR",
        "threshold_pct": 50.0,
        "neighborhood_radius_nm": 50.0,
        "min_area_sq_mi": 3000.0,
        "valid_time": "2026-10-04T06:00:00Z",
        "model_cycle": "2026-10-03T21:00:00Z",
        "forecast_hour": 9,
        "cause": "CIG"
      }
    },
    {
      "type": "Feature",
      "geometry": {
        "type": "Polygon",
        "coordinates": [
          [
            [
              -91.035768,
              29.301089
            ],
            [
              -91.285768,
              29.351089
            ],
            [
              -91.685768,
              30.451089
            ],
            [
              -91.235768,
              30.901089
            ],
            [
              -90.435768,
              30.901089
            ],
            [
              -89.335768,
              31.401089
            ],
            [
              -87.785768,
              30.851089
            ],
            [
              -88.235768,
              30.301089
            ],
            [
              -88.935768,
              30.301089
            ],
            [
              -89.535768,
              29.801089
            ],
            [
              -91.035768,
              29.301089
            ]
          ]
        ]
      },
      "properties": {
        "hazard": "IFR",
        "threshold_pct": 50.0,
        "neighborhood_radius_nm": 50.0,
        "min_area_sq_mi": 3000.0,
        "valid_time": "2026-10-04T06:00:00Z",
        "model_cycle": "2026-10-03T21:00:00Z",
        "forecast_hour": 9,
        "cause": "CIG"
      }
    }
  ]
}