{
  "type": "FeatureCollection",
  "features": [
    {
      "type": "Feature",
      "geometry": {
        "type": "Polygon",
        "coordinates": [
          [
            [
              -109.335768,
              42.801089
            ],
            [
              -110.485768,
              43.351089
            ],
            [
              -110.385768,
              44.151089
            ],
            [
              -111.035768,
              44.701089
            ],
            [
              -112.435768,
              44.501089
            ],
            [
              -113.135768,
              44.801089
            ],
            [
              -113.735768,
              44.701089
            ],
            [
              -114.435768,
              45.501089
            ],
            [
              -115.085768,
              45.851089
            ],
            [
              -115.385768,
              46.551089
            ],
            [
              -115.985768,
              47.051089
            ],
            [
              -115.785768,
              47.451089
            ],
            [
              -114.735768,
              47.301089
            ],
            [
              -114.135768,
              47.501089
            ],
            [
              -113.685768,
              48.051089
            ],
            [
              -114.035768,
              49.001089
            ],
            [
              -108.535768,
              49.001089
            ],
            [
              -108.585768,
              48.351089
            ],
            [
              -108.185768,
              47.551089
            ],
            [
              -107.385768,
              47.051089
            ],
            [
              -107.385768,
              46.251089
            ],
            [
              -106.885768,
              45.751089
            ],
            [
              -107.285768,
              45.351089
            ],
            [
              -107.085768,
              44.251089
            ],
            [
              -107.735768,
              44.001089
            ],
            [
              -108.135768,
              43.501089
            ],
            [
              -109.035768,
              43.301089
            ],
            [
              -109.335768,
              42.801089
            ]
          ]
        ]
      },
      "properties": {
        "hazard": "IFR",
        "threshold_pct": 50.0,
        "neighborhood_radius_nm": 50.0,
        "min_area_sq_mi": 3000.0,
        "valid_time": "2026-10-11T12:00:00Z",
        "model_cycle": "2026-10-11T09:00:00Z",
        "forecast_hour": 3,
        "cause": "CIG/VIS",
        "weather_type": "PCPN/BR"
      }
    },
    {
      "type": "Feature",
      "geometry": {
        "type": "Polygon",
        "coordinates": [
          [
            [
              -86.635768,
              33.301089
            ],
            [
              -87.735768,
              33.701089
            ],
            [
              -88.435768,
              34.701089
            ],
            [
              -89.085768,
              34.951089
            ],
            [
              -88.885768,
              35.351089
            ],
            [
              -88.985768,
              36.151089
            ],
            [
              -88.085768,
              37.051089
            ],
            [
              -87.635768,
              38.101089
            ],
            [
              -86.535768,
              38.601089
            ],
            [
              -85.035768,
              38.301089
            ],
            [
              -84.135768,
              38.801089
            ],
            [
              -83.785768,
              39.351089
            ],
            [
              -83.985768,
              40.151089
            ],
            [
              -83.735768,
              40.501089
            ],
            [
              -82.335768,
              40.801089
            ],
            [
              -80.835768,
              40.701089
            ],
            [
              -81.535768,
              40.401089
            ],
            [
              -82.085768,
              39.751089
            ],
            [
              -81.985768,
              38.651089
            ],
            [
              -80.935768,
              38.201089
            ],
            [
              -79.685768,
              38.951089
            ],
            [
              -79.385768,
              39.751089
            ],
            [
              -79.585768,
              40.351089
            ],
            [
              -78.535768,
              41.401089
            ],
            [
              -77.335768,
              41.501089
            ],
            [
              -76.735768,
              41.001089
            ],
            [
              -75.985768,
              40.851089
            ],
            [
              -76.985768,
              40.051089
            ],
            [
              -76.885768,
              39.551089
            ],
            [
              -76.185768,
              38.651089
            ],
            [
              -75.735768,
              38.301089
            ],
            [
              -74.735768,
              38.201089
            ],
            [
              -73.485768,
              37.451089
            ],
            [
              -73.635768,
              36.101089
            ],
            [
              -75.735768,
              35.901089
            ],
            [
              -77.635768,
              34.401089
            ],
            [
              -79.435768,
              34.301089
            ],
            [
              -80.435768,
              34.001089
            ],
            [
              -81.435768,
              34.901089
            ],
            [
              -82.535768,
              35.101089
            ],
            [
              -83.385768,
              34.551089
            ],
            [
              -83.735768,
              33.701089
            ],
            [
              -86.635768,
              33.301089
            ]
          ]
        ]
      },
      "properties": {
        "hazard": "IFR",
        "threshold_pct": 50.0,
        "neighborhood_radius_nm": 50.0,
        "min_area_sq_mi": 3000.0,
        "valid_time": "2026-10-11T12:00:00Z",
        "model_cycle": "2026-10-11T09:00:00Z",
        "forecast_hour": 3,
        "cause": "CIG"
      }
    },
    {
      "type": "Feature",
      "geometry": {
        "type": "Polygon",
        "coordinates": [
          [
            [
              -106.435768,
              36.901089
            ],
            [
              -107.535768,
              37.501089
            ],
            [
              -108.035768,
              37.401089
            ],
            [
              -108.335768,
              38.101089
            ],
            [
              -109.535768,
              38.501089
            ],
            [
              -110.335768,
              38.401089
            ],
            [
              -112.135768,
              37.101089
            ],
            [
              -112.785768,
              37.651089
            ],
            [
              -111.085768,
              39.451089
            ],
            [
              -111.085768,
              39.951089
            ],
            [
              -111.535768,
              40.601089
            ],
            [
              -109.335768,
              40.801089
            ],
            [
              -109.035768,
              41.001089
            ],
            [
              -109.285768,
              40.351089
            ],
            [
              -109.185768,
              39.751089
            ],
            [
              -108.635768,
              39.201089
            ],
            [
              -107.935768,
              39.101089
            ],
            [
              -107.685768,
              38.351089
            ],
            [
              -106.585768,
              37.751089
            ],
            [
              -106.435768,
              36.901089
            ]
          ]
        ]
      },
      "properties": {
        "hazard": "IFR",
        "threshold_pct": 50.0,
        "neighborhood_radius_nm": 50.0,
        "min_area_sq_mi": 3000.0,
        "valid_time": "2026-10-11T12:00:00Z",
        "model_cycle": "2026-10-11T09:00:00Z",
        "forecast_hour": 3,
        "cause": "CIG"
      }
    },
    {
      "type": "Feature",
      "geometry": {
        "type": "Polygon",
        "coordinates": [
          [
            [
              -116.235768,
              32.601089
            ],
            [
              -116.835768,
              32.601089
            ],
            [
              -116.985768,
              32.951089
            ],
            [
              -116.685768,
              33.651089
            ],
            [
              -116.735768,
              34.301089
            ],
            [
              -116.485768,
              34.251089
            ],
            [
              -116.485768,
              33.751089
            ],
            [
              -116.185768,
              33.451089
            ],
            [
              -116.235768,
              32.601089
            ]
          ]
        ]
      },
      "properties": {
        "hazard": "IFR",
        "threshold_pct": 50.0,
        "neighborhood_radius_nm": 50.0,
        "min_area_sq_mi": 3000.0,
        "valid_time": "2026-10-11T12:00:00Z",
        "model_cycle": "2026-10-11T09:00:00Z",
        "forecast_hour": 3,
        "cause": "CIG"
      }
    }
  ]
}