{
  "type": "FeatureCollection",
  "features": [
    {
      "type": "Feature",
      "geometry": {
        "type": "Polygon",
        "coordinates": [
          [
            [
              -125.235768,
              35.701089
            ],
            [
              -126.835768,
              36.401089
            ],
            [
              -126.985768,
              37.151089
            ],
            [
              -126.985768,
              39.351089
            ],
            [
              -126.285768,
              39.851089
            ],
            [
              -125.985768,
              40.651089
            ],
            [
              -125.985768,
              42.351089
            ],
            [
              -125.585768,
              43.551089
            ],
            [
              -125.885768,
              45.051089
            ],
            [
              -126.585768,
              45.951089
            ],
            [
              -126.685768,
              46.451089
            ],
            [
              -125.835768,
              46.801089
            ],
            [
              -125.435768,
              45.701089
            ],
            [
              -123.885768,
              45.451089
            ],
            [
              -124.185768,
              43.651089
            ],
            [
              -124.585768,
              42.851089
            ],
            [
              -124.585768,
              42.151089
            ],
            [
              -124.085768,
              41.551089
            ],
            [
              -124.085768,
              40.851089
            ],
            [
              -124.535768,
              40.401089
            ],
            [
              -125.235768,
              40.301089
            ],
            [
              -125.785768,
              39.851089
            ],
            [
              -125.885768,
              37.851089
            ],
            [
              -125.685768,
              36.651089
            ],
            [
              -124.985768,
              36.051089
            ],
            [
              -125.235768,
              35.701089
            ]
          ]
        ]
      },
      "properties": {
        "hazard": "IFR",
        "threshold_pct": 50.0,
        "neighborhood_radius_nm": 50.0,
        "min_area_sq_mi": 3000.0,
        "valid_time": "2026-10-03T21:00:00Z",
        "model_cycle": "2026-10-03T21:00:00Z",
        "forecast_hour": 0,
        "cause": "CIG"
      }
    },
    {
      "type": "Feature",
      "geometry": {
        "type": "Polygon",
        "coordinates": [
          [
            [
              -75.235768,
              35.401089
            ],
            [
              -75.485768,
              35.451089
            ],
            [
              -75.485768,
              36.051089
            ],
            [
              -75.835768,
              36.501089
            ],
            [
              -77.135768,
              37.301089
            ],
            [
              -79.535768,
              37.001089
            ],
            [
              -80.935768,
              36.401089
            ],
            [
              -82.985768,
              36.951089
            ],
            [
              -81.935768,
              37.301089
            ],
            [
              -81.435768,
              38.001089
            ],
            [
              -80.335768,
              38.301089
            ],
            [
              -78.735768,
              38.301089
            ],
            [
              -78.235768,
              38.001089
            ],
            [
              -77.635768,
              38.001089
            ],
            [
              -77.035768,
              38.401089
            ],
            [
              -76.535768,
              38.201089
            ],
            [
              -73.835768,
              38.301089
            ],
            [
              -73.885768,
              37.351089
            ],
            [
              -74.685768,
              36.451089
            ],
            [
              -74.485768,
              35.851089
            ],
            [
              -75.235768,
              35.401089
            ]
          ]
        ]
      },
      "properties": {
        "hazard": "IFR",
        "threshold_pct": 50.0,
        "neighborhood_radius_nm": 50.0,
        "min_area_sq_mi": 3000.0,
        "valid_time": "2026-10-03T21:00:00Z",
        "model_cycle": "2026-10-03T21:00:00Z",
        "forecast_hour": 0,
        "cause": "CIG"
      }
    },
    {
      "type": "Feature",
      "geometry": {
        "type": "Polygon",
        "coordinates": [
          [
            [
              -97.535768,
              31.201089
            ],
            [
              -98.235768,
              31.401089
            ],
            [
              -98.385768,
              31.651089
            ],
            [
              -97.785768,
              32.851089
            ],
            [
              -98.085768,
              33.551089
            ],
            [
              -97.335768,
              34.501089
            ],
            [
              -96.435768,
              34.801089
            ],
            [
              -95.885768,
              33.651089
            ],
            [
              -94.685768,
              32.751089
            ],
            [
              -95.035768,
              32.201089
            ],
            [
              -97.535768,
              31.201089
            ]
          ]
        ]
      },
      "properties": {
        "hazard": "IFR",
        "threshold_pct": 50.0,
        "neighborhood_radius_nm": 50.0,
        "min_area_sq_mi": 3000.0,
        "valid_time": "2026-10-03T21:00:00Z",
        "model_cycle": "2026-10-03T21:00:00Z",
        "forecast_hour": 0,
        "cause": "CIG"
      }
    },
    {
      "type": "Feature",
      "geometry": {
        "type": "Polygon",
        "coordinates": [
          [
            [
              -121.535768,
              32.001089
            ],
            [
              -123.085768,
              34.351089
            ],
            [
              -122.435768,
              34.701089
            ],
            [
              -122.185768,
              34.651089
            ],
            [
              -122.385768,
              34.351089
            ],
            [
              -122.285768,
              33.851089
            ],
            [
              -121.085768,
              32.651089
            ],
            [
              -121.535768,
              32.001089
            ]
          ]
        ]
      },
      "properties": {
        "hazard": "IFR",
        "threshold_pct": 50.0,
        "neighborhood_radius_nm": 50.0,
        "min_area_sq_mi": 3000.0,
        "valid_time": "2026-10-03T21:00:00Z",
        "model_cycle": "2026-10-03T21:00:00Z",
        "forecast_hour": 0,
        "cause": "VIS",
        "weather_type": "BR"
      }
    }
  ]
}