{
  "type": "FeatureCollection",
  "features": [
    {
      "type": "Feature",
      "geometry": {
        "type": "Polygon",
        "coordinates": [
          [
            [
              -112.035768,
              36.201089
            ],
            [
              -112.635768,
              37.201089
            ],
            [
              -114.235768,
              37.401089
            ],
            [
              -114.385768,
              37.751089
            ],
            [
              -113.835768,
              38.101089
            ],
            [
              -112.935768,
              38.001089
            ],
            [
              -112.185768,
              38.651089
            ],
            [
              -112.085768,
              39.451089
            ],
            [
              -112.585768,
              40.351089
            ],
            [
              -112.385768,
              41.251089
            ],
            [
              -112.785768,
              41.751089
            ],
            [
              -111.785768,
              42.151089
            ],
            [
              -111.585768,
              42.651089
            ],
            [
              -111.685768,
              43.651089
            ],
            [
              -112.235768,
              44.201089
            ],
            [
              -114.035768,
              44.801089
            ],
            [
              -115.835768,
              44.801089
            ],
            [
              -115.985768,
              45.651089
            ],
            [
              -115.185768,
              46.451089
            ],
            [
              -115.185768,
              46.951089
            ],
            [
              -115.685768,
              47.451089
            ],
            [
              -114.585768,
              48.051089
            ],
            [
              -114.635768,
              49.001089
            ],
            [
              -105.235768,
              49.001089
            ],
            [
              -104.985768,
              48.751089
            ],
            [
              -105.085768,
              48.051089
            ],
            [
              -104.785768,
              47.551089
            ],
            [
              -103.335768,
              46.501089
            ],
            [
              -103.285768,
              46.251089
            ],
            [
              -104.235768,
              45.801089
            ],
            [
              -105.335768,
              45.701089
            ],
            [
              -106.485768,
              44.751089
            ],
            [
              -106.885768,
              43.551089
            ],
            [
              -107.385768,
              43.051089
            ],
            [
              -107.335768,
              42.201089
            ],
            [
              -108.035768,
              42.501089
            ],
            [
              -109.735768,
              42.601089
            ],
            [
              -110.585768,
              42.051089
            ],
            [
              -110.685768,
              41.451089
            ],
            [
              -109.935768,
              40.801089
            ],
            [
              -108.985768,
              40.851089
            ],
            [
              -109.285768,
              40.151089
            ],
            [
              -108.835768,
              39.601089
            ],
            [
              -107.835768,
              39.501089
            ],
            [
              -107.435768,
              39.701089
            ],
            [
              -107.685768,
              38.551089
            ],
            [
              -107.035768,
              38.001089
            ],
            [
              -105.635768,
              38.001089
            ],
            [
              -105.185768,
              37.251089
            ],
            [
              -106.435768,
              36.801089
            ],
            [
              -107.135768,
              37.301089
            ],
            [
              -108.135768,
              37.401089
            ],
            [
              -108.635768,
              37.801089
            ],
            [
              -110.635768,
              37.701089
            ],
            [
              -111.985768,
              36.851089
            ],
            [
              -112.035768,
              36.201089
            ]
          ]
        ]
      },
      "properties": {
        "hazard": "IFR",
        "threshold_pct": 50.0,
        "neighborhood_radius_nm": 50.0,
        "min_area_sq_mi": 3000.0,
        "valid_time": "2026-10-11T15:00:00Z",
        "model_cycle": "2026-10-11T09:00:00Z",
        "forecast_hour": 6,
        "cause": "CIG/VIS",
        "weather_type": "PCPN/BR"
      }
    },
    {
      "type": "Feature",
      "geometry": {
        "type": "Polygon",
        "coordinates": [
          [
            [
              -85.835768,
              33.401089
            ],
            [
              -86.685768,
              33.751089
            ],
            [
              -87.785768,
              35.551089
            ],
            [
              -87.085768,
              36.151089
            ],
            [
              -86.985768,
              37.151089
            ],
            [
              -86.285768,
              38.151089
            ],
            [
              -85.635768,
              38.501089
            ],
            [
              -85.085768,
              39.251089
            ],
            [
              -85.085768,
              39.851089
            ],
            [
              -85.385768,
              40.251089
            ],
            [
              -84.985768,
              40.751089
            ],
            [
              -84.685768,
              41.951089
            ],
            [
              -83.335768,
              43.201089
            ],
            [
              -82.735768,
              43.201089
            ],
            [
              -82.335768,
              42.701089
            ],
            [
              -81.735768,
              42.501089
            ],
            [
              -81.685768,
              41.751089
            ],
            [
              -79.935768,
              40.701089
            ],
            [
              -79.135768,
              40.901089
            ],
            [
              -78.785768,
              41.351089
            ],
            [
              -78.735768,
              41.901089
            ],
            [
              -77.735768,
              41.901089
            ],
            [
              -76.635768,
              41.101089
            ],
            [
              -75.935768,
              41.001089
            ],
            [
              -75.235768,
              41.301089
            ],
            [
              -74.735768,
              42.101089
            ],
            [
              -74.185768,
              42.151089
            ],
            [
              -75.085768,
              40.951089
            ],
            [
              -75.085768,
              39.651089
            ],
            [
              -74.735768,
              39.101089
            ],
            [
              -73.635768,
              38.801089
            ],
            [
              -72.685768,
              37.851089
            ],
            [
              -72.385768,
              37.351089
            ],
            [
              -72.685768,
              37.251089
            ],
            [
              -72.735768,
              36.401089
            ],
            [
              -73.835768,
              36.401089
            ],
            [
              -74.735768,
              35.201089
            ],
            [
              -75.935768,
              34.901089
            ],
            [
              -76.535768,
              34.101089
            ],
            [
              -77.035768,
              34.501089
            ],
            [
              -80.235768,
              35.301089
            ],
            [
              -81.235768,
              36.001089
            ],
            [
              -81.835768,
              36.001089
            ],
            [
              -81.785768,
              37.051089
            ],
            [
              -82.335768,
              37.501089
            ],
            [
              -83.135768,
              37.501089
            ],
            [
              -84.035768,
              37.201089
            ],
            [
              -84.485768,
              36.651089
            ],
            [
              -84.135768,
              35.901089
            ],
            [
              -82.585768,
              35.551089
            ],
            [
              -82.685768,
              35.051089
            ],
            [
              -83.385768,
              34.451089
            ],
            [
              -83.385768,
              33.951089
            ],
            [
              -84.035768,
              33.601089
            ],
            [
              -85.835768,
              33.401089
            ]
          ]
        ]
      },
      "properties": {
        "hazard": "IFR",
        "threshold_pct": 50.0,
        "neighborhood_radius_nm": 50.0,
        "min_area_sq_mi": 3000.0,
        "valid_time": "2026-10-11T15:00:00Z",
        "model_cycle": "2026-10-11T09:00:00Z",
        "forecast_hour": 6,
        "cause": "CIG"
      }
    },
    {
      "type": "Feature",
      "geometry": {
        "type": "Polygon",
        "coordinates": [
          [
            [
              -116.235768,
              32.601089
            ],
            [
              -116.785768,
              32.651089
            ],
            [
              -117.785768,
              33.851089
            ],
            [
              -117.935768,
              34.401089
            ],
            [
              -116.785768,
              34.651089
            ],
            [
              -116.285768,
              33.951089
            ],
            [
              -116.485768,
              33.051089
            ],
            [
              -116.235768,
              32.601089
            ]
          ]
        ]
      },
      "properties": {
        "hazard": "IFR",
        "threshold_pct": 50.0,
        "neighborhood_radius_nm": 50.0,
        "min_area_sq_mi": 3000.0,
        "valid_time": "2026-10-11T15:00:00Z",
        "model_cycle": "2026-10-11T09:00:00Z",
        "forecast_hour": 6,
        "cause": "CIG"
      }
    }
  ]
}