{
  "type": "FeatureCollection",
  "features": [
    {
      "type": "Feature",
      "geometry": {
        "type": "Polygon",
        "coordinates": [
          [
            [
              -84.222275,
              34.054826
            ],
            [
              -84.625,
              34.449596
            ],
            [
              -85.025,
              34.612624
            ],
            [
              -85.375,
              34.637624
            ],
            [
              -85.387376,
              34.725
            ],
            [
              -85.3,
              34.850016
            ],
            [
              -84.925,
              34.987376
            ],
            [
              -84.4,
              35.325019
            ],
            [
              -84.2,
              35.526283
            ],
            [
              -83.375,
              35.937376
            ],
            [
              -83.062376,
              36.225
            ],
            [
              -82.937376,
              36.575
            ],
            [
              -82.975632,
              36.875
            ],
            [
              -82.875537,
              36.925
            ],
            [
              -82.937376,
              36.975
            ],
            [
              -82.926034,
              37.275
            ],
            [
              -82.825,
              37.401109
            ],
            [
              -82.025,
              37.312376
            ],
            [
              -81.55,
              37.462376
            ],
            [
              -81.237376,
              37.75
            ],
            [
              -81.100222,
              38.125
            ],
            [
              -79.95,
              39.112376
            ],
            [
              -79.275,
              39.262376
            ],
            [
              -78.975,
              39.47532
            ],
            [
              -78.4,
              39.412376
            ],
            [
              -78.125,
              39.475678
            ],
            [
              -77.524866,
              39.275
            ],
            [
              -77.412624,
              38.85
            ],
            [
              -77.575,
              38.619706
            ],
            [
              -77.844932,
              38.5
            ],
            [
              -77.74036,
              38.375
            ],
            [
              -77.76423,
              38.225
            ],
            [
              -78.490797,
              37.725
            ],
            [
              -78.216689,
              37.55
            ],
            [
              -78.217033,
              37.4
            ],
            [
              -78.4,
              37.266756
            ],
            [
              -78.75,
              37.36593
            ],
            [
              -79.075,
              37.018206
            ],
            [
              -79.225,
              37.043145
            ],
            [
              -79.389131,
              36.875
            ],
            [
              -79.341501,
              36.825
            ],
            [
              -79.490917,
              36.675
            ],
            [
              -79.325,
              36.63343
            ],
            [
              -79.15,
              36.732352
            ],
            [
              -79.25,
              36.566568
            ],
            [
              -79.675,
              36.541564
            ],
            [
              -79.75,
              36.441488
            ],
            [
              -79.95,
              36.392883
            ],
            [
              -80.075,
              36.215202
            ],
            [
              -80.7,
              36.017167
            ],
            [
              -80.743364,
              35.875
            ],
            [
              -80.94188,
              35.775
            ],
            [
              -80.841702,
              35.525
            ],
            [
              -80.96583,
              35.3
            ],
            [
              -80.890869,
              35.225
            ],
            [
              -81.0,
              35.115629
            ],
            [
              -81.45,
              34.941166
            ],
            [
              -81.797182,
              34.915344
            ],
            [
              -81.725,
              35.059718
            ],
            [
              -81.584634,
              35.05
            ],
            [
              -81.60948,
              35.225
            ],
            [
              -81.95,
              35.215999
            ],
            [
              -81.941809,
              35.125
            ],
            [
              -82.141877,
              34.975
            ],
            [
              -82.167173,
              34.8
            ],
            [
              -82.3,
              34.71744
            ],
            [
              -82.525,
              34.7435
            ],
            [
              -82.8,
              34.620552
            ],
            [
              -82.95,
              34.645242
            ],
            [
              -83.146134,
              34.525
            ],
            [
              -83.25,
              34.347362
            ],
            [
              -83.575,
              34.223175
            ],
            [
              -83.65,
              34.274101
            ],
            [
              -83.790613,
              34.187656
            ],
            [
              -83.72509,
              34.275
            ],
            [
              -83.9,
              34.321882
            ],
            [
              -83.862624,
              34.175
            ],
            [
              -84.137624,
              34.025
            ],
            [
              -83.949113,
              33.925
            ],
            [
              -83.95,
              33.699555
            ],
            [
              -84.05011,
              33.725
            ],
            [
              -84.222275,
              34.054826
            ]
          ]
        ]
      },
      "properties": {
        "hazard": "MTN_OBSC",
        "threshold_pct": 50.0,
        "mountainous_relief_ft": 500.0,
        "clearance_margin_ft": 500.0,
        "neighborhood_radius_nm": 50.0,
        "min_area_sq_mi": 3000.0,
        "terrain_radius_nm": 12.0,
        "valid_time": "2026-10-04T09:00:00Z",
        "model_cycle": "2026-10-03T21:00:00Z",
        "forecast_hour": 12,
        "weather_type": "BR"
      }
    }
  ],
  "mountainous_area_sq_mi": 1459895
}