{
  "type": "FeatureCollection",
  "features": [
    {
      "type": "Feature",
      "geometry": {
        "type": "Polygon",
        "coordinates": [
          [
            [
              -86.696342,
              34.45
            ],
            [
              -86.675,
              34.370053
            ],
            [
              -86.85,
              34.449409
            ],
            [
              -86.925,
              34.362624
            ],
            [
              -87.027651,
              34.575
            ],
            [
              -86.951866,
              34.625
            ],
            [
              -87.00029,
              34.825
            ],
            [
              -86.9,
              34.825626
            ],
            [
              -86.775,
              35.003968
            ],
            [
              -86.25,
              35.308854
            ],
            [
              -86.084153,
              35.65
            ],
            [
              -86.275,
              35.79547
            ],
            [
              -86.325,
              35.697545
            ],
            [
              -86.448787,
              35.7
            ],
            [
              -86.47061,
              35.525
            ],
            [
              -86.4,
              35.469558
            ],
            [
              -86.575,
              35.523661
            ],
            [
              -86.8,
              35.470054
            ],
            [
              -86.925,
              35.54597
            ],
            [
              -86.875,
              35.677664
            ],
            [
              -86.491113,
              35.70174
            ],
            [
              -86.662376,
              35.775
            ],
            [
              -86.525934,
              35.8
            ],
            [
              -86.550293,
              35.975
            ],
            [
              -86.65,
              36.074156
            ],
            [
              -86.70437,
              35.966994
            ],
            [
              -86.725,
              36.062624
            ],
            [
              -86.912376,
              36.125
            ],
            [
              -86.9,
              36.200348
            ],
            [
              -86.65,
              36.262376
            ],
            [
              -86.575,
              36.176532
            ],
            [
              -86.512376,
              36.325
            ],
            [
              -86.35,
              36.425257
            ],
            [
              -86.325,
              36.353947
            ],
            [
              -86.045875,
              36.35
            ],
            [
              -86.075,
              36.105002
            ],
            [
              -85.75,
              36.058853
            ],
            [
              -85.626742,
              36.35
            ],
            [
              -85.703315,
              36.375
            ],
            [
              -85.701802,
              36.525
            ],
            [
              -85.552313,
              36.65
            ],
            [
              -85.604797,
              36.725
            ],
            [
              -85.053732,
              37.025
            ],
            [
              -85.137376,
              37.2
            ],
            [
              -85.062376,
              37.35
            ],
            [
              -84.7,
              37.337376
            ],
            [
              -84.587624,
              37.175
            ],
            [
              -84.587624,
              36.975
            ],
            [
              -84.675,
              36.987624
            ],
            [
              -84.975,
              36.749218
            ],
            [
              -85.025668,
              36.812534
            ],
            [
              -85.149509,
              36.75
            ],
            [
              -85.045137,
              36.548686
            ],
            [
              -85.12345,
              36.525
            ],
            [
              -84.987712,
              36.449947
            ],
            [
              -85.125,
              36.437624
            ],
            [
              -85.2,
              36.32397
            ],
            [
              -85.225,
              36.399053
            ],
            [
              -85.298831,
              36.375
            ],
            [
              -85.296741,
              36.225
            ],
            [
              -85.418084,
              36.2
            ],
            [
              -85.441221,
              36.05
            ],
            [
              -85.3408,
              36.02619
            ],
            [
              -85.415597,
              35.95
            ],
            [
              -85.4,
              35.71818
            ],
            [
              -85.538085,
              35.794145
            ],
            [
              -85.491494,
              35.75
            ],
            [
              -85.575,
              35.667223
            ],
            [
              -85.666141,
              35.675
            ],
            [
              -85.63973,
              35.5
            ],
            [
              -85.570119,
              35.524103
            ],
            [
              -85.625,
              35.416445
            ],
            [
              -85.7,
              35.390065
            ],
            [
              -85.683167,
              35.474987
            ],
            [
              -85.790094,
              35.539951
            ],
            [
              -85.939898,
              35.45
            ],
            [
              -85.814136,
              35.325
            ],
            [
              -86.01554,
              35.225
            ],
            [
              -85.914599,
              35.15
            ],
            [
              -85.919279,
              34.975
            ],
            [
              -85.85,
              34.929348
            ],
            [
              -85.729607,
              35.025
            ],
            [
              -85.831807,
              35.075
            ],
            [
              -85.834495,
              35.2
            ],
            [
              -85.725,
              35.209832
            ],
            [
              -85.675,
              35.336089
            ],
            [
              -85.575,
              35.18176
            ],
            [
              -85.534703,
              35.225
            ],
            [
              -85.282338,
              35.575
            ],
            [
              -85.382742,
              35.675
            ],
            [
              -85.308842,
              35.675
            ],
            [
              -85.231361,
              35.925
            ],
            [
              -84.90077,
              36.175
            ],
            [
              -84.862376,
              36.375
            ],
            [
              -84.362376,
              37.025
            ],
            [
              -84.125,
              37.112376
            ],
            [
              -83.9,
              37.037376
            ],
            [
              -83.962376,
              37.1
            ],
            [
              -83.75,
              37.237376
            ],
            [
              -83.475,
              37.187376
            ],
            [
              -83.375,
              37.376348
            ],
            [
              -83.025,
              37.512376
            ],
            [
              -82.95,
              37.462376
            ],
            [
              -82.887376,
              37.7
            ],
            [
              -82.812376,
              37.725
            ],
            [
              -82.912376,
              37.875
            ],
            [
              -82.775,
              37.762376
            ],
            [
              -82.612376,
              37.825
            ],
            [
              -82.562376,
              38.075
            ],
            [
              -82.662376,
              38.1
            ],
            [
              -82.625,
              38.162376
            ],
            [
              -82.525,
              38.062376
            ],
            [
              -82.4,
              38.187376
            ],
            [
              -82.3,
              38.087376
            ],
            [
              -82.0,
              38.062376
            ],
            [
              -81.175,
              38.137376
            ],
            [
              -79.95,
              38.737376
            ],
            [
              -79.712376,
              38.975
            ],
            [
              -79.437376,
              39.55
            ],
            [
              -79.487376,
              39.625
            ],
            [
              -79.437376,
              39.85
            ],
            [
              -78.979534,
              40.375
            ],
            [
              -79.375,
              40.012624
            ],
            [
              -79.437376,
              40.45
            ],
            [
              -79.05,
              40.787376
            ],
            [
              -78.9,
              40.762376
            ],
            [
              -78.65,
              41.004505
            ],
            [
              -78.125,
              41.180122
            ],
            [
              -77.9,
              41.377131
            ],
            [
              -77.6,
              41.403584
            ],
            [
              -77.6,
              41.304885
            ],
            [
              -77.5,
              41.32908
            ],
            [
              -77.5,
              41.254093
            ],
            [
              -77.375,
              41.230614
            ],
            [
              -77.352233,
              41.3
            ],
            [
              -77.525,
              41.397764
            ],
            [
              -77.627665,
              41.575
            ],
            [
              -77.487376,
              41.725
            ],
            [
              -77.625,
              41.762376
            ],
            [
              -77.1,
              41.825511
            ],
            [
              -76.936272,
              41.775561
            ],
            [
              -77.087624,
              41.725
            ],
            [
              -77.012624,
              41.7
            ],
            [
              -77.05,
              41.662624
            ],
            [
              -77.237624,
              41.75
            ],
            [
              -77.237624,
              41.6
            ],
            [
              -77.125,
              41.587376
            ],
            [
              -76.925,
              41.637376
            ],
            [
              -76.825,
              41.762376
            ],
            [
              -75.8,
              41.762376
            ],
            [
              -75.175,
              42.062376
            ],
            [
              -74.975,
              42.250544
            ],
            [
              -74.2,
              42.262376
            ],
            [
              -74.048987,
              42.2
            ],
            [
              -74.362624,
              41.25
            ],
            [
              -74.525,
              41.187624
            ],
            [
              -74.937624,
              40.725
            ],
            [
              -74.85,
              40.687376
            ],
            [
              -74.55,
              40.837376
            ],
            [
              -74.712376,
              40.85
            ],
            [
              -74.325,
              41.087376
            ],
            [
              -74.323835,
              40.9
            ],
            [
              -74.5,
              40.737624
            ],
            [
              -74.875,
              40.537624
            ],
            [
              -74.95,
              40.599694
            ],
            [
              -75.325,
              40.337624
            ],
            [
              -75.725,
              39.887624
            ],
            [
              -76.05,
              39.996627
            ],
            [
              -76.25,
              39.937624
            ],
            [
              -76.3,
              40.024625
            ],
            [
              -76.386582,
              39.858743
            ],
            [
              -76.425,
              39.971637
            ],
            [
              -76.6,
              40.021729
            ],
            [
              -77.05,
              39.76921
            ],
            [
              -77.046737,
              39.675
            ],
            [
              -77.216265,
              39.5
            ],
            [
              -77.244056,
              39.3
            ],
            [
              -77.15,
              39.331051
            ],
            [
              -77.143066,
              39.2
            ],
            [
              -77.417211,
              39.025
            ],
            [
              -77.518198,
              38.675
            ],
            [
              -77.840558,
              38.5
            ],
            [
              -77.740301,
              38.375
            ],
            [
              -77.764838,
              38.225
            ],
            [
              -78.488463,
              37.725
            ],
            [
              -78.238129,
              37.6
            ],
            [
              -78.21369,
              37.4
            ],
            [
              -78.4,
              37.26484
            ],
            [
              -78.75,
              37.363605
            ],
            [
              -79.075,
              37.013318
            ],
            [
              -79.275,
              37.01321
            ],
            [
              -79.488333,
              36.675
            ],
            [
              -79.325,
              36.634865
            ],
            [
              -79.15,
              36.735008
            ],
            [
              -79.25,
              36.56494
            ],
            [
              -79.675,
              36.538977
            ],
            [
              -79.75,
              36.439148
            ],
            [
              -79.95,
              36.389521
            ],
            [
              -80.075,
              36.215091
            ],
            [
              -80.55,
              36.118596
            ],
            [
              -80.71808,
              36.0
            ],
            [
              -80.75,
              35.862624
            ],
            [
              -80.937624,
              35.775
            ],
            [
              -80.85,
              35.562624
            ],
            [
              -81.175,
              35.537624
            ],
            [
              -81.775,
              35.312624
            ],
            [
              -82.2,
              34.974276
            ],
            [
              -83.125,
              34.545645
            ],
            [
              -83.175,
              34.412624
            ],
            [
              -83.4,
              34.287624
            ],
            [
              -83.75,
              34.218243
            ],
            [
              -83.75,
              34.290715
            ],
            [
              -83.9,
              34.31326
            ],
            [
              -83.867905,
              34.175
            ],
            [
              -84.141278,
              34.025
            ],
            [
              -83.919883,
              33.875
            ],
            [
              -84.0,
              33.648767
            ],
            [
              -84.25,
              33.621515
            ],
            [
              -84.425,
              33.819266
            ],
            [
              -84.75,
              33.822307
            ],
            [
              -84.880306,
              33.95
            ],
            [
              -84.837854,
              34.083001
            ],
            [
              -84.9,
              34.019469
            ],
            [
              -85.05,
              34.095937
            ],
            [
              -85.396459,
              33.65
            ],
            [
              -85.312624,
              33.575
            ],
            [
              -85.75,
              33.220777
            ],
            [
              -86.325,
              33.248834
            ],
            [
              -86.637376,
              33.65
            ],
            [
              -86.076728,
              34.125
            ],
            [
              -86.050299,
              34.3
            ],
            [
              -85.95,
              34.325029
            ],
            [
              -85.880238,
              34.475
            ],
            [
              -86.009882,
              34.471514
            ],
            [
              -85.808466,
              34.6
            ],
            [
              -85.85,
              34.721081
            ],
            [
              -86.425,
              34.27406
            ],
            [
              -86.350064,
              34.4
            ],
            [
              -86.575,
              34.544421
            ],
            [
              -86.696342,
              34.45
            ]
          ]
        ]
      },
      "properties": {
        "hazard": "MTN_OBSC",
        "threshold_pct": 50.0,
        "mountainous_relief_ft": 500.0,
        "clearance_margin_ft": 500.0,
        "neighborhood_radius_nm": 50.0,
        "min_area_sq_mi": 3000.0,
        "terrain_radius_nm": 12.0,
        "valid_time": "2026-10-11T15:00:00Z",
        "model_cycle": "2026-10-11T09:00:00Z",
        "forecast_hour": 6,
        "weather_type": "PCPN/BR"
      }
    },
    {
      "type": "Feature",
      "geometry": {
        "type": "MultiPolygon",
        "coordinates": [
          [
            [
              [
                -121.645646,
                46.705449
              ],
              [
                -121.437624,
                46.5
              ],
              [
                -121.412624,
                45.975
              ],
              [
                -121.287624,
                45.625
              ],
              [
                -120.975,
                45.337376
              ],
              [
                -120.5,
                45.187376
              ],
              [
                -119.825,
                45.2758
              ],
              [
                -119.475,
                45.450021
              ],
              [
                -118.925,
                45.537376
              ],
              [
                -118.375,
                45.737376
              ],
              [
                -118.15,
                45.862376
              ],
              [
                -117.75,
                46.350566
              ],
              [
                -116.85,
                46.262376
              ],
              [
                -116.475,
                46.362376
              ],
              [
                -116.062376,
                46.7
              ],
              [
                -115.926679,
                47.15
              ],
              [
                -115.72581,
                47.475
              ],
              [
                -115.712376,
                47.725
              ],
              [
                -115.962376,
                48.275
              ],
              [
                -116.425656,
                48.675
              ],
              [
                -116.55,
                49.007536
              ],
              [
                -116.2,
                48.987376
              ],
              [
                -115.9,
                48.787376
              ],
              [
                -115.525,
                48.687376
              ],
              [
                -114.9,
                48.75088
              ],
              [
                -114.475,
                48.983297
              ],
              [
                -112.675359,
                48.987265
              ],
              [
                -112.737624,
                48.925
              ],
              [
                -112.575,
                48.862376
              ],
              [
                -112.351944,
                48.937376
              ],
              [
                -112.337624,
                48.775
              ],
              [
                -112.437624,
                48.625
              ],
              [
                -112.175,
                48.487376
              ],
              [
                -112.012376,
                48.525
              ],
              [
                -112.187376,
                48.6
              ],
              [
                -112.212376,
                48.75
              ],
              [
                -111.987376,
                48.85
              ],
              [
                -112.155535,
                48.978428
              ],
              [
                -110.725,
                48.977469
              ],
              [
                -110.621918,
                48.725
              ],
              [
                -110.95,
                48.537624
              ],
              [
                -111.275,
                48.562624
              ],
              [
                -111.425,
                48.487624
              ],
              [
                -111.725,
                48.712624
              ],
              [
                -111.912624,
                48.6
              ],
              [
                -111.637624,
                48.4
              ],
              [
                -111.747179,
                48.35
              ],
              [
                -111.75,
                48.187624
              ],
              [
                -112.021793,
                48.092242
              ],
              [
                -111.7,
                48.137376
              ],
              [
                -111.665034,
                47.987226
              ],
              [
                -111.475,
                48.029407
              ],
              [
                -111.0,
                47.954526
              ],
              [
                -110.781859,
                48.1
              ],
              [
                -110.975,
                48.09316
              ],
              [
                -111.125,
                48.193455
              ],
              [
                -111.3,
                48.067615
              ],
              [
                -111.525,
                48.124779
              ],
              [
                -111.65,
                48.071827
              ],
              [
                -111.637376,
                48.15
              ],
              [
                -111.35,
                48.231741
              ],
              [
                -111.25,
                48.337376
              ],
              [
                -110.975,
                48.277316
              ],
              [
                -110.575,
                48.325374
              ],
              [
                -110.472962,
                48.275
              ],
              [
                -110.520293,
                48.0
              ],
              [
                -110.425,
                47.979749
              ],
              [
                -110.256802,
                48.15
              ],
              [
                -110.230869,
                48.425
              ],
              [
                -110.0,
                48.553765
              ],
              [
                -109.95,
                48.662376
              ],
              [
                -109.8,
                48.627901
              ],
              [
                -109.525,
                48.712376
              ],
              [
                -109.35,
                48.653518
              ],
              [
                -109.275,
                48.850143
              ],
              [
                -108.975,
                48.637376
              ],
              [
                -108.3,
                48.512376
              ],
              [
                -108.15,
                48.387376
              ],
              [
                -107.9,
                48.387376
              ],
              [
                -107.675,
                48.462376
              ],
              [
                -107.637376,
                48.6
              ],
              [
                -107.562376,
                48.6
              ],
              [
                -107.7,
                48.837376
              ],
              [
                -107.6,
                48.887376
              ],
              [
                -107.537624,
                48.65
              ],
              [
                -107.35,
                48.587376
              ],
              [
                -107.280604,
                48.856763
              ],
              [
                -107.12479,
                48.8
              ],
              [
                -107.247992,
                48.675
              ],
              [
                -107.1,
                48.537376
              ],
              [
                -107.012376,
                48.625
              ],
              [
                -107.087376,
                48.725
              ],
              [
                -106.900848,
                48.95
              ],
              [
                -107.10205,
                49.0
              ],
              [
                -106.725,
                49.000943
              ],
              [
                -106.622394,
                48.9
              ],
              [
                -106.724255,
                48.875
              ],
              [
                -106.69885,
                48.75
              ],
              [
                -106.912624,
                48.5
              ],
              [
                -106.75,
                48.512376
              ],
              [
                -106.737624,
                48.425
              ],
              [
                -106.537624,
                48.3
              ],
              [
                -106.625,
                48.212376
              ],
              [
                -106.425,
                48.212376
              ],
              [
                -106.425,
                48.375382
              ],
              [
                -106.35,
                48.162376
              ],
              [
                -105.7,
                48.137376
              ],
              [
                -105.175,
                48.262376
              ],
              [
                -105.062624,
                48.05
              ],
              [
                -105.3,
                48.087624
              ],
              [
                -105.325,
                47.987624
              ],
              [
                -105.475,
                48.087624
              ],
              [
                -105.85,
                48.012624
              ],
              [
                -105.879877,
                47.877158
              ],
              [
                -106.025,
                48.012624
              ],
              [
                -106.15,
                47.962624
              ],
              [
                -106.325,
                48.062624
              ],
              [
                -106.412624,
                47.95
              ],
              [
                -106.362748,
                47.800371
              ],
              [
                -106.475,
                47.912624
              ],
              [
                -106.6,
                47.737624
              ],
              [
                -106.65,
                47.787624
              ],
              [
                -106.75,
                47.687624
              ],
              [
                -106.85,
                47.737624
              ],
              [
                -106.887624,
                47.6
              ],
              [
                -106.975,
                47.662624
              ],
              [
                -107.05,
                47.537624
              ],
              [
                -107.4,
                47.69881
              ],
              [
                -107.425,
                47.573864
              ],
              [
                -107.525,
                47.647206
              ],
              [
                -107.675,
                47.612624
              ],
              [
                -107.662624,
                47.5
              ],
              [
                -107.574875,
                47.475
              ],
              [
                -107.7,
                47.362624
              ],
              [
                -107.875,
                47.437624
              ],
              [
                -107.912624,
                47.225
              ],
              [
                -107.65,
                47.051226
              ],
              [
                -107.55,
                47.062376
              ],
              [
                -107.549909,
                46.975
              ],
              [
                -107.925,
                47.162624
              ],
              [
                -107.875,
                47.037376
              ],
              [
                -107.712624,
                46.975
              ],
              [
                -107.912624,
                46.9
              ],
              [
                -107.6,
                46.912376
              ],
              [
                -107.512624,
                46.85
              ],
              [
                -107.687624,
                46.775
              ],
              [
                -107.562624,
                46.675
              ],
              [
                -107.825,
                46.562624
              ],
              [
                -107.825,
                46.450136
              ],
              [
                -107.675,
                46.462376
              ],
              [
                -107.575,
                46.375326
              ],
              [
                -107.550231,
                46.45
              ],
              [
                -107.637376,
                46.525
              ],
              [
                -107.575,
                46.637376
              ],
              [
                -107.275,
                46.487376
              ],
              [
                -107.237376,
                46.525
              ],
              [
                -107.412376,
                46.675
              ],
              [
                -107.350469,
                46.725
              ],
              [
                -107.487376,
                46.875
              ],
              [
                -107.2,
                46.912376
              ],
              [
                -107.1,
                46.775457
              ],
              [
                -106.975,
                46.77525
              ],
              [
                -106.925178,
                46.85
              ],
              [
                -106.975808,
                46.875
              ],
              [
                -106.875,
                46.901426
              ],
              [
                -106.662624,
                46.7
              ],
              [
                -106.875,
                46.748647
              ],
              [
                -106.799485,
                46.65
              ],
              [
                -106.925,
                46.612624
              ],
              [
                -106.900042,
                46.7
              ],
              [
                -106.975,
                46.722609
              ],
              [
                -107.237624,
                46.45
              ],
              [
                -107.2,
                46.412376
              ],
              [
                -106.675,
                46.350367
              ],
              [
                -106.663411,
                46.604726
              ],
              [
                -106.630748,
                46.408744
              ],
              [
                -106.525,
                46.412376
              ],
              [
                -106.5,
                46.326553
              ],
              [
                -106.4,
                46.412376
              ],
              [
                -105.975,
                46.412376
              ],
              [
                -106.013989,
                46.585934
              ],
              [
                -105.925,
                46.475105
              ],
              [
                -105.87571,
                46.625
              ],
              [
                -105.975662,
                46.725
              ],
              [
                -105.776722,
                46.725308
              ],
              [
                -105.900144,
                46.85
              ],
              [
                -105.751441,
                46.875
              ],
              [
                -105.8,
                47.000651
              ],
              [
                -105.4,
                47.026947
              ],
              [
                -105.301022,
                47.125
              ],
              [
                -105.326376,
                47.2
              ],
              [
                -105.201567,
                47.275
              ],
              [
                -105.175,
                47.426012
              ],
              [
                -104.923859,
                47.35
              ],
              [
                -104.99839,
                47.2
              ],
              [
                -104.9,
                47.012376
              ],
              [
                -104.825,
                47.187376
              ],
              [
                -104.512376,
                47.375
              ],
              [
                -104.587376,
                47.425
              ],
              [
                -104.553187,
                47.561757
              ],
              [
                -104.5,
                47.437376
              ],
              [
                -104.375,
                47.562376
              ],
              [
                -103.887624,
                47.35
              ],
              [
                -104.025,
                47.237624
              ],
              [
                -104.225,
                47.287624
              ],
              [
                -104.225,
                47.162624
              ],
              [
                -104.375,
                47.224902
              ],
              [
                -104.325,
                47.112624
              ],
              [
                -104.489027,
                47.26875
              ],
              [
                -104.6,
                47.24985
              ],
              [
                -104.637624,
                47.15
              ],
              [
                -104.525,
                47.037376
              ],
              [
                -104.337624,
                47.0
              ],
              [
                -104.362624,
                46.875
              ],
              [
                -104.462624,
                46.825
              ],
              [
                -104.35,
                46.562624
              ],
              [
                -104.9,
                46.787624
              ],
              [
                -104.925,
                46.887624
              ],
              [
                -105.125,
                46.837624
              ],
              [
                -105.125,
                46.762624
              ],
              [
                -105.225,
                46.812624
              ],
              [
                -105.362624,
                46.75
              ],
              [
                -105.225,
                46.650514
              ],
              [
                -105.0,
                46.737376
              ],
              [
                -104.675,
                46.487376
              ],
              [
                -104.212624,
                46.375
              ],
              [
                -104.425,
                46.362624
              ],
              [
                -104.45,
                46.287624
              ],
              [
                -104.675,
                46.312624
              ],
              [
                -104.6,
                46.162376
              ],
              [
                -104.35,
                46.102033
              ],
              [
                -104.137376,
                46.25
              ],
              [
                -104.15,
                46.312376
              ],
              [
                -104.075,
                46.225035
              ],
              [
                -103.987376,
                46.35
              ],
              [
                -104.062376,
                46.475
              ],
              [
                -103.862376,
                46.65
              ],
              [
                -104.162376,
                46.875
              ],
              [
                -104.162376,
                46.991859
              ],
              [
                -103.95,
                47.162376
              ],
              [
                -103.625,
                47.137376
              ],
              [
                -103.625,
                47.237376
              ],
              [
                -103.312624,
                46.775
              ],
              [
                -103.437624,
                46.7
              ],
              [
                -103.3,
                46.637376
              ],
              [
                -103.087624,
                46.7
              ],
              [
                -103.049811,
                46.45
              ],
              [
                -103.275,
                46.274679
              ],
              [
                -103.4,
                46.337624
              ],
              [
                -103.5,
                46.262624
              ],
              [
                -103.675,
                46.512624
              ],
              [
                -103.825,
                46.512624
              ],
              [
                -103.912624,
                46.4
              ],
              [
                -103.862624,
                46.125
              ],
              [
                -104.175,
                45.749705
              ],
              [
                -104.25,
                45.774742
              ],
              [
                -104.387624,
                45.5
              ],
              [
                -104.337624,
                45.4
              ],
              [
                -104.55,
                45.312624
              ],
              [
                -104.787624,
                45.325
              ],
              [
                -104.775,
                45.212376
              ],
              [
                -104.375,
                45.312376
              ],
              [
                -104.362624,
                45.075
              ],
              [
                -104.237624,
                44.875
              ],
              [
                -103.925,
                44.587376
              ],
              [
                -103.625,
                44.475016
              ],
              [
                -103.65,
                44.412624
              ],
              [
                -104.35,
                44.399376
              ],
              [
                -104.45,
                44.512624
              ],
              [
                -105.1,
                44.712624
              ],
              [
                -105.087376,
                44.925
              ],
              [
                -104.837376,
                45.1
              ],
              [
                -105.075,
                45.187624
              ],
              [
                -105.237624,
                44.85
              ],
              [
                -105.137624,
                44.75
              ],
              [
                -105.45,
                44.762624
              ],
              [
                -105.437376,
                44.875
              ],
              [
                -105.537376,
                44.95
              ],
              [
                -105.46701,
                44.964073
              ],
              [
                -105.587376,
                45.05
              ],
              [
                -105.512376,
                45.075
              ],
              [
                -105.55,
                45.162376
              ],
              [
                -105.437376,
                45.15
              ],
              [
                -105.575,
                45.262624
              ],
              [
                -105.7,
                45.037624
              ],
              [
                -105.8,
                45.137624
              ],
              [
                -105.92458,
                45.0
              ],
              [
                -105.775,
                44.837376
              ],
              [
                -105.725,
                44.912376
              ],
              [
                -105.662624,
                44.85
              ],
              [
                -105.862624,
                44.75
              ],
              [
                -105.825,
                44.687624
              ],
              [
                -106.025,
                44.737624
              ],
              [
                -105.962624,
                44.65
              ],
              [
                -106.362624,
                44.375
              ],
              [
                -106.587624,
                43.675
              ],
              [
                -107.012624,
                43.025
              ],
              [
                -106.987624,
                42.575
              ],
              [
                -106.774314,
                42.275
              ],
              [
                -106.637624,
                41.65
              ],
              [
                -106.449645,
                41.375
              ],
              [
                -106.437624,
                40.9
              ],
              [
                -106.1,
                40.487376
              ],
              [
                -105.724501,
                40.325
              ],
              [
                -106.125,
                40.187624
              ],
              [
                -106.437624,
                39.9
              ],
              [
                -106.587624,
                39.4
              ],
              [
                -106.287624,
                38.7
              ],
              [
                -105.62453,
                38.125
              ],
              [
                -105.197462,
                37.6
              ],
              [
                -105.174659,
                37.175
              ],
              [
                -105.412624,
                36.825
              ],
              [
                -105.620875,
                36.158746
              ],
              [
                -105.687376,
                36.325
              ],
              [
                -106.125,
                36.687624
              ],
              [
                -106.475,
                36.773537
              ],
              [
                -107.425,
                37.212624
              ],
              [
                -108.2,
                37.249903
              ],
              [
                -108.5,
                37.487624
              ],
              [
                -108.975,
                37.637624
              ],
              [
                -109.4,
                37.62103
              ],
              [
                -109.775,
                37.447171
              ],
              [
                -110.45,
                37.312624
              ],
              [
                -111.125,
                36.862624
              ],
              [
                -111.474027,
                36.45
              ],
              [
                -111.562624,
                35.8
              ],
              [
                -111.412624,
                35.4
              ],
              [
                -111.437624,
                34.875
              ],
              [
                -111.162624,
                34.475
              ],
              [
                -111.225,
                34.403127
              ],
              [
                -111.075,
                34.387376
              ],
              [
                -110.7,
                34.050688
              ],
              [
                -110.4,
                33.912376
              ],
              [
                -109.125,
                33.937376
              ],
              [
                -108.637624,
                34.025
              ],
              [
                -108.637624,
                33.6
              ],
              [
                -108.462624,
                33.2
              ],
              [
                -109.025,
                32.962624
              ],
              [
                -109.262624,
                32.725
              ],
              [
                -109.362624,
                32.5
              ],
              [
                -109.362624,
                32.15
              ],
              [
                -109.149851,
                31.675
              ],
              [
                -109.8,
                31.587624
              ],
              [
                -110.275,
                31.348683
              ],
              [
                -111.35,
                31.424761
              ],
              [
                -111.801995,
                31.65
              ],
              [
                -111.826132,
                31.825
              ],
              [
                -111.7,
                31.977011
              ],
              [
                -111.275,
                32.112376
              ],
              [
                -110.962376,
                32.4
              ],
              [
                -110.837376,
                32.85
              ],
              [
                -110.962376,
                33.2
              ],
              [
                -111.2,
                33.437624
              ],
              [
                -111.875,
                33.848264
              ],
              [
                -112.325,
                33.948123
              ],
              [
                -112.675,
                33.912624
              ],
              [
                -113.55,
                33.562624
              ],
              [
                -113.9,
                33.248245
              ],
              [
                -114.050045,
                33.325
              ],
              [
                -114.012376,
                33.575
              ],
              [
                -114.137376,
                33.925
              ],
              [
                -114.375,
                34.162624
              ],
              [
                -114.775,
                34.337624
              ],
              [
                -115.375,
                34.337624
              ],
              [
                -115.775,
                34.162624
              ],
              [
                -116.087624,
                33.775
              ],
              [
                -116.199249,
                32.925
              ],
              [
                -116.123472,
                32.625
              ],
              [
                -117.1,
                32.542643
              ],
              [
                -117.362376,
                33.175
              ],
              [
                -118.125,
                33.962624
              ],
              [
                -118.55,
                34.212624
              ],
              [
                -119.3,
                34.487624
              ],
              [
                -120.025497,
                34.575
              ],
              [
                -119.9,
                34.653076
              ],
              [
                -119.525,
                34.562376
              ],
              [
                -119.125,
                34.587376
              ],
              [
                -118.8,
                34.712376
              ],
              [
                -118.487376,
                35.0
              ],
              [
                -118.187376,
                35.95
              ],
              [
                -118.175974,
                36.325
              ],
              [
                -117.962376,
                36.775
              ],
              [
                -118.102435,
                37.375
              ],
              [
                -117.787376,
                37.675
              ],
              [
                -117.662376,
                38.025
              ],
              [
                -117.800672,
                38.5
              ],
              [
                -117.775151,
                38.9
              ],
              [
                -117.375,
                38.887376
              ],
              [
                -116.7,
                39.012376
              ],
              [
                -116.3,
                39.162376
              ],
              [
                -116.053611,
                39.375
              ],
              [
                -115.612376,
                40.05
              ],
              [
                -115.525402,
                40.6
              ],
              [
                -115.2,
                40.878107
              ],
              [
                -115.075124,
                41.15
              ],
              [
                -114.425,
                41.287376
              ],
              [
                -114.012376,
                41.625
              ],
              [
                -113.887376,
                41.975
              ],
              [
                -113.92584,
                42.3
              ],
              [
                -113.737376,
                42.575
              ],
              [
                -113.687376,
                42.9
              ],
              [
                -113.812376,
                43.25
              ],
              [
                -114.175,
                43.57457
              ],
              [
                -115.2,
                43.837624
              ],
              [
                -115.65,
                44.312624
              ],
              [
                -116.125,
                44.499187
              ],
              [
                -116.162376,
                44.95
              ],
              [
                -116.6,
                45.474685
              ],
              [
                -117.3,
                45.687624
              ],
              [
                -117.875,
                45.512624
              ],
              [
                -118.375,
                44.974595
              ],
              [
                -119.25,
                45.062624
              ],
              [
                -119.725,
                44.912624
              ],
              [
                -120.15,
                44.449979
              ],
              [
                -120.725,
                44.162624
              ],
              [
                -121.05,
                43.749888
              ],
              [
                -121.55,
                43.587624
              ],
              [
                -121.925,
                43.249754
              ],
              [
                -122.125812,
                43.525
              ],
              [
                -121.937376,
                43.725
              ],
              [
                -121.800216,
                44.075
              ],
              [
                -121.812376,
                44.7
              ],
              [
                -121.662376,
                45.1
              ],
              [
                -121.729426,
                45.45
              ],
              [
                -121.487376,
                45.925
              ],
              [
                -121.487376,
                46.325
              ],
              [
                -121.645646,
                46.705449
              ]
            ]
          ],
          [
            [
              [
                -105.925,
                47.862376
              ],
              [
                -105.875,
                47.799731
              ],
              [
                -105.937376,
                47.825
              ],
              [
                -105.925,
                47.862376
              ]
            ]
          ],
          [
            [
              [
                -106.300062,
                47.787438
              ],
              [
                -106.237624,
                47.725
              ],
              [
                -106.284284,
                47.678339
              ],
              [
                -106.412376,
                47.75
              ],
              [
                -106.300062,
                47.787438
              ]
            ]
          ],
          [
            [
              [
                -107.821462,
                47.297596
              ],
              [
                -107.725,
                47.312376
              ],
              [
                -107.687624,
                47.275
              ],
              [
                -107.75,
                47.262624
              ],
              [
                -107.821462,
                47.297596
              ]
            ]
          ]
        ]
      },
      "properties": {
        "hazard": "MTN_OBSC",
        "threshold_pct": 50.0,
        "mountainous_relief_ft": 500.0,
        "clearance_margin_ft": 500.0,
        "neighborhood_radius_nm": 50.0,
        "min_area_sq_mi": 3000.0,
        "terrain_radius_nm": 12.0,
        "valid_time": "2026-10-11T15:00:00Z",
        "model_cycle": "2026-10-11T09:00:00Z",
        "forecast_hour": 6,
        "weather_type": "PCPN/BR"
      }
    }
  ],
  "mountainous_area_sq_mi": 1459895
}