{
  "type": "FeatureCollection",
  "features": [
    {
      "type": "Feature",
      "geometry": {
        "type": "Polygon",
        "coordinates": [
          [
            [
              -83.275,
              34.624443
            ],
            [
              -83.775,
              34.774823
            ],
            [
              -83.862376,
              34.975
            ],
            [
              -84.302519,
              35.35
            ],
            [
              -84.137376,
              35.825
            ],
            [
              -83.987376,
              35.975
            ],
            [
              -84.025,
              36.037624
            ],
            [
              -84.125,
              35.912624
            ],
            [
              -84.212376,
              36.175
            ],
            [
              -83.725,
              36.212376
            ],
            [
              -83.325,
              36.387376
            ],
            [
              -82.887376,
              36.925
            ],
            [
              -82.937376,
              36.975
            ],
            [
              -82.85,
              37.326089
            ],
            [
              -81.85,
              37.262376
            ],
            [
              -81.3,
              37.537376
            ],
            [
              -81.25,
              37.478927
            ],
            [
              -81.056218,
              37.625
            ],
            [
              -81.075,
              37.69358
            ],
            [
              -81.162376,
              37.675
            ],
            [
              -80.825,
              38.275097
            ],
            [
              -80.45,
              38.462376
            ],
            [
              -79.525,
              38.737376
            ],
            [
              -79.225,
              39.037376
            ],
            [
              -78.7,
              39.212376
            ],
            [
              -78.125,
              39.027214
            ],
            [
              -77.775,
              39.000063
            ],
            [
              -77.498695,
              38.775
            ],
            [
              -77.575,
              38.612624
            ],
            [
              -77.849769,
              38.5
            ],
            [
              -77.745131,
              38.375
            ],
            [
              -77.767238,
              38.225
            ],
            [
              -78.495547,
              37.725
            ],
            [
              -78.247387,
              37.6
            ],
            [
              -78.245541,
              37.375
            ],
            [
              -78.4,
              37.271025
            ],
            [
              -78.75,
              37.370977
            ],
            [
              -79.075,
              37.021538
            ],
            [
              -79.225,
              37.048299
            ],
            [
              -79.390702,
              36.875
            ],
            [
              -79.345753,
              36.825
            ],
            [
              -79.49543,
              36.675
            ],
            [
              -79.325,
              36.626989
            ],
            [
              -79.15,
              36.727285
            ],
            [
              -79.25,
              36.572146
            ],
            [
              -79.675,
              36.544917
            ],
            [
              -79.75,
              36.444543
            ],
            [
              -79.95,
              36.397033
            ],
            [
              -80.075,
              36.218168
            ],
            [
              -80.7,
              36.019292
            ],
            [
              -80.75,
              35.871082
            ],
            [
              -80.945296,
              35.775
            ],
            [
              -80.844303,
              35.525
            ],
            [
              -80.968824,
              35.3
            ],
            [
              -80.895872,
              35.225
            ],
            [
              -81.0,
              35.119437
            ],
            [
              -81.45,
              34.946241
            ],
            [
              -81.793603,
              34.919022
            ],
            [
              -81.725,
              35.056308
            ],
            [
              -81.581101,
              35.05
            ],
            [
              -81.606591,
              35.225
            ],
            [
              -81.95,
              35.220781
            ],
            [
              -81.944173,
              35.125
            ],
            [
              -82.145397,
              34.975
            ],
            [
              -82.171629,
              34.8
            ],
            [
              -82.3,
              34.720029
            ],
            [
              -82.95,
              34.712624
            ],
            [
              -83.275,
              34.624443
            ]
          ]
        ]
      },
      "properties": {
        "hazard": "MTN_OBSC",
        "threshold_pct": 50.0,
        "mountainous_relief_ft": 500.0,
        "clearance_margin_ft": 500.0,
        "neighborhood_radius_nm": 50.0,
        "min_area_sq_mi": 3000.0,
        "terrain_radius_nm": 12.0,
        "valid_time": "2026-10-04T06:00:00Z",
        "model_cycle": "2026-10-03T21:00:00Z",
        "forecast_hour": 9,
        "weather_type": "BR"
      }
    }
  ],
  "mountainous_area_sq_mi": 1459895
}