{
  "type": "FeatureCollection",
  "features": [
    {
      "type": "Feature",
      "geometry": {
        "type": "Polygon",
        "coordinates": [
          [
            [
              -95.828231,
              34.649741
            ],
            [
              -95.45,
              34.787376
            ],
            [
              -94.925,
              35.150391
            ],
            [
              -94.525,
              35.262376
            ],
            [
              -93.925,
              35.253026
            ],
            [
              -93.4,
              35.562376
            ],
            [
              -93.262624,
              35.1
            ],
            [
              -92.798713,
              34.725
            ],
            [
              -92.925,
              34.562624
            ],
            [
              -93.1,
              34.537624
            ],
            [
              -93.35,
              34.299548
            ],
            [
              -93.85,
              34.173994
            ],
            [
              -94.125,
              34.197079
            ],
            [
              -94.45,
              34.362624
            ],
            [
              -94.925,
              34.437624
            ],
            [
              -95.4,
              34.637624
            ],
            [
              -95.828231,
              34.649741
            ]
          ]
        ]
      },
      "properties": {
        "hazard": "MTN_OBSC",
        "threshold_pct": 50.0,
        "mountainous_relief_ft": 500.0,
        "clearance_margin_ft": 500.0,
        "neighborhood_radius_nm": 50.0,
        "min_area_sq_mi": 3000.0,
        "terrain_radius_nm": 12.0,
        "valid_time": "2026-10-03T21:00:00Z",
        "model_cycle": "2026-10-03T21:00:00Z",
        "forecast_hour": 0,
        "weather_type": "CLDS"
      }
    },
    {
      "type": "Feature",
      "geometry": {
        "type": "Polygon",
        "coordinates": [
          [
            [
              -84.275,
              35.37392
            ],
            [
              -84.27559,
              35.5
            ],
            [
              -83.875,
              35.826177
            ],
            [
              -83.637376,
              36.15
            ],
            [
              -83.475638,
              36.975
            ],
            [
              -82.525,
              37.437376
            ],
            [
              -82.225,
              37.487376
            ],
            [
              -82.2,
              37.587376
            ],
            [
              -82.025,
              37.612376
            ],
            [
              -82.037376,
              37.725
            ],
            [
              -81.675,
              38.025212
            ],
            [
              -81.075,
              38.226226
            ],
            [
              -80.5,
              38.600487
            ],
            [
              -79.875,
              38.851407
            ],
            [
              -79.675,
              38.687376
            ],
            [
              -79.225,
              38.512376
            ],
            [
              -78.149781,
              38.525
            ],
            [
              -78.023959,
              38.075
            ],
            [
              -78.496705,
              37.725
            ],
            [
              -78.249423,
              37.6
            ],
            [
              -78.223597,
              37.4
            ],
            [
              -78.4,
              37.272702
            ],
            [
              -78.75,
              37.369972
            ],
            [
              -78.95,
              37.121261
            ],
            [
              -79.275,
              37.023795
            ],
            [
              -79.45,
              36.762624
            ],
            [
              -80.125,
              36.248674
            ],
            [
              -81.0,
              36.198842
            ],
            [
              -81.825,
              35.887624
            ],
            [
              -82.15,
              35.662624
            ],
            [
              -82.675,
              35.787624
            ],
            [
              -83.325,
              35.747147
            ],
            [
              -84.275,
              35.37392
            ]
          ]
        ]
      },
      "properties": {
        "hazard": "MTN_OBSC",
        "threshold_pct": 50.0,
        "mountainous_relief_ft": 500.0,
        "clearance_margin_ft": 500.0,
        "neighborhood_radius_nm": 50.0,
        "min_area_sq_mi": 3000.0,
        "terrain_radius_nm": 12.0,
        "valid_time": "2026-10-03T21:00:00Z",
        "model_cycle": "2026-10-03T21:00:00Z",
        "forecast_hour": 0,
        "weather_type": "PCPN/BR"
      }
    }
  ],
  "mountainous_area_sq_mi": 1459895
}