{
  "type": "FeatureCollection",
  "features": [
    {
      "type": "Feature",
      "geometry": {
        "type": "Polygon",
        "coordinates": [
          [
            [
              -81.1,
              35.362624
            ],
            [
              -82.65,
              35.299599
            ],
            [
              -83.1,
              35.437624
            ],
            [
              -83.55,
              35.412624
            ],
            [
              -83.85,
              35.2994
            ],
            [
              -84.325172,
              35.3
            ],
            [
              -83.137376,
              36.225
            ],
            [
              -83.012376,
              36.575
            ],
            [
              -83.1,
              37.026117
            ],
            [
              -82.125,
              37.362376
            ],
            [
              -81.787376,
              37.675
            ],
            [
              -81.687376,
              37.9
            ],
            [
              -81.475,
              38.027836
            ],
            [
              -80.5,
              38.412376
            ],
            [
              -80.05,
              38.462376
            ],
            [
              -80.0,
              38.381892
            ],
            [
              -79.875,
              38.527584
            ],
            [
              -79.725,
              38.412376
            ],
            [
              -79.675,
              38.462376
            ],
            [
              -79.325,
              38.362376
            ],
            [
              -78.625,
              38.387376
            ],
            [
              -78.225,
              38.50101
            ],
            [
              -78.137624,
              38.45
            ],
            [
              -78.024612,
              38.075
            ],
            [
              -78.496966,
              37.725
            ],
            [
              -78.237624,
              37.6
            ],
            [
              -78.22284,
              37.425
            ],
            [
              -78.3,
              37.324139
            ],
            [
              -78.5,
              37.262624
            ],
            [
              -78.75,
              37.37006
            ],
            [
              -79.1,
              37.012624
            ],
            [
              -79.295059,
              37.0
            ],
            [
              -79.375,
              36.787624
            ],
            [
              -79.973923,
              36.375
            ],
            [
              -80.075,
              36.223765
            ],
            [
              -80.7,
              36.012624
            ],
            [
              -80.937624,
              35.775
            ],
            [
              -81.1,
              35.362624
            ]
          ]
        ]
      },
      "properties": {
        "hazard": "MTN_OBSC",
        "threshold_pct": 50.0,
        "mountainous_relief_ft": 500.0,
        "clearance_margin_ft": 500.0,
        "neighborhood_radius_nm": 50.0,
        "min_area_sq_mi": 3000.0,
        "terrain_radius_nm": 12.0,
        "valid_time": "2026-10-04T00:00:00Z",
        "model_cycle": "2026-10-03T21:00:00Z",
        "forecast_hour": 3,
        "weather_type": "PCPN"
      }
    }
  ],
  "mountainous_area_sq_mi": 1459895
}