{
  "type": "FeatureCollection",
  "features": [
    {
      "type": "Feature",
      "geometry": {
        "type": "Polygon",
        "coordinates": [
          [
            [
              -74.986872,
              48.775746
            ],
            [
              -74.175792,
              49.249333
            ],
            [
              -74.001816,
              49.541926
            ],
            [
              -73.85897,
              50.170761
            ],
            [
              -73.415884,
              50.402526
            ],
            [
              -72.054,
              50.080226
            ],
            [
              -71.311092,
              50.059647
            ],
            [
              -70.761339,
              49.913928
            ],
            [
              -70.312099,
              49.705222
            ],
            [
              -70.136906,
              49.460349
            ],
            [
              -69.695569,
              49.091812
            ],
            [
              -69.055201,
              48.86757
            ],
            [
              -68.56365,
              48.863711
            ],
            [
              -67.811882,
              49.051792
            ],
            [
              -67.364553,
              49.306564
            ],
            [
              -67.064745,
              49.600325
            ],
            [
              -66.551037,
              49.814653
            ],
            [
              -66.151552,
              50.100226
            ],
            [
              -66.040507,
              50.075556
            ],
            [
              -65.673907,
              49.643696
            ],
            [
              -65.328384,
              49.421278
            ],
            [
              -64.875213,
              49.298579
            ],
            [
              -64.259323,
              49.31056
            ],
            [
              -63.550645,
              49.619029
            ],
            [
              -63.28458,
              50.067455
            ],
            [
              -61.929133,
              49.906158
            ],
            [
              -61.440268,
              49.991285
            ],
            [
              -61.06395,
              50.157363
            ],
            [
              -60.735514,
              50.460107
            ],
            [
              -60.129646,
              51.66344
            ],
            [
              -60.625769,
              50.268371
            ],
            [
              -62.496642,
              45.844483
            ],
            [
              -63.233827,
              43.710764
            ],
            [
              -63.390466,
              44.029
            ],
            [
              -63.697793,
              44.264156
            ],
            [
              -64.113853,
              44.397527
            ],
            [
              -64.600575,
              44.407216
            ],
            [
              -65.677406,
              44.244394
            ],
            [
              -66.236549,
              43.939695
            ],
            [
              -66.867302,
              43.814688
            ],
            [
              -67.195696,
              43.590221
            ],
            [
              -67.452482,
              43.260527
            ],
            [
              -67.587147,
              42.820817
            ],
            [
              -67.405767,
              42.185162
            ],
            [
              -67.095111,
              41.858682
            ],
            [
              -66.503384,
              41.660953
            ],
            [
              -66.067931,
              41.67866
            ],
            [
              -65.674894,
              41.815269
            ],
            [
              -65.334415,
              42.075615
            ],
            [
              -65.034925,
              42.512668
            ],
            [
              -64.095274,
              42.560371
            ],
            [
              -63.715186,
              42.722806
            ],
            [
              -63.480795,
              42.930447
            ],
            [
              -63.761852,
              41.99618
            ],
            [
              -63.861501,
              41.882627
            ],
            [
              -64.200527,
              41.826263
            ],
            [
              -64.728361,
              41.598893
            ],
            [
              -65.086548,
              41.343066
            ],
            [
              -65.576631,
              41.164823
            ],
            [
              -66.286623,
              40.609518
            ],
            [
              -66.910959,
              40.418641
            ],
            [
              -67.434892,
              40.437736
            ],
            [
              -67.888947,
              40.813738
            ],
            [
              -68.509789,
              40.950038
            ],
            [
              -68.622608,
              41.151232
            ],
            [
              -68.559242,
              41.635989
            ],
            [
              -68.182678,
              42.012706
            ],
            [
              -67.983839,
              42.641959
            ],
            [
              -68.014417,
              43.013628
            ],
            [
              -68.170468,
              43.276296
            ],
            [
              -68.1344,
              43.484889
            ],
            [
              -67.484495,
              44.529012
            ],
            [
              -67.178959,
              44.802458
            ],
            [
              -66.525844,
              45.968536
            ],
            [
              -66.640232,
              46.423606
            ],
            [
              -67.153273,
              46.776712
            ],
            [
              -67.169422,
              47.23744
            ],
            [
              -67.473874,
              47.662495
            ],
            [
              -67.800605,
              47.88443
            ],
            [
              -68.118921,
              47.987421
            ],
            [
              -68.825,
              47.995593
            ],
            [
              -69.422571,
              47.746545
            ],
            [
              -69.911948,
              47.05528
            ],
            [
              -70.086178,
              46.972504
            ],
            [
              -70.735298,
              47.034149
            ],
            [
              -71.198934,
              47.171422
            ],
            [
              -71.660375,
              47.174984
            ],
            [
              -72.902919,
              46.92556
            ],
            [
              -73.386757,
              46.625207
            ],
            [
              -74.315377,
              46.561085
            ],
            [
              -74.430995,
              46.626188
            ],
            [
              -74.095773,
              47.057357
            ],
            [
              -73.995569,
              47.92955
            ],
            [
              -74.114433,
              48.161109
            ],
            [
              -74.333749,
              48.358014
            ],
            [
              -74.986003,
              48.602271
            ],
            [
              -74.986872,
              48.775746
            ]
          ]
        ]
      },
      "properties": {
        "hazard": "IFR",
        "threshold_pct": 50.0,
        "neighborhood_radius_nm": 50.0,
        "min_area_sq_mi": 3000.0,
        "valid_time": "2026-07-31T12:00:00Z",
        "model_cycle": "2026-07-31T09:00:00Z",
        "forecast_hour": 3,
        "cause": "CIG/VIS",
        "weather_type": "PCPN/BR/FG"
      }
    },
    {
      "type": "Feature",
      "geometry": {
        "type": "Polygon",
        "coordinates": [
          [
            [
              -74.772654,
              43.766236
            ],
            [
              -74.822668,
              44.242421
            ],
            [
              -75.354864,
              44.701161
            ],
            [
              -75.234655,
              44.983062
            ],
            [
              -74.574958,
              45.019666
            ],
            [
              -73.493618,
              44.451472
            ],
            [
              -73.961572,
              44.125783
            ],
            [
              -74.459617,
              43.991979
            ],
            [
              -74.772654,
              43.766236
            ]
          ]
        ]
      },
      "properties": {
        "hazard": "IFR",
        "threshold_pct": 50.0,
        "neighborhood_radius_nm": 50.0,
        "min_area_sq_mi": 3000.0,
        "valid_time": "2026-07-31T12:00:00Z",
        "model_cycle": "2026-07-31T09:00:00Z",
        "forecast_hour": 3,
        "cause": "CIG/VIS",
        "weather_type": "BR"
      }
    },
    {
      "type": "Feature",
      "geometry": {
        "type": "Polygon",
        "coordinates": [
          [
            [
              -72.466986,
              44.47537
            ],
            [
              -72.139569,
              44.650042
            ],
            [
              -71.88463,
              44.95363
            ],
            [
              -71.045455,
              44.92182
            ],
            [
              -70.341234,
              45.04969
            ],
            [
              -70.753154,
              44.809211
            ],
            [
              -71.011665,
              44.47714
            ],
            [
              -71.810628,
              44.04183
            ],
            [
              -72.466986,
              44.47537
            ]
          ]
        ]
      },
      "properties": {
        "hazard": "IFR",
        "threshold_pct": 50.0,
        "neighborhood_radius_nm": 50.0,
        "min_area_sq_mi": 3000.0,
        "valid_time": "2026-07-31T12:00:00Z",
        "model_cycle": "2026-07-31T09:00:00Z",
        "forecast_hour": 3,
        "cause": "CIG/VIS",
        "weather_type": "BR/FG"
      }
    },
    {
      "type": "Feature",
      "geometry": {
        "type": "Polygon",
        "coordinates": [
          [
            [
              -90.976902,
              56.430128
            ],
            [
              -90.796649,
              56.669013
            ],
            [
              -90.76435,
              57.000159
            ],
            [
              -88.011485,
              57.00146
            ],
            [
              -85.587414,
              56.850249
            ],
            [
              -85.090208,
              55.812891
            ],
            [
              -84.681879,
              55.475379
            ],
            [
              -84.040233,
              55.29288
            ],
            [
              -82.986266,
              55.273741
            ],
            [
              -82.092675,
              55.105166
            ],
            [
              -81.253384,
              55.190147
            ],
            [
              -80.897183,
              55.332752
            ],
            [
              -80.530489,
              55.611191
            ],
            [
              -80.005091,
              55.686024
            ],
            [
              -78.860351,
              56.025083
            ],
            [
              -78.063661,
              55.79248
            ],
            [
              -77.14327,
              55.706111
            ],
            [
              -77.417844,
              55.351664
            ],
            [
              -77.717329,
              55.176979
            ],
            [
              -78.657391,
              54.913004
            ],
            [
              -79.134186,
              54.51227
            ],
            [
              -79.20005,
              54.271068
            ],
            [
              -79.082874,
              53.438826
            ],
            [
              -78.883779,
              52.851559
            ],
            [
              -79.073844,
              52.508085
            ],
            [
              -79.077657,
              52.176206
            ],
            [
              -79.245451,
              51.826437
            ],
            [
              -79.515695,
              51.501715
            ],
            [
              -79.861748,
              51.301306
            ],
            [
              -80.483952,
              51.546313
            ],
            [
              -80.450068,
              51.867729
            ],
            [
              -80.567551,
              52.286341
            ],
            [
              -80.82717,
              52.643208
            ],
            [
              -81.335554,
              52.882374
            ],
            [
              -81.909648,
              52.958172
            ],
            [
              -81.978883,
              53.051275
            ],
            [
              -82.016162,
              53.523533
            ],
            [
              -82.306483,
              53.901365
            ],
            [
              -82.345982,
              54.340586
            ],
            [
              -82.52731,
              54.560349
            ],
            [
              -82.81454,
              54.737641
            ],
            [
              -83.31743,
              54.880572
            ],
            [
              -84.510811,
              54.866203
            ],
            [
              -85.690417,
              55.088134
            ],
            [
              -86.894699,
              55.001984
            ],
            [
              -87.734416,
              55.551819
            ],
            [
              -88.036484,
              55.859626
            ],
            [
              -88.363304,
              56.014094
            ],
            [
              -89.244341,
              56.127098
            ],
            [
              -90.025925,
              56.359866
            ],
            [
              -90.976902,
              56.430128
            ]
          ]
        ]
      },
      "properties": {
        "hazard": "IFR",
        "threshold_pct": 50.0,
        "neighborhood_radius_nm": 50.0,
        "min_area_sq_mi": 3000.0,
        "valid_time": "2026-07-31T12:00:00Z",
        "model_cycle": "2026-07-31T09:00:00Z",
        "forecast_hour": 3,
        "cause": "CIG"
      }
    },
    {
      "type": "Feature",
      "geometry": {
        "type": "Polygon",
        "coordinates": [
          [
            [
              -90.680007,
              32.626795
            ],
            [
              -90.130216,
              32.682719
            ],
            [
              -89.510874,
              32.949783
            ],
            [
              -89.105176,
              32.85125
            ],
            [
              -88.685828,
              32.903195
            ],
            [
              -88.395748,
              32.825162
            ],
            [
              -88.438746,
              32.486516
            ],
            [
              -88.283432,
              32.108585
            ],
            [
              -87.768178,
              31.768029
            ],
            [
              -86.88182,
              31.709101
            ],
            [
              -86.504174,
              31.794557
            ],
            [
              -86.245566,
              31.950134
            ],
            [
              -85.560989,
              31.962222
            ],
            [
              -85.011638,
              31.848553
            ],
            [
              -84.813909,
              31.626097
            ],
            [
              -85.259527,
              31.633457
            ],
            [
              -86.036055,
              31.348131
            ],
            [
              -86.517817,
              31.386633
            ],
            [
              -87.135308,
              31.221082
            ],
            [
              -87.555495,
              31.416793
            ],
            [
              -88.283961,
              31.467748
            ],
            [
              -88.470376,
              31.801886
            ],
            [
              -88.673124,
              31.979312
            ],
            [
              -89.310313,
              32.147246
            ],
            [
              -89.594528,
              32.098018
            ],
            [
              -89.921857,
              31.925882
            ],
            [
              -90.143423,
              31.658246
            ],
            [
              -90.236558,
              31.276147
            ],
            [
              -90.385338,
              31.269651
            ],
            [
              -90.487198,
              31.39162
            ],
            [
              -90.277155,
              31.792034
            ],
            [
              -90.284705,
              32.124907
            ],
            [
              -90.445123,
              32.429258
            ],
            [
              -90.680007,
              32.626795
            ]
          ]
        ]
      },
      "properties": {
        "hazard": "IFR",
        "threshold_pct": 50.0,
        "neighborhood_radius_nm": 50.0,
        "min_area_sq_mi": 3000.0,
        "valid_time": "2026-07-31T12:00:00Z",
        "model_cycle": "2026-07-31T09:00:00Z",
        "forecast_hour": 3,
        "cause": "CIG"
      }
    },
    {
      "type": "Feature",
      "geometry": {
        "type": "Polygon",
        "coordinates": [
          [
            [
              -86.898409,
              47.339059
            ],
            [
              -86.386479,
              47.543407
            ],
            [
              -86.039744,
              47.883129
            ],
            [
              -85.974026,
              48.291844
            ],
            [
              -86.247813,
              48.701503
            ],
            [
              -86.136059,
              48.725618
            ],
            [
              -85.94742,
              48.386491
            ],
            [
              -85.724672,
              48.186463
            ],
            [
              -85.310292,
              48.0051
            ],
            [
              -84.862593,
              47.922952
            ],
            [
              -84.830613,
              47.607183
            ],
            [
              -84.603251,
              47.300748
            ],
            [
              -84.505065,
              47.001545
            ],
            [
              -83.944303,
              46.298908
            ],
            [
              -83.585427,
              46.094905
            ],
            [
              -82.972614,
              45.975228
            ],
            [
              -82.509241,
              45.664309
            ],
            [
              -83.613319,
              45.86111
            ],
            [
              -84.333759,
              45.827028
            ],
            [
              -84.980812,
              45.998685
            ],
            [
              -86.006542,
              45.901837
            ],
            [
              -85.753567,
              46.137882
            ],
            [
              -85.638212,
              46.370494
            ],
            [
              -85.62573,
              46.615803
            ],
            [
              -85.718522,
              46.852378
            ],
            [
              -86.183012,
              47.218033
            ],
            [
              -86.898409,
              47.339059
            ]
          ]
        ]
      },
      "properties": {
        "hazard": "IFR",
        "threshold_pct": 50.0,
        "neighborhood_radius_nm": 50.0,
        "min_area_sq_mi": 3000.0,
        "valid_time": "2026-07-31T12:00:00Z",
        "model_cycle": "2026-07-31T09:00:00Z",
        "forecast_hour": 3,
        "cause": "CIG/VIS",
        "weather_type": "BR"
      }
    },
    {
      "type": "Feature",
      "geometry": {
        "type": "Polygon",
        "coordinates": [
          [
            [
              -97.965663,
              42.675964
            ],
            [
              -97.682628,
              43.085242
            ],
            [
              -97.510635,
              44.025756
            ],
            [
              -97.38136,
              44.30063
            ],
            [
              -97.111082,
              44.557548
            ],
            [
              -96.935108,
              44.893946
            ],
            [
              -96.686271,
              44.878571
            ],
            [
              -96.10846,
              44.544897
            ],
            [
              -95.515254,
              44.350022
            ],
            [
              -94.837159,
              43.908358
            ],
            [
              -94.964651,
              43.281234
            ],
            [
              -94.706397,
              42.690165
            ],
            [
              -94.332217,
              42.393298
            ],
            [
              -93.637275,
              42.225335
            ],
            [
              -93.499977,
              42.076445
            ],
            [
              -94.357651,
              41.982087
            ],
            [
              -94.704972,
              41.797138
            ],
            [
              -94.911618,
              41.569254
            ],
            [
              -95.01027,
              41.571021
            ],
            [
              -95.364078,
              41.729393
            ],
            [
              -95.835002,
              41.776831
            ],
            [
              -96.118636,
              42.125248
            ],
            [
              -96.596524,
              42.337068
            ],
            [
              -97.153757,
              42.349523
            ],
            [
              -97.660527,
              42.152464
            ],
            [
              -97.965663,
              42.675964
            ]
          ]
        ]
      },
      "properties": {
        "hazard": "IFR",
        "threshold_pct": 50.0,
        "neighborhood_radius_nm": 50.0,
        "min_area_sq_mi": 3000.0,
        "valid_time": "2026-07-31T12:00:00Z",
        "model_cycle": "2026-07-31T09:00:00Z",
        "forecast_hour": 3,
        "cause": "CIG"
      }
    },
    {
      "type": "Feature",
      "geometry": {
        "type": "Polygon",
        "coordinates": [
          [
            [
              -134.351549,
              43.481223
            ],
            [
              -134.046959,
              43.237785
            ],
            [
              -133.650818,
              43.100668
            ],
            [
              -133.10118,
              43.092294
            ],
            [
              -132.695655,
              43.217541
            ],
            [
              -132.223769,
              43.603324
            ],
            [
              -132.039239,
              43.975538
            ],
            [
              -131.448474,
              44.385231
            ],
            [
              -131.209538,
              44.726492
            ],
            [
              -130.518837,
              45.210832
            ],
            [
              -130.159307,
              46.10087
            ],
            [
              -129.716706,
              46.853619
            ],
            [
              -129.7716,
              47.161331
            ],
            [
              -130.092157,
              47.501434
            ],
            [
              -130.15104,
              47.760794
            ],
            [
              -130.339595,
              48.001374
            ],
            [
              -129.982337,
              48.474816
            ],
            [
              -130.015654,
              48.925835
            ],
            [
              -129.133958,
              49.9172
            ],
            [
              -128.519043,
              50.273248
            ],
            [
              -128.345538,
              50.640154
            ],
            [
              -128.362591,
              51.884595
            ],
            [
              -128.540155,
              52.317547
            ],
            [
              -128.887135,
              52.655156
            ],
            [
              -129.561774,
              52.894917
            ],
            [
              -130.341959,
              52.875411
            ],
            [
              -130.880076,
              52.663841
            ],
            [
              -131.265196,
              52.236498
            ],
            [
              -132.584628,
              52.921219
            ],
            [
              -133.258461,
              53.786576
            ],
            [
              -133.287933,
              53.950415
            ],
            [
              -132.910928,
              54.055588
            ],
            [
              -132.290003,
              53.927665
            ],
            [
              -131.750542,
              53.950292
            ],
            [
              -131.268521,
              54.086864
            ],
            [
              -130.810234,
              54.398806
            ],
            [
              -130.310191,
              54.41822
            ],
            [
              -128.861185,
              54.695293
            ],
            [
              -128.166542,
              54.518271
            ],
            [
              -127.02869,
              54.500237
            ],
            [
              -127.055889,
              54.168585
            ],
            [
              -126.974396,
              53.940555
            ],
            [
              -126.703843,
              53.671755
            ],
            [
              -126.262639,
              53.420989
            ],
            [
              -126.430179,
              53.202588
            ],
            [
              -126.506948,
              52.899643
            ],
            [
              -126.486683,
              52.671029
            ],
            [
              -126.36167,
              52.453356
            ],
            [
              -125.920162,
              52.137869
            ],
            [
              -125.386632,
              51.987537
            ],
            [
              -124.803517,
              51.575931
            ],
            [
              -125.22738,
              51.064342
            ],
            [
              -125.893564,
              51.034942
            ],
            [
              -126.436667,
              50.832848
            ],
            [
              -126.712595,
              50.56872
            ],
            [
              -126.802246,
              50.257271
            ],
            [
              -126.739973,
              50.021227
            ],
            [
              -126.470536,
              49.687479
            ],
            [
              -125.406155,
              49.025687
            ],
            [
              -125.301314,
              48.774676
            ],
            [
              -124.901211,
              48.283079
            ],
            [
              -124.623207,
              46.801074
            ],
            [
              -124.64147,
              46.651375
            ],
            [
              -124.918208,
              46.321094
            ],
            [
              -124.975206,
              46.000331
            ],
            [
              -124.846202,
              45.688602
            ],
            [
              -124.612161,
              45.4701
            ],
            [
              -124.60888,
              45.037581
            ],
            [
              -124.481314,
              44.586353
            ],
            [
              -124.261972,
              44.276509
            ],
            [
              -124.313703,
              43.973195
            ],
            [
              -124.175767,
              43.576461
            ],
            [
              -124.70424,
              43.242479
            ],
            [
              -124.838214,
              43.020167
            ],
            [
              -124.865339,
              42.698583
            ],
            [
              -124.658208,
              42.326336
            ],
            [
              -124.253646,
              42.075403
            ],
            [
              -124.136933,
              41.914623
            ],
            [
              -124.13828,
              41.339163
            ],
            [
              -123.877012,
              40.749572
            ],
            [
              -123.911598,
              40.40756
            ],
            [
              -124.605294,
              40.41962
            ],
            [
              -125.121958,
              40.15671
            ],
            [
              -125.318608,
              39.879088
            ],
            [
              -125.366173,
              39.626504
            ],
            [
              -126.033509,
              38.930919
            ],
            [
              -126.146889,
              38.532277
            ],
            [
              -125.94257,
              37.951169
            ],
            [
              -126.246009,
              37.684047
            ],
            [
              -126.371457,
              37.45648
            ],
            [
              -126.326379,
              36.542583
            ],
            [
              -126.114284,
              36.264099
            ],
            [
              -125.586262,
              35.907089
            ],
            [
              -125.086408,
              35.756115
            ],
            [
              -124.856638,
              35.358009
            ],
            [
              -124.584431,
              35.137604
            ],
            [
              -123.720474,
              34.90831
            ],
            [
              -123.320616,
              34.878017
            ],
            [
              -122.212805,
              35.282448
            ],
            [
              -121.863424,
              35.555452
            ],
            [
              -121.720032,
              35.848042
            ],
            [
              -121.708067,
              36.083626
            ],
            [
              -122.000543,
              36.60153
            ],
            [
              -122.021237,
              36.871835
            ],
            [
              -121.91954,
              37.057261
            ],
            [
              -121.761415,
              37.011554
            ],
            [
              -121.232798,
              36.375552
            ],
            [
              -121.309498,
              35.999449
            ],
            [
              -121.161713,
              35.63005
            ],
            [
              -120.336506,
              34.998111
            ],
            [
              -120.044949,
              34.657345
            ],
            [
              -119.701212,
              34.479859
            ],
            [
              -119.311135,
              34.4257
            ],
            [
              -118.665897,
              34.118065
            ],
            [
              -117.936624,
              34.109866
            ],
            [
              -117.568036,
              33.593704
            ],
            [
              -117.086172,
              33.375302
            ],
            [
              -116.722024,
              32.109511
            ],
            [
              -116.410907,
              31.55758
            ],
            [
              -115.88234,
              30.975792
            ],
            [
              -115.73942,
              30.500938
            ],
            [
              -115.766106,
              30.079593
            ],
            [
              -115.662451,
              29.82531
            ],
            [
              -115.424017,
              29.576576
            ],
            [
              -114.961407,
              29.37982
            ],
            [
              -114.071387,
              28.525798
            ],
            [
              -114.124508,
              28.085559
            ],
            [
              -113.981166,
              27.726674
            ],
            [
              -114.13303,
              27.471779
            ],
            [
              -114.18249,
              27.159387
            ],
            [
              -114.022253,
              26.453459
            ],
            [
              -113.529405,
              25.477895
            ],
            [
              -113.075912,
              24.955608
            ],
            [
              -112.697235,
              24.700526
            ],
            [
              -112.654,
              24.526471
            ],
            [
              -113.035415,
              24.485223
            ],
            [
              -113.524932,
              25.124522
            ],
            [
              -113.905072,
              25.334722
            ],
            [
              -114.352743,
              25.350016
            ],
            [
              -114.954855,
              25.151404
            ],
            [
              -115.363813,
              24.736393
            ],
            [
              -115.416882,
              24.201558
            ],
            [
              -116.100526,
              24.003401
            ],
            [
              -116.728138,
              23.64366
            ],
            [
              -116.955157,
              23.408549
            ],
            [
              -117.251177,
              22.488641
            ],
            [
              -117.072725,
              21.801506
            ],
            [
              -117.585416,
              22.056149
            ],
            [
              -118.021239,
              22.089395
            ],
            [
              -118.492999,
              21.864627
            ],
            [
              -118.736458,
              21.489242
            ],
            [
              -118.907249,
              21.944394
            ],
            [
              -119.117127,
              22.180516
            ],
            [
              -120.635178,
              22.790644
            ],
            [
              -120.926238,
              22.976994
            ],
            [
              -121.136886,
              23.395765
            ],
            [
              -121.487468,
              23.610371
            ],
            [
              -121.911864,
              23.645466
            ],
            [
              -123.035691,
              23.401553
            ],
            [
              -123.335325,
              23.436259
            ],
            [
              -123.61081,
              23.593429
            ],
            [
              -124.41977,
              23.839637
            ],
            [
              -125.635326,
              24.072508
            ],
            [
              -126.047959,
              24.226445
            ],
            [
              -127.359306,
              24.09586
            ],
            [
              -127.343805,
              24.637109
            ],
            [
              -127.510387,
              24.902714
            ],
            [
              -127.809829,
              25.10174
            ],
            [
              -128.326792,
              26.855527
            ],
            [
              -128.046499,
              26.539082
            ],
            [
              -127.636065,
              26.369869
            ],
            [
              -127.267738,
              26.377385
            ],
            [
              -126.605899,
              26.601171
            ],
            [
              -126.265244,
              26.958322
            ],
            [
              -126.191593,
              27.450631
            ],
            [
              -125.80022,
              27.6174
            ],
            [
              -125.500736,
              27.928125
            ],
            [
              -125.402821,
              28.24122
            ],
            [
              -125.450131,
              28.55964
            ],
            [
              -125.702053,
              28.889659
            ],
            [
              -126.259835,
              29.168239
            ],
            [
              -126.433581,
              29.526059
            ],
            [
              -126.333538,
              29.855333
            ],
            [
              -126.39193,
              30.179393
            ],
            [
              -126.597179,
              30.453513
            ],
            [
              -126.920571,
              30.643016
            ],
            [
              -127.284636,
              30.701957
            ],
            [
              -127.835626,
              30.580236
            ],
            [
              -128.233635,
              30.651076
            ],
            [
              -128.600336,
              30.585919
            ],
            [
              -129.082697,
              30.214091
            ],
            [
              -129.207238,
              29.710379
            ],
            [
              -130.431048,
              33.133534
            ],
            [
              -130.082428,
              32.827158
            ],
            [
              -129.686695,
              32.704349
            ],
            [
              -129.50152,
              32.355853
            ],
            [
              -129.148613,
              32.113121
            ],
            [
              -128.604653,
              32.040089
            ],
            [
              -128.078885,
              32.195592
            ],
            [
              -127.758083,
              32.491168
            ],
            [
              -127.643163,
              32.794724
            ],
            [
              -127.675896,
              33.109117
            ],
            [
              -127.963132,
              33.600694
            ],
            [
              -127.624931,
              33.823984
            ],
            [
              -127.404308,
              34.114871
            ],
            [
              -127.310192,
              34.525298
            ],
            [
              -127.342205,
              34.833055
            ],
            [
              -127.64935,
              35.484356
            ],
            [
              -127.957096,
              35.77925
            ],
            [
              -128.405161,
              35.923389
            ],
            [
              -128.980874,
              35.853572
            ],
            [
              -129.518747,
              35.513691
            ],
            [
              -130.096191,
              34.601782
            ],
            [
              -130.504932,
              34.246541
            ],
            [
              -130.635263,
              33.957905
            ],
            [
              -130.643808,
              33.675909
            ],
            [
              -133.428574,
              39.957331
            ],
            [
              -133.583376,
              40.37591
            ],
            [
              -133.355855,
              40.707178
            ],
            [
              -133.336136,
              41.01405
            ],
            [
              -134.351549,
              43.481223
            ]
          ],
          [
            [
              -119.968385,
              29.682791
            ],
            [
              -120.574201,
              29.03195
            ],
            [
              -120.673459,
              28.637053
            ],
            [
              -120.548813,
              28.252016
            ],
            [
              -120.23199,
              27.967925
            ],
            [
              -119.79586,
              27.848541
            ],
            [
              -119.022446,
              27.859395
            ],
            [
              -118.612706,
              28.056991
            ],
            [
              -118.390676,
              28.324766
            ],
            [
              -118.303722,
              28.728388
            ],
            [
              -118.451488,
              29.280113
            ],
            [
              -118.616008,
              29.571845
            ],
            [
              -118.820284,
              29.739384
            ],
            [
              -119.165897,
              29.865653
            ],
            [
              -119.635846,
              29.842401
            ],
            [
              -119.968385,
              29.682791
            ]
          ],
          [
            [
              -126.184898,
              30.004846
            ],
            [
              -125.668907,
              29.542335
            ],
            [
              -125.111112,
              29.472291
            ],
            [
              -124.698525,
              29.291583
            ],
            [
              -124.3674,
              29.245588
            ],
            [
              -123.974638,
              29.302934
            ],
            [
              -123.591823,
              29.526916
            ],
            [
              -123.384878,
              29.829852
            ],
            [
              -122.942291,
              29.958739
            ],
            [
              -122.669068,
              30.173251
            ],
            [
              -122.486886,
              30.53626
            ],
            [
              -122.496681,
              30.913741
            ],
            [
              -122.848338,
              31.418534
            ],
            [
              -123.679228,
              31.727394
            ],
            [
              -124.479303,
              32.351093
            ],
            [
              -124.919789,
              32.469334
            ],
            [
              -125.37962,
              32.401601
            ],
            [
              -125.752638,
              32.163948
            ],
            [
              -126.105953,
              31.632208
            ],
            [
              -126.035186,
              30.976254
            ],
            [
              -126.221623,
              30.608461
            ],
            [
              -126.270988,
              30.302165
            ],
            [
              -126.184898,
              30.004846
            ]
          ],
          [
            [
              -128.437063,
              44.299067
            ],
            [
              -128.699033,
              43.952035
            ],
            [
              -128.668816,
              43.486213
            ],
            [
              -128.376696,
              43.157583
            ],
            [
              -127.800351,
              42.942416
            ],
            [
              -127.257526,
              42.959401
            ],
            [
              -126.868839,
              43.102029
            ],
            [
              -125.725475,
              44.009757
            ],
            [
              -125.584998,
              44.235478
            ],
            [
              -125.574323,
              44.725759
            ],
            [
              -125.41016,
              45.039997
            ],
            [
              -125.492791,
              45.476007
            ],
            [
              -125.263021,
              45.821434
            ],
            [
              -125.214481,
              46.062471
            ],
            [
              -125.272895,
              46.303027
            ],
            [
              -125.457367,
              46.57608
            ],
            [
              -125.421677,
              46.956855
            ],
            [
              -125.598538,
              47.258973
            ],
            [
              -126.155767,
              47.569168
            ],
            [
              -126.997271,
              47.593184
            ],
            [
              -127.597336,
              47.3868
            ],
            [
              -128.136462,
              46.86735
            ],
            [
              -128.66654,
              46.733325
            ],
            [
              -129.013239,
              46.502547
            ],
            [
              -129.187502,
              46.224206
            ],
            [
              -129.358023,
              45.613077
            ],
            [
              -129.34324,
              45.377886
            ],
            [
              -129.032693,
              44.963113
            ],
            [
              -128.411657,
              44.724851
            ],
            [
              -128.35828,
              44.576248
            ],
            [
              -128.437063,
              44.299067
            ]
          ],
          [
            [
              -129.858219,
              36.943816
            ],
            [
              -129.094895,
              37.195641
            ],
            [
              -128.85103,
              37.438178
            ],
            [
              -128.698203,
              37.793664
            ],
            [
              -128.752001,
              38.257562
            ],
            [
              -129.134933,
              38.619572
            ],
            [
              -129.369328,
              38.990354
            ],
            [
              -129.691108,
              39.197612
            ],
            [
              -130.20346,
              39.294786
            ],
            [
              -131.323211,
              39.193391
            ],
            [
              -131.830409,
              38.922212
            ],
            [
              -132.018548,
              38.641034
            ],
            [
              -132.05224,
              38.328129
            ],
            [
              -131.62623,
              37.233468
            ],
            [
              -131.436307,
              36.959929
            ],
            [
              -131.037109,
              36.730582
            ],
            [
              -130.645626,
              36.66988
            ],
            [
              -130.251192,
              36.729216
            ],
            [
              -129.858219,
              36.943816
            ]
          ]
        ]
      },
      "properties": {
        "hazard": "IFR",
        "threshold_pct": 50.0,
        "neighborhood_radius_nm": 50.0,
        "min_area_sq_mi": 3000.0,
        "valid_time": "2026-07-31T12:00:00Z",
        "model_cycle": "2026-07-31T09:00:00Z",
        "forecast_hour": 3,
        "cause": "CIG/VIS",
        "weather_type": "PCPN/BR"
      }
    },
    {
      "type": "Feature",
      "geometry": {
        "type": "Polygon",
        "coordinates": [
          [
            [
              -66.31215,
              49.500636
            ],
            [
              -66.15972,
              49.653088
            ],
            [
              -65.855395,
              49.776115
            ],
            [
              -65.844279,
              49.443355
            ],
            [
              -65.557709,
              48.851174
            ],
            [
              -65.747166,
              48.611352
            ],
            [
              -65.805785,
              48.373672
            ],
            [
              -65.590134,
              47.870844
            ],
            [
              -65.554438,
              47.576395
            ],
            [
              -65.8862,
              47.195473
            ],
            [
              -66.492784,
              47.526395
            ],
            [
              -66.452246,
              48.179851
            ],
            [
              -66.634175,
              48.875912
            ],
            [
              -66.429117,
              49.121988
            ],
            [
              -66.31215,
              49.500636
            ]
          ]
        ]
      },
      "properties": {
        "hazard": "IFR",
        "threshold_pct": 50.0,
        "neighborhood_radius_nm": 50.0,
        "min_area_sq_mi": 3000.0,
        "valid_time": "2026-07-31T12:00:00Z",
        "model_cycle": "2026-07-31T09:00:00Z",
        "forecast_hour": 3,
        "cause": "CIG"
      }
    },
    {
      "type": "Feature",
      "geometry": {
        "type": "Polygon",
        "coordinates": [
          [
            [
              -97.25927,
              44.395124
            ],
            [
              -97.041237,
              44.643534
            ],
            [
              -96.959789,
              44.875494
            ],
            [
              -96.686362,
              44.87841
            ],
            [
              -96.049474,
              44.511206
            ],
            [
              -95.53615,
              44.366905
            ],
            [
              -94.832223,
              43.901289
            ],
            [
              -94.925114,
              43.601496
            ],
            [
              -95.085444,
              43.533607
            ],
            [
              -95.884687,
              43.796969
            ],
            [
              -96.447467,
              44.225284
            ],
            [
              -97.234663,
              44.323735
            ],
            [
              -97.25927,
              44.395124
            ]
          ]
        ]
      },
      "properties": {
        "hazard": "IFR",
        "threshold_pct": 50.0,
        "neighborhood_radius_nm": 50.0,
        "min_area_sq_mi": 3000.0,
        "valid_time": "2026-07-31T12:00:00Z",
        "model_cycle": "2026-07-31T09:00:00Z",
        "forecast_hour": 3,
        "cause": "CIG"
      }
    },
    {
      "type": "Feature",
      "geometry": {
        "type": "Polygon",
        "coordinates": [
          [
            [
              -129.984415,
              54.400219
            ],
            [
              -129.635006,
              54.556702
            ],
            [
              -128.885626,
              54.678714
            ],
            [
              -128.208995,
              54.522381
            ],
            [
              -127.561569,
              54.538932
            ],
            [
              -127.500897,
              54.467812
            ],
            [
              -127.62629,
              54.023644
            ],
            [
              -127.378655,
              53.607841
            ],
            [
              -127.238179,
              52.881393
            ],
            [
              -127.235327,
              52.751376
            ],
            [
              -127.449471,
              52.406339
            ],
            [
              -127.371772,
              52.008813
            ],
            [
              -127.177208,
              51.797913
            ],
            [
              -126.780495,
              51.586426
            ],
            [
              -126.068008,
              51.475106
            ],
            [
              -125.212523,
              51.180988
            ],
            [
              -125.261135,
              51.050718
            ],
            [
              -125.729268,
              51.045368
            ],
            [
              -126.204739,
              50.921419
            ],
            [
              -126.682802,
              50.550059
            ],
            [
              -126.770935,
              50.315968
            ],
            [
              -126.747145,
              50.076127
            ],
            [
              -126.265814,
              49.410189
            ],
            [
              -126.585883,
              49.344854
            ],
            [
              -126.959513,
              49.469498
            ],
            [
              -127.462191,
              50.051096
            ],
            [
              -126.89916,
              50.549711
            ],
            [
              -126.829416,
              50.868216
            ],
            [
              -126.911305,
              51.1044
            ],
            [
              -127.388337,
              51.480906
            ],
            [
              -128.187357,
              51.651904
            ],
            [
              -128.409604,
              51.976396
            ],
            [
              -128.66002,
              52.697219
            ],
            [
              -129.874398,
              53.793073
            ],
            [
              -129.966334,
              53.951211
            ],
            [
              -129.984415,
              54.400219
            ]
          ]
        ]
      },
      "properties": {
        "hazard": "IFR",
        "threshold_pct": 50.0,
        "neighborhood_radius_nm": 50.0,
        "min_area_sq_mi": 3000.0,
        "valid_time": "2026-07-31T12:00:00Z",
        "model_cycle": "2026-07-31T09:00:00Z",
        "forecast_hour": 3,
        "cause": "CIG/VIS",
        "weather_type": "PCPN/BR"
      }
    },
    {
      "type": "Feature",
      "geometry": {
        "type": "Polygon",
        "coordinates": [
          [
            [
              -67.52726,
              43.250646
            ],
            [
              -67.204757,
              43.65073
            ],
            [
              -66.371435,
              44.163974
            ],
            [
              -65.6256,
              45.252515
            ],
            [
              -65.524937,
              45.575767
            ],
            [
              -65.044311,
              46.028675
            ],
            [
              -64.938006,
              46.337487
            ],
            [
              -64.976763,
              46.632699
            ],
            [
              -65.242207,
              47.051162
            ],
            [
              -65.085041,
              47.204848
            ],
            [
              -64.509204,
              46.863684
            ],
            [
              -63.55961,
              46.546587
            ],
            [
              -63.097501,
              46.508018
            ],
            [
              -62.542939,
              46.625214
            ],
            [
              -62.195273,
              46.83466
            ],
            [
              -62.025302,
              47.040434
            ],
            [
              -61.32683,
              48.582321
            ],
            [
              -63.686792,
              42.313968
            ],
            [
              -64.208276,
              42.42294
            ],
            [
              -64.6513,
              42.399337
            ],
            [
              -65.044812,
              42.252335
            ],
            [
              -65.683352,
              41.747884
            ],
            [
              -66.283337,
              41.60454
            ],
            [
              -66.735448,
              41.592131
            ],
            [
              -67.284557,
              41.895379
            ],
            [
              -67.500733,
              42.276416
            ],
            [
              -67.61183,
              42.776107
            ],
            [
              -67.52726,
              43.250646
            ]
          ]
        ]
      },
      "properties": {
        "hazard": "IFR",
        "threshold_pct": 50.0,
        "neighborhood_radius_nm": 50.0,
        "min_area_sq_mi": 3000.0,
        "valid_time": "2026-07-31T12:00:00Z",
        "model_cycle": "2026-07-31T09:00:00Z",
        "forecast_hour": 3,
        "cause": "CIG/VIS",
        "weather_type": "BR/FG"
      }
    },
    {
      "type": "Feature",
      "geometry": {
        "type": "Polygon",
        "coordinates": [
          [
            [
              -122.169142,
              28.351898
            ],
            [
              -122.159779,
              28.438698
            ],
            [
              -121.866927,
              28.625238
            ],
            [
              -121.156519,
              28.850697
            ],
            [
              -120.716693,
              29.084175
            ],
            [
              -120.258471,
              29.464278
            ],
            [
              -119.879201,
              29.981922
            ],
            [
              -119.823572,
              30.292924
            ],
            [
              -119.923908,
              30.626276
            ],
            [
              -119.836084,
              30.638021
            ],
            [
              -119.286284,
              30.550011
            ],
            [
              -119.111834,
              30.445705
            ],
            [
              -118.661881,
              30.035833
            ],
            [
              -118.105044,
              29.356848
            ],
            [
              -116.61218,
              28.360012
            ],
            [
              -116.160143,
              28.229369
            ],
            [
              -115.386381,
              28.199408
            ],
            [
              -114.786742,
              27.538665
            ],
            [
              -114.758084,
              27.276238
            ],
            [
              -115.083259,
              26.876802
            ],
            [
              -115.281714,
              26.806031
            ],
            [
              -115.789802,
              27.001938
            ],
            [
              -116.47553,
              27.598552
            ],
            [
              -116.96639,
              27.74977
            ],
            [
              -117.428737,
              27.688616
            ],
            [
              -117.803135,
              27.435949
            ],
            [
              -118.125269,
              26.940104
            ],
            [
              -118.156281,
              26.62307
            ],
            [
              -118.036778,
              26.0114
            ],
            [
              -118.555015,
              25.811168
            ],
            [
              -118.886423,
              25.477229
            ],
            [
              -119.735316,
              25.462674
            ],
            [
              -121.01036,
              25.657577
            ],
            [
              -121.359851,
              25.852404
            ],
            [
              -121.534789,
              26.325775
            ],
            [
              -121.016539,
              26.750825
            ],
            [
              -120.895146,
              27.053064
            ],
            [
              -120.911205,
              27.370282
            ],
            [
              -121.184632,
              27.770227
            ],
            [
              -121.934883,
              28.076413
            ],
            [
              -122.169142,
              28.351898
            ]
          ]
        ]
      },
      "properties": {
        "hazard": "IFR",
        "threshold_pct": 50.0,
        "neighborhood_radius_nm": 50.0,
        "min_area_sq_mi": 3000.0,
        "valid_time": "2026-07-31T12:00:00Z",
        "model_cycle": "2026-07-31T09:00:00Z",
        "forecast_hour": 3,
        "cause": "CIG/VIS",
        "weather_type": "BR"
      }
    },
    {
      "type": "Feature",
      "geometry": {
        "type": "Polygon",
        "coordinates": [
          [
            [
              -130.29492,
              41.426122
            ],
            [
              -129.522945,
              41.709701
            ],
            [
              -129.271753,
              41.961988
            ],
            [
              -129.146499,
              42.350392
            ],
            [
              -128.685451,
              42.603161
            ],
            [
              -128.113865,
              42.294784
            ],
            [
              -127.704215,
              42.169318
            ],
            [
              -127.258849,
              42.167365
            ],
            [
              -126.845624,
              42.289503
            ],
            [
              -126.528291,
              42.517304
            ],
            [
              -126.209702,
              43.00444
            ],
            [
              -125.906291,
              43.161035
            ],
            [
              -125.260688,
              43.699788
            ],
            [
              -125.248234,
              43.376267
            ],
            [
              -125.489732,
              42.760165
            ],
            [
              -125.530096,
              42.226323
            ],
            [
              -125.662329,
              41.914071
            ],
            [
              -125.614783,
              41.554655
            ],
            [
              -125.736633,
              41.201581
            ],
            [
              -125.885854,
              41.102267
            ],
            [
              -126.149851,
              41.450533
            ],
            [
              -126.382978,
              41.615326
            ],
            [
              -127.103034,
              41.760576
            ],
            [
              -127.703877,
              41.588365
            ],
            [
              -127.926704,
              41.414794
            ],
            [
              -128.098924,
              41.125089
            ],
            [
              -128.128137,
              40.566507
            ],
            [
              -127.708893,
              39.893977
            ],
            [
              -127.279274,
              39.659674
            ],
            [
              -126.393306,
              39.505628
            ],
            [
              -126.370089,
              39.354434
            ],
            [
              -126.76392,
              38.451022
            ],
            [
              -127.310934,
              37.827317
            ],
            [
              -127.559873,
              37.893495
            ],
            [
              -128.334633,
              38.599283
            ],
            [
              -128.521192,
              38.933286
            ],
            [
              -128.43961,
              39.991352
            ],
            [
              -128.587171,
              40.375522
            ],
            [
              -129.040235,
              40.685583
            ],
            [
              -129.660169,
              40.757788
            ],
            [
              -130.29492,
              41.426122
            ]
          ]
        ]
      },
      "properties": {
        "hazard": "IFR",
        "threshold_pct": 50.0,
        "neighborhood_radius_nm": 50.0,
        "min_area_sq_mi": 3000.0,
        "valid_time": "2026-07-31T12:00:00Z",
        "model_cycle": "2026-07-31T09:00:00Z",
        "forecast_hour": 3,
        "cause": "CIG/VIS",
        "weather_type": "BR"
      }
    }
  ]
}