{
  "type": "FeatureCollection",
  "features": [
    {
      "type": "Feature",
      "geometry": {
        "type": "Polygon",
        "coordinates": [
          [
            [
              -66.692957,
              48.500617
            ],
            [
              -66.64968,
              48.82581
            ],
            [
              -66.453398,
              49.067254
            ],
            [
              -66.377431,
              49.301191
            ],
            [
              -66.410742,
              49.538238
            ],
            [
              -66.59466,
              49.800918
            ],
            [
              -66.134958,
              50.075311
            ],
            [
              -65.635737,
              50.156754
            ],
            [
              -65.156562,
              50.398931
            ],
            [
              -64.649366,
              50.962244
            ],
            [
              -64.621173,
              51.375997
            ],
            [
              -64.535137,
              51.484688
            ],
            [
              -64.012324,
              51.299527
            ],
            [
              -63.371676,
              51.261032
            ],
            [
              -62.879755,
              51.365055
            ],
            [
              -62.384994,
              51.609907
            ],
            [
              -61.820205,
              51.616842
            ],
            [
              -61.358244,
              51.736284
            ],
            [
              -60.924815,
              52.006285
            ],
            [
              -60.703161,
              52.297468
            ],
            [
              -60.670303,
              52.535675
            ],
            [
              -60.822946,
              52.900245
            ],
            [
              -60.043204,
              53.044905
            ],
            [
              -59.5167,
              53.398466
            ],
            [
              -60.614441,
              50.878668
            ],
            [
              -60.640955,
              50.550438
            ],
            [
              -60.931963,
              49.58937
            ],
            [
              -63.735344,
              42.182492
            ],
            [
              -64.025425,
              42.437324
            ],
            [
              -64.37414,
              42.576915
            ],
            [
              -64.796042,
              42.955053
            ],
            [
              -65.169403,
              43.100251
            ],
            [
              -65.623262,
              43.150338
            ],
            [
              -65.868729,
              43.301613
            ],
            [
              -66.542182,
              44.168452
            ],
            [
              -67.018417,
              44.52642
            ],
            [
              -66.852957,
              45.139695
            ],
            [
              -66.952143,
              45.526025
            ],
            [
              -66.931155,
              45.859068
            ],
            [
              -67.191134,
              46.276115
            ],
            [
              -67.049969,
              46.558609
            ],
            [
              -67.055602,
              46.826011
            ],
            [
              -66.912314,
              47.084825
            ],
            [
              -66.886026,
              47.375802
            ],
            [
              -66.522162,
              47.956594
            ],
            [
              -66.522951,
              48.202909
            ],
            [
              -66.692957,
              48.500617
            ]
          ]
        ]
      },
      "properties": {
        "hazard": "IFR",
        "threshold_pct": 50.0,
        "neighborhood_radius_nm": 50.0,
        "min_area_sq_mi": 3000.0,
        "valid_time": "2026-08-01T06:00:00Z",
        "model_cycle": "2026-07-31T21:00:00Z",
        "forecast_hour": 9,
        "cause": "CIG/VIS",
        "weather_type": "BR/FG"
      }
    },
    {
      "type": "Feature",
      "geometry": {
        "type": "Polygon",
        "coordinates": [
          [
            [
              -69.309185,
              41.226019
            ],
            [
              -69.16651,
              41.475461
            ],
            [
              -68.910415,
              41.606881
            ],
            [
              -67.752559,
              41.612874
            ],
            [
              -66.810415,
              41.802501
            ],
            [
              -66.514492,
              41.725955
            ],
            [
              -66.888883,
              41.026913
            ],
            [
              -67.334448,
              40.947876
            ],
            [
              -67.736266,
              40.726813
            ],
            [
              -68.610098,
              40.852936
            ],
            [
              -69.309185,
              41.226019
            ]
          ]
        ]
      },
      "properties": {
        "hazard": "IFR",
        "threshold_pct": 50.0,
        "neighborhood_radius_nm": 50.0,
        "min_area_sq_mi": 3000.0,
        "valid_time": "2026-08-01T06:00:00Z",
        "model_cycle": "2026-07-31T21:00:00Z",
        "forecast_hour": 9,
        "cause": "CIG"
      }
    },
    {
      "type": "Feature",
      "geometry": {
        "type": "Polygon",
        "coordinates": [
          [
            [
              -83.758902,
              56.77522
            ],
            [
              -78.177613,
              56.531032
            ],
            [
              -74.081706,
              56.20854
            ],
            [
              -72.911516,
              56.081057
            ],
            [
              -72.838675,
              55.951443
            ],
            [
              -74.258575,
              55.583225
            ],
            [
              -74.638625,
              55.314309
            ],
            [
              -74.802873,
              54.942912
            ],
            [
              -75.151432,
              54.749406
            ],
            [
              -75.461615,
              54.425027
            ],
            [
              -76.484682,
              54.100475
            ],
            [
              -76.861553,
              53.881288
            ],
            [
              -77.578613,
              53.744127
            ],
            [
              -78.836449,
              52.977003
            ],
            [
              -79.301641,
              53.2821
            ],
            [
              -81.609521,
              53.976827
            ],
            [
              -82.159424,
              54.351753
            ],
            [
              -82.292323,
              54.775009
            ],
            [
              -82.474322,
              54.984085
            ],
            [
              -83.359164,
              55.376621
            ],
            [
              -83.442872,
              55.825363
            ],
            [
              -83.73353,
              56.451304
            ],
            [
              -83.758902,
              56.77522
            ]
          ]
        ]
      },
      "properties": {
        "hazard": "IFR",
        "threshold_pct": 50.0,
        "neighborhood_radius_nm": 50.0,
        "min_area_sq_mi": 3000.0,
        "valid_time": "2026-08-01T06:00:00Z",
        "model_cycle": "2026-07-31T21:00:00Z",
        "forecast_hour": 9,
        "cause": "CIG"
      }
    },
    {
      "type": "Feature",
      "geometry": {
        "type": "Polygon",
        "coordinates": [
          [
            [
              -86.970575,
              48.601985
            ],
            [
              -86.537868,
              48.675139
            ],
            [
              -85.761874,
              48.124063
            ],
            [
              -84.887305,
              48.01884
            ],
            [
              -84.265009,
              47.479862
            ],
            [
              -83.544961,
              47.200418
            ],
            [
              -83.447399,
              46.776527
            ],
            [
              -83.686264,
              46.629793
            ],
            [
              -84.860293,
              46.502141
            ],
            [
              -85.536747,
              47.036204
            ],
            [
              -85.814361,
              47.476881
            ],
            [
              -86.217536,
              47.726662
            ],
            [
              -86.301628,
              48.021681
            ],
            [
              -86.522028,
              48.304289
            ],
            [
              -86.970575,
              48.601985
            ]
          ]
        ]
      },
      "properties": {
        "hazard": "IFR",
        "threshold_pct": 50.0,
        "neighborhood_radius_nm": 50.0,
        "min_area_sq_mi": 3000.0,
        "valid_time": "2026-08-01T06:00:00Z",
        "model_cycle": "2026-07-31T21:00:00Z",
        "forecast_hour": 9,
        "cause": "CIG"
      }
    },
    {
      "type": "Feature",
      "geometry": {
        "type": "Polygon",
        "coordinates": [
          [
            [
              -93.884109,
              41.17506
            ],
            [
              -93.656092,
              41.341072
            ],
            [
              -93.468211,
              41.613194
            ],
            [
              -93.396925,
              41.929025
            ],
            [
              -93.497848,
              42.275866
            ],
            [
              -93.109988,
              42.567446
            ],
            [
              -92.606626,
              42.691853
            ],
            [
              -91.834987,
              43.14997
            ],
            [
              -91.323026,
              43.156495
            ],
            [
              -90.51058,
              43.397319
            ],
            [
              -89.362113,
              43.301593
            ],
            [
              -89.619275,
              42.990333
            ],
            [
              -89.675687,
              42.667918
            ],
            [
              -89.50662,
              42.28315
            ],
            [
              -89.131834,
              42.000801
            ],
            [
              -89.186829,
              41.850982
            ],
            [
              -89.534877,
              41.710714
            ],
            [
              -90.0469,
              41.319739
            ],
            [
              -90.36178,
              40.767334
            ],
            [
              -90.736219,
              40.574526
            ],
            [
              -91.095368,
              40.920629
            ],
            [
              -91.548518,
              41.105214
            ],
            [
              -92.246863,
              41.14115
            ],
            [
              -92.861334,
              40.944827
            ],
            [
              -93.735322,
              40.895687
            ],
            [
              -93.884109,
              41.17506
            ]
          ]
        ]
      },
      "properties": {
        "hazard": "IFR",
        "threshold_pct": 50.0,
        "neighborhood_radius_nm": 50.0,
        "min_area_sq_mi": 3000.0,
        "valid_time": "2026-08-01T06:00:00Z",
        "model_cycle": "2026-07-31T21:00:00Z",
        "forecast_hour": 9,
        "cause": "CIG"
      }
    },
    {
      "type": "Feature",
      "geometry": {
        "type": "Polygon",
        "coordinates": [
          [
            [
              -106.383945,
              23.764578
            ],
            [
              -106.279454,
              24.250844
            ],
            [
              -106.011119,
              24.161276
            ],
            [
              -105.664777,
              23.925122
            ],
            [
              -105.609577,
              23.632815
            ],
            [
              -105.437386,
              23.367469
            ],
            [
              -104.791817,
              22.818692
            ],
            [
              -104.461298,
              22.679347
            ],
            [
              -104.436639,
              22.445696
            ],
            [
              -105.160082,
              22.290471
            ],
            [
              -105.63855,
              23.082437
            ],
            [
              -106.383945,
              23.764578
            ]
          ]
        ]
      },
      "properties": {
        "hazard": "IFR",
        "threshold_pct": 50.0,
        "neighborhood_radius_nm": 50.0,
        "min_area_sq_mi": 3000.0,
        "valid_time": "2026-08-01T06:00:00Z",
        "model_cycle": "2026-07-31T21:00:00Z",
        "forecast_hour": 9,
        "cause": "CIG"
      }
    },
    {
      "type": "Feature",
      "geometry": {
        "type": "Polygon",
        "coordinates": [
          [
            [
              -134.285907,
              42.150377
            ],
            [
              -133.447949,
              40.161553
            ],
            [
              -133.048008,
              39.769723
            ],
            [
              -130.357489,
              33.512247
            ],
            [
              -130.210296,
              33.312426
            ],
            [
              -129.779234,
              33.032403
            ],
            [
              -129.40859,
              32.945364
            ],
            [
              -129.021916,
              32.982159
            ],
            [
              -128.735469,
              33.100422
            ],
            [
              -128.001901,
              33.079857
            ],
            [
              -127.314418,
              33.194512
            ],
            [
              -126.686483,
              33.071594
            ],
            [
              -126.437598,
              32.701755
            ],
            [
              -126.125513,
              32.503701
            ],
            [
              -125.161429,
              32.399944
            ],
            [
              -124.976296,
              32.021639
            ],
            [
              -124.636905,
              31.75246
            ],
            [
              -124.407604,
              31.266043
            ],
            [
              -124.115008,
              31.073311
            ],
            [
              -123.713503,
              30.975222
            ],
            [
              -123.464718,
              30.546458
            ],
            [
              -123.199818,
              30.325635
            ],
            [
              -123.109039,
              29.891335
            ],
            [
              -122.891345,
              29.626164
            ],
            [
              -122.478355,
              29.434054
            ],
            [
              -122.086156,
              29.422637
            ],
            [
              -121.896102,
              29.079126
            ],
            [
              -121.558983,
              28.836613
            ],
            [
              -120.854835,
              28.566029
            ],
            [
              -120.335863,
              28.557792
            ],
            [
              -119.954058,
              28.416381
            ],
            [
              -120.357905,
              28.188897
            ],
            [
              -120.644542,
              28.152053
            ],
            [
              -121.504283,
              28.513445
            ],
            [
              -121.905827,
              28.946782
            ],
            [
              -122.215903,
              29.126486
            ],
            [
              -122.585939,
              29.183277
            ],
            [
              -123.148876,
              29.101948
            ],
            [
              -123.409901,
              29.223879
            ],
            [
              -123.720959,
              29.523437
            ],
            [
              -124.053763,
              29.63851
            ],
            [
              -124.415832,
              29.635436
            ],
            [
              -124.860352,
              29.485397
            ],
            [
              -125.147618,
              29.80057
            ],
            [
              -125.560043,
              29.988862
            ],
            [
              -125.911327,
              30.29019
            ],
            [
              -126.257352,
              30.401664
            ],
            [
              -126.628032,
              30.40524
            ],
            [
              -126.975695,
              30.287469
            ],
            [
              -127.247209,
              30.066709
            ],
            [
              -127.401994,
              29.776861
            ],
            [
              -127.417959,
              29.461854
            ],
            [
              -127.242959,
              29.098578
            ],
            [
              -126.63662,
              28.425761
            ],
            [
              -126.46192,
              28.050896
            ],
            [
              -126.43765,
              27.605904
            ],
            [
              -126.188372,
              27.272969
            ],
            [
              -125.653944,
              26.96315
            ],
            [
              -125.16276,
              26.80621
            ],
            [
              -124.580618,
              26.725835
            ],
            [
              -123.915022,
              26.775087
            ],
            [
              -123.656524,
              26.288061
            ],
            [
              -123.187756,
              26.050963
            ],
            [
              -122.761607,
              26.055839
            ],
            [
              -122.0109,
              26.261348
            ],
            [
              -121.464446,
              26.112428
            ],
            [
              -120.36859,
              26.171328
            ],
            [
              -119.891975,
              26.28735
            ],
            [
              -119.209622,
              26.590419
            ],
            [
              -118.527701,
              27.135047
            ],
            [
              -118.325822,
              27.386796
            ],
            [
              -118.233755,
              27.69308
            ],
            [
              -118.305098,
              28.132886
            ],
            [
              -118.450858,
              28.418579
            ],
            [
              -118.659032,
              28.600951
            ],
            [
              -118.481472,
              28.926001
            ],
            [
              -118.459991,
              29.41918
            ],
            [
              -117.385815,
              29.494989
            ],
            [
              -115.636264,
              29.349999
            ],
            [
              -114.686353,
              29.016687
            ],
            [
              -114.083806,
              28.500988
            ],
            [
              -114.142376,
              28.116594
            ],
            [
              -113.994898,
              27.726263
            ],
            [
              -114.205101,
              27.314255
            ],
            [
              -114.142648,
              26.837765
            ],
            [
              -113.718842,
              26.436811
            ],
            [
              -112.88887,
              26.225208
            ],
            [
              -112.886815,
              26.113802
            ],
            [
              -113.114121,
              25.857129
            ],
            [
              -113.204073,
              25.618006
            ],
            [
              -113.154042,
              24.976166
            ],
            [
              -113.211548,
              24.763827
            ],
            [
              -113.485171,
              24.763385
            ],
            [
              -114.121351,
              25.192859
            ],
            [
              -114.551635,
              25.247718
            ],
            [
              -115.035349,
              25.063531
            ],
            [
              -115.42198,
              24.733065
            ],
            [
              -115.58647,
              24.477032
            ],
            [
              -116.489424,
              24.323448
            ],
            [
              -116.819968,
              24.050706
            ],
            [
              -116.983493,
              23.651675
            ],
            [
              -117.450924,
              23.03613
            ],
            [
              -117.457872,
              22.570126
            ],
            [
              -117.160769,
              22.151102
            ],
            [
              -117.780942,
              22.240715
            ],
            [
              -118.785791,
              22.126596
            ],
            [
              -119.171876,
              21.916016
            ],
            [
              -119.436429,
              21.475629
            ],
            [
              -119.545807,
              21.477034
            ],
            [
              -120.034724,
              21.972937
            ],
            [
              -119.898991,
              22.462888
            ],
            [
              -120.043007,
              22.914239
            ],
            [
              -120.284831,
              23.134507
            ],
            [
              -120.679543,
              23.315407
            ],
            [
              -121.111054,
              23.304102
            ],
            [
              -121.485593,
              23.111103
            ],
            [
              -121.986199,
              23.143164
            ],
            [
              -122.387533,
              22.974496
            ],
            [
              -122.692077,
              22.576178
            ],
            [
              -122.738198,
              22.255475
            ],
            [
              -122.672258,
              21.926207
            ],
            [
              -122.789573,
              21.797701
            ],
            [
              -123.252056,
              22.214078
            ],
            [
              -123.685006,
              22.328767
            ],
            [
              -123.880264,
              22.658704
            ],
            [
              -124.251405,
              22.872217
            ],
            [
              -125.260809,
              22.857187
            ],
            [
              -125.582004,
              22.712129
            ],
            [
              -125.930101,
              22.42738
            ],
            [
              -126.135029,
              22.453866
            ],
            [
              -126.683637,
              23.050671
            ],
            [
              -127.26005,
              23.175989
            ],
            [
              -134.285907,
              42.150377
            ]
          ]
        ]
      },
      "properties": {
        "hazard": "IFR",
        "threshold_pct": 50.0,
        "neighborhood_radius_nm": 50.0,
        "min_area_sq_mi": 3000.0,
        "valid_time": "2026-08-01T06:00:00Z",
        "model_cycle": "2026-07-31T21:00:00Z",
        "forecast_hour": 9,
        "cause": "CIG"
      }
    },
    {
      "type": "Feature",
      "geometry": {
        "type": "Polygon",
        "coordinates": [
          [
            [
              -132.554811,
              53.23699
            ],
            [
              -132.973021,
              53.626623
            ],
            [
              -133.209079,
              53.975119
            ],
            [
              -132.709327,
              54.075074
            ],
            [
              -132.104703,
              53.723884
            ],
            [
              -131.319473,
              53.624684
            ],
            [
              -130.574824,
              53.784415
            ],
            [
              -130.029444,
              54.198131
            ],
            [
              -128.317162,
              54.304316
            ],
            [
              -127.486237,
              54.546128
            ],
            [
              -126.957378,
              54.335883
            ],
            [
              -126.212282,
              54.245064
            ],
            [
              -126.67905,
              53.857012
            ],
            [
              -126.776504,
              53.459457
            ],
            [
              -126.484387,
              53.026031
            ],
            [
              -126.580957,
              52.713834
            ],
            [
              -126.515284,
              52.394088
            ],
            [
              -126.06293,
              51.971498
            ],
            [
              -126.213803,
              51.660083
            ],
            [
              -126.15545,
              51.344325
            ],
            [
              -125.984985,
              51.128074
            ],
            [
              -125.6375,
              50.909792
            ],
            [
              -125.711876,
              50.770169
            ],
            [
              -126.241909,
              50.4145
            ],
            [
              -126.348965,
              50.186086
            ],
            [
              -126.344686,
              49.947021
            ],
            [
              -125.926197,
              49.3363
            ],
            [
              -125.489516,
              49.086166
            ],
            [
              -125.044937,
              48.97533
            ],
            [
              -124.888676,
              48.744932
            ],
            [
              -124.579255,
              48.526313
            ],
            [
              -124.610761,
              47.817008
            ],
            [
              -125.578779,
              48.101875
            ],
            [
              -126.083142,
              48.369797
            ],
            [
              -126.78508,
              48.470364
            ],
            [
              -127.43776,
              48.8928
            ],
            [
              -128.159577,
              49.186089
            ],
            [
              -128.523046,
              49.764624
            ],
            [
              -129.076558,
              50.251529
            ],
            [
              -129.475474,
              51.190502
            ],
            [
              -129.83992,
              51.576177
            ],
            [
              -129.750561,
              52.044262
            ],
            [
              -129.965801,
              52.424548
            ],
            [
              -130.347476,
              52.656004
            ],
            [
              -130.851755,
              52.780937
            ],
            [
              -131.98461,
              52.676904
            ],
            [
              -132.302164,
              52.851671
            ],
            [
              -132.554811,
              53.23699
            ]
          ]
        ]
      },
      "properties": {
        "hazard": "IFR",
        "threshold_pct": 50.0,
        "neighborhood_radius_nm": 50.0,
        "min_area_sq_mi": 3000.0,
        "valid_time": "2026-08-01T06:00:00Z",
        "model_cycle": "2026-07-31T21:00:00Z",
        "forecast_hour": 9,
        "cause": "CIG"
      }
    },
    {
      "type": "Feature",
      "geometry": {
        "type": "Polygon",
        "coordinates": [
          [
            [
              -130.907239,
              41.051127
            ],
            [
              -130.781405,
              41.319099
            ],
            [
              -130.780571,
              41.576364
            ],
            [
              -130.49729,
              41.950454
            ],
            [
              -129.999387,
              42.395162
            ],
            [
              -129.816829,
              42.719039
            ],
            [
              -129.784257,
              42.960752
            ],
            [
              -129.412397,
              43.100611
            ],
            [
              -128.66015,
              43.584984
            ],
            [
              -128.011398,
              43.567912
            ],
            [
              -127.567619,
              42.975796
            ],
            [
              -126.920207,
              42.711169
            ],
            [
              -125.7493,
              42.60422
            ],
            [
              -124.537136,
              42.904246
            ],
            [
              -124.352089,
              42.280716
            ],
            [
              -123.995477,
              41.875532
            ],
            [
              -123.909916,
              41.451182
            ],
            [
              -124.090125,
              41.094486
            ],
            [
              -124.135445,
              40.801379
            ],
            [
              -124.41944,
              40.431725
            ],
            [
              -124.9044,
              40.211171
            ],
            [
              -125.228275,
              39.873709
            ],
            [
              -125.403366,
              39.423707
            ],
            [
              -125.320185,
              38.952777
            ],
            [
              -125.084708,
              38.583828
            ],
            [
              -124.782629,
              38.379
            ],
            [
              -124.200923,
              38.266743
            ],
            [
              -123.561405,
              38.396824
            ],
            [
              -123.298636,
              38.127704
            ],
            [
              -122.526035,
              37.67618
            ],
            [
              -122.314063,
              37.03495
            ],
            [
              -122.135875,
              36.764185
            ],
            [
              -121.862217,
              36.550359
            ],
            [
              -121.942044,
              36.267488
            ],
            [
              -121.893443,
              35.859378
            ],
            [
              -121.563073,
              35.245469
            ],
            [
              -121.161034,
              34.919485
            ],
            [
              -120.529435,
              34.800316
            ],
            [
              -120.354132,
              34.649874
            ],
            [
              -120.954736,
              34.45041
            ],
            [
              -121.271048,
              34.161183
            ],
            [
              -121.645486,
              33.419432
            ],
            [
              -121.649354,
              32.85136
            ],
            [
              -122.510437,
              32.824336
            ],
            [
              -123.109982,
              33.024837
            ],
            [
              -123.372622,
              33.467876
            ],
            [
              -123.839076,
              33.913733
            ],
            [
              -124.184896,
              34.091985
            ],
            [
              -124.678087,
              34.726276
            ],
            [
              -124.65906,
              35.040023
            ],
            [
              -124.784621,
              35.390825
            ],
            [
              -124.56575,
              35.754095
            ],
            [
              -124.441483,
              36.53906
            ],
            [
              -124.556521,
              36.913411
            ],
            [
              -124.85267,
              37.231339
            ],
            [
              -124.748689,
              37.514123
            ],
            [
              -124.768608,
              37.827227
            ],
            [
              -125.091927,
              38.247536
            ],
            [
              -125.626862,
              38.451826
            ],
            [
              -125.815882,
              38.964489
            ],
            [
              -126.007818,
              39.1903
            ],
            [
              -126.482477,
              39.426999
            ],
            [
              -127.419992,
              39.578042
            ],
            [
              -128.335322,
              39.619323
            ],
            [
              -128.594015,
              39.787989
            ],
            [
              -128.406174,
              40.217918
            ],
            [
              -128.430729,
              40.626754
            ],
            [
              -128.650271,
              40.978115
            ],
            [
              -128.97433,
              41.177137
            ],
            [
              -129.592417,
              41.270799
            ],
            [
              -130.812349,
              40.997733
            ],
            [
              -130.907239,
              41.051127
            ]
          ]
        ]
      },
      "properties": {
        "hazard": "IFR",
        "threshold_pct": 50.0,
        "neighborhood_radius_nm": 50.0,
        "min_area_sq_mi": 3000.0,
        "valid_time": "2026-08-01T06:00:00Z",
        "model_cycle": "2026-07-31T21:00:00Z",
        "forecast_hour": 9,
        "cause": "CIG"
      }
    },
    {
      "type": "Feature",
      "geometry": {
        "type": "Polygon",
        "coordinates": [
          [
            [
              -93.884667,
              41.174481
            ],
            [
              -93.571749,
              41.432887
            ],
            [
              -93.059926,
              42.350977
            ],
            [
              -92.280805,
              42.531067
            ],
            [
              -92.010923,
              42.683059
            ],
            [
              -91.784782,
              42.928632
            ],
            [
              -90.460457,
              43.375375
            ],
            [
              -89.362151,
              43.301604
            ],
            [
              -89.613681,
              43.019724
            ],
            [
              -89.681354,
              42.625888
            ],
            [
              -89.490396,
              42.252837
            ],
            [
              -89.137294,
              42.005379
            ],
            [
              -89.160518,
              41.902166
            ],
            [
              -89.808172,
              42.235608
            ],
            [
              -90.672491,
              42.340908
            ],
            [
              -92.01898,
              41.912683
            ],
            [
              -92.600597,
              41.481258
            ],
            [
              -92.858887,
              41.101768
            ],
            [
              -93.061287,
              40.952
            ],
            [
              -93.860816,
              41.051999
            ],
            [
              -93.884667,
              41.174481
            ]
          ]
        ]
      },
      "properties": {
        "hazard": "IFR",
        "threshold_pct": 50.0,
        "neighborhood_radius_nm": 50.0,
        "min_area_sq_mi": 3000.0,
        "valid_time": "2026-08-01T06:00:00Z",
        "model_cycle": "2026-07-31T21:00:00Z",
        "forecast_hour": 9,
        "cause": "CIG"
      }
    },
    {
      "type": "Feature",
      "geometry": {
        "type": "Polygon",
        "coordinates": [
          [
            [
              -130.034397,
              53.201684
            ],
            [
              -130.344909,
              53.900751
            ],
            [
              -130.059534,
              54.190527
            ],
            [
              -128.274954,
              54.310766
            ],
            [
              -127.486246,
              54.546145
            ],
            [
              -126.913521,
              54.324233
            ],
            [
              -126.212256,
              54.245051
            ],
            [
              -126.629145,
              53.896095
            ],
            [
              -126.766121,
              53.506293
            ],
            [
              -126.691664,
              53.269541
            ],
            [
              -126.484436,
              53.026012
            ],
            [
              -126.579781,
              52.738108
            ],
            [
              -126.519345,
              52.40488
            ],
            [
              -126.062145,
              51.970282
            ],
            [
              -126.203746,
              51.67171
            ],
            [
              -126.15031,
              51.350735
            ],
            [
              -125.983186,
              51.131374
            ],
            [
              -125.637484,
              50.909782
            ],
            [
              -125.711902,
              50.770132
            ],
            [
              -126.161839,
              50.486029
            ],
            [
              -126.331668,
              50.178509
            ],
            [
              -126.263034,
              49.774714
            ],
            [
              -125.885557,
              49.301285
            ],
            [
              -126.615399,
              49.124207
            ],
            [
              -127.111308,
              48.701651
            ],
            [
              -127.559467,
              48.976544
            ],
            [
              -127.687091,
              49.195985
            ],
            [
              -127.569805,
              49.649459
            ],
            [
              -127.78403,
              50.166018
            ],
            [
              -127.590992,
              50.533804
            ],
            [
              -127.64831,
              50.855481
            ],
            [
              -128.453202,
              51.570513
            ],
            [
              -129.378272,
              51.801691
            ],
            [
              -129.447632,
              51.901136
            ],
            [
              -129.269467,
              52.288208
            ],
            [
              -129.308029,
              52.651777
            ],
            [
              -129.566378,
              52.9714
            ],
            [
              -130.034397,
              53.201684
            ]
          ]
        ]
      },
      "properties": {
        "hazard": "IFR",
        "threshold_pct": 50.0,
        "neighborhood_radius_nm": 50.0,
        "min_area_sq_mi": 3000.0,
        "valid_time": "2026-08-01T06:00:00Z",
        "model_cycle": "2026-07-31T21:00:00Z",
        "forecast_hour": 9,
        "cause": "CIG"
      }
    },
    {
      "type": "Feature",
      "geometry": {
        "type": "Polygon",
        "coordinates": [
          [
            [
              -65.682046,
              44.851242
            ],
            [
              -65.660655,
              45.125726
            ],
            [
              -65.484685,
              45.321744
            ],
            [
              -65.260428,
              45.407825
            ],
            [
              -64.703438,
              45.230291
            ],
            [
              -64.140097,
              45.228576
            ],
            [
              -63.727375,
              45.359973
            ],
            [
              -63.40349,
              45.600176
            ],
            [
              -62.670089,
              45.818827
            ],
            [
              -62.333109,
              46.147678
            ],
            [
              -61.963132,
              46.92116
            ],
            [
              -63.536611,
              42.807765
            ],
            [
              -63.685628,
              42.775411
            ],
            [
              -63.921742,
              42.87672
            ],
            [
              -64.43442,
              43.422237
            ],
            [
              -64.655541,
              44.166582
            ],
            [
              -64.840094,
              44.455919
            ],
            [
              -65.164585,
              44.673774
            ],
            [
              -65.682046,
              44.851242
            ]
          ]
        ]
      },
      "properties": {
        "hazard": "IFR",
        "threshold_pct": 50.0,
        "neighborhood_radius_nm": 50.0,
        "min_area_sq_mi": 3000.0,
        "valid_time": "2026-08-01T06:00:00Z",
        "model_cycle": "2026-07-31T21:00:00Z",
        "forecast_hour": 9,
        "cause": "CIG/VIS",
        "weather_type": "BR/FG"
      }
    }
  ]
}