{
  "type": "FeatureCollection",
  "features": [
    {
      "type": "Feature",
      "geometry": {
        "type": "Polygon",
        "coordinates": [
          [
            [
              -126.218758,
              40.151186
            ],
            [
              -126.284377,
              40.576112
            ],
            [
              -126.089622,
              41.371109
            ],
            [
              -126.434288,
              42.444853
            ],
            [
              -126.510166,
              42.950997
            ],
            [
              -126.132863,
              44.041407
            ],
            [
              -126.005015,
              45.800471
            ],
            [
              -126.252454,
              46.84814
            ],
            [
              -126.634976,
              47.496079
            ],
            [
              -126.891526,
              48.29936
            ],
            [
              -127.445031,
              48.82621
            ],
            [
              -127.270599,
              48.913368
            ],
            [
              -126.6064,
              48.863527
            ],
            [
              -125.410705,
              48.934013
            ],
            [
              -125.260508,
              48.900349
            ],
            [
              -124.745325,
              48.450725
            ],
            [
              -124.621866,
              47.999917
            ],
            [
              -123.949374,
              46.950925
            ],
            [
              -123.90358,
              46.701058
            ],
            [
              -124.16581,
              43.984037
            ],
            [
              -124.478167,
              42.906731
            ],
            [
              -124.335511,
              42.205137
            ],
            [
              -123.960969,
              41.641545
            ],
            [
              -123.533765,
              41.350599
            ],
            [
              -123.562265,
              40.901167
            ],
            [
              -123.837446,
              40.53568
            ],
            [
              -123.926436,
              40.147679
            ],
            [
              -123.711064,
              39.338669
            ],
            [
              -123.418335,
              39.010755
            ],
            [
              -122.712194,
              38.698899
            ],
            [
              -122.257804,
              38.345733
            ],
            [
              -121.916474,
              37.408083
            ],
            [
              -121.657691,
              37.167952
            ],
            [
              -121.311716,
              37.021223
            ],
            [
              -121.040278,
              36.249682
            ],
            [
              -121.005434,
              35.823808
            ],
            [
              -120.827203,
              35.527575
            ],
            [
              -120.521854,
              35.311818
            ],
            [
              -119.71174,
              34.970084
            ],
            [
              -119.427925,
              34.518812
            ],
            [
              -118.4972,
              33.950573
            ],
            [
              -118.289095,
              33.476247
            ],
            [
              -117.911738,
              33.18813
            ],
            [
              -117.867495,
              32.751128
            ],
            [
              -117.54019,
              32.251066
            ],
            [
              -117.636183,
              32.073359
            ],
            [
              -118.285601,
              32.009207
            ],
            [
              -118.53816,
              32.093032
            ],
            [
              -118.817222,
              32.410353
            ],
            [
              -119.115644,
              32.60537
            ],
            [
              -119.735281,
              32.749499
            ],
            [
              -120.326797,
              32.996458
            ],
            [
              -121.135334,
              33.123333
            ],
            [
              -121.954252,
              33.61569
            ],
            [
              -122.112945,
              33.776571
            ],
            [
              -122.493147,
              34.610578
            ],
            [
              -123.356233,
              35.501418
            ],
            [
              -124.171186,
              36.837012
            ],
            [
              -125.426327,
              38.385422
            ],
            [
              -125.65111,
              39.195519
            ],
            [
              -125.984949,
              39.601562
            ],
            [
              -126.218758,
              40.151186
            ]
          ]
        ]
      },
      "properties": {
        "hazard": "IFR",
        "threshold_pct": 50.0,
        "neighborhood_radius_nm": 50.0,
        "min_area_sq_mi": 3000.0,
        "valid_time": "2026-08-05T15:00:00Z",
        "model_cycle": "2026-08-05T03:00:00Z",
        "forecast_hour": 12,
        "cause": "CIG/VIS",
        "weather_type": "BR"
      }
    },
    {
      "type": "Feature",
      "geometry": {
        "type": "Polygon",
        "coordinates": [
          [
            [
              -128.215152,
              52.475061
            ],
            [
              -127.587057,
              52.344328
            ],
            [
              -127.480481,
              51.584375
            ],
            [
              -127.196323,
              51.302058
            ],
            [
              -126.561772,
              50.996145
            ],
            [
              -126.43696,
              50.825547
            ],
            [
              -126.579035,
              50.601719
            ],
            [
              -127.609779,
              50.420399
            ],
            [
              -127.77036,
              50.663394
            ],
            [
              -128.04078,
              50.875784
            ],
            [
              -127.900308,
              51.114169
            ],
            [
              -127.881152,
              51.357185
            ],
            [
              -128.02214,
              51.651193
            ],
            [
              -128.032078,
              52.124963
            ],
            [
              -128.215152,
              52.475061
            ]
          ]
        ]
      },
      "properties": {
        "hazard": "IFR",
        "threshold_pct": 50.0,
        "neighborhood_radius_nm": 50.0,
        "min_area_sq_mi": 3000.0,
        "valid_time": "2026-08-05T15:00:00Z",
        "model_cycle": "2026-08-05T03:00:00Z",
        "forecast_hour": 12,
        "cause": "CIG"
      }
    },
    {
      "type": "Feature",
      "geometry": {
        "type": "Polygon",
        "coordinates": [
          [
            [
              -125.047873,
              41.076234
            ],
            [
              -124.930781,
              41.750852
            ],
            [
              -124.685666,
              42.375746
            ],
            [
              -124.510672,
              42.572779
            ],
            [
              -124.090779,
              41.525902
            ],
            [
              -124.122332,
              40.826349
            ],
            [
              -124.360701,
              40.635036
            ],
            [
              -124.934636,
              40.827721
            ],
            [
              -125.047873,
              41.076234
            ]
          ]
        ]
      },
      "properties": {
        "hazard": "IFR",
        "threshold_pct": 50.0,
        "neighborhood_radius_nm": 50.0,
        "min_area_sq_mi": 3000.0,
        "valid_time": "2026-08-05T15:00:00Z",
        "model_cycle": "2026-08-05T03:00:00Z",
        "forecast_hour": 12,
        "cause": "CIG/VIS",
        "weather_type": "BR"
      }
    }
  ]
}