{
  "type": "FeatureCollection",
  "features": [
    {
      "type": "Feature",
      "geometry": {
        "type": "Polygon",
        "coordinates": [
          [
            [
              -65.893256,
              44.350844
            ],
            [
              -65.834508,
              44.702919
            ],
            [
              -65.263691,
              45.084376
            ],
            [
              -65.071321,
              45.513759
            ],
            [
              -64.585635,
              45.765226
            ],
            [
              -63.737498,
              45.576229
            ],
            [
              -62.893958,
              45.718566
            ],
            [
              -62.45474,
              45.992957
            ],
            [
              -62.08569,
              46.634941
            ],
            [
              -63.003609,
              44.231747
            ],
            [
              -63.171349,
              43.986621
            ],
            [
              -63.223793,
              43.657734
            ],
            [
              -63.580946,
              43.131509
            ],
            [
              -63.686766,
              42.788132
            ],
            [
              -64.575327,
              43.450061
            ],
            [
              -65.484983,
              43.565677
            ],
            [
              -65.571261,
              43.651869
            ],
            [
              -65.62405,
              44.002787
            ],
            [
              -65.893256,
              44.350844
            ]
          ]
        ]
      },
      "properties": {
        "hazard": "IFR",
        "threshold_pct": 50.0,
        "neighborhood_radius_nm": 50.0,
        "min_area_sq_mi": 3000.0,
        "valid_time": "2026-08-14T09:00:00Z",
        "model_cycle": "2026-08-14T09:00:00Z",
        "forecast_hour": 0,
        "cause": "CIG/VIS",
        "weather_type": "BR"
      }
    },
    {
      "type": "Feature",
      "geometry": {
        "type": "Polygon",
        "coordinates": [
          [
            [
              -63.898901,
              49.58377
            ],
            [
              -63.005865,
              49.800965
            ],
            [
              -62.654217,
              50.035491
            ],
            [
              -62.499501,
              50.256655
            ],
            [
              -62.455381,
              50.495484
            ],
            [
              -62.538866,
              50.751049
            ],
            [
              -62.171228,
              51.173695
            ],
            [
              -61.918694,
              51.634697
            ],
            [
              -61.879685,
              51.8714
            ],
            [
              -62.07328,
              52.245646
            ],
            [
              -62.58902,
              52.55016
            ],
            [
              -61.835082,
              52.874147
            ],
            [
              -60.701705,
              53.044553
            ],
            [
              -60.316127,
              53.258518
            ],
            [
              -59.917461,
              53.699921
            ],
            [
              -59.813606,
              53.675411
            ],
            [
              -59.569988,
              53.256451
            ],
            [
              -61.061944,
              49.795228
            ],
            [
              -61.511228,
              49.601429
            ],
            [
              -62.257327,
              49.796684
            ],
            [
              -62.745507,
              49.800313
            ],
            [
              -63.150428,
              49.710365
            ],
            [
              -63.611276,
              49.42207
            ],
            [
              -63.898901,
              49.58377
            ]
          ]
        ]
      },
      "properties": {
        "hazard": "IFR",
        "threshold_pct": 50.0,
        "neighborhood_radius_nm": 50.0,
        "min_area_sq_mi": 3000.0,
        "valid_time": "2026-08-14T09:00:00Z",
        "model_cycle": "2026-08-14T09:00:00Z",
        "forecast_hour": 0,
        "cause": "CIG"
      }
    },
    {
      "type": "Feature",
      "geometry": {
        "type": "Polygon",
        "coordinates": [
          [
            [
              -89.213573,
              56.952139
            ],
            [
              -88.011157,
              57.001234
            ],
            [
              -81.411078,
              56.726742
            ],
            [
              -73.764202,
              56.182751
            ],
            [
              -71.405586,
              55.925519
            ],
            [
              -72.411306,
              55.616061
            ],
            [
              -73.084045,
              55.655411
            ],
            [
              -73.629954,
              55.57286
            ],
            [
              -73.980978,
              55.436918
            ],
            [
              -74.313662,
              55.179471
            ],
            [
              -74.448983,
              54.871884
            ],
            [
              -74.362099,
              54.420129
            ],
            [
              -74.83697,
              54.282632
            ],
            [
              -75.12853,
              54.109324
            ],
            [
              -75.320617,
              53.894937
            ],
            [
              -75.396776,
              53.578117
            ],
            [
              -75.314862,
              53.343991
            ],
            [
              -75.122579,
              53.13513
            ],
            [
              -74.762284,
              52.880574
            ],
            [
              -74.25867,
              52.708997
            ],
            [
              -74.935981,
              52.604735
            ],
            [
              -75.71425,
              52.60703
            ],
            [
              -76.1823,
              52.488311
            ],
            [
              -77.093948,
              52.010144
            ],
            [
              -77.687001,
              51.463169
            ],
            [
              -78.817734,
              51.47206
            ],
            [
              -79.144531,
              51.797869
            ],
            [
              -79.559694,
              51.995766
            ],
            [
              -79.675816,
              52.269333
            ],
            [
              -79.967584,
              52.532228
            ],
            [
              -80.531846,
              52.730633
            ],
            [
              -81.211472,
              52.771663
            ],
            [
              -80.914624,
              53.205845
            ],
            [
              -80.915182,
              53.452919
            ],
            [
              -81.038897,
              53.687605
            ],
            [
              -81.48816,
              53.994505
            ],
            [
              -82.332553,
              54.201411
            ],
            [
              -81.496013,
              54.479216
            ],
            [
              -81.115172,
              54.822419
            ],
            [
              -81.037425,
              55.063583
            ],
            [
              -81.085368,
              55.306009
            ],
            [
              -81.542817,
              55.720787
            ],
            [
              -82.205269,
              55.932169
            ],
            [
              -83.010485,
              55.973953
            ],
            [
              -84.318263,
              56.194494
            ],
            [
              -85.010941,
              56.112235
            ],
            [
              -85.736163,
              55.846925
            ],
            [
              -86.435481,
              55.882967
            ],
            [
              -87.352107,
              56.052098
            ],
            [
              -88.091682,
              56.569321
            ],
            [
              -89.213573,
              56.952139
            ]
          ]
        ]
      },
      "properties": {
        "hazard": "IFR",
        "threshold_pct": 50.0,
        "neighborhood_radius_nm": 50.0,
        "min_area_sq_mi": 3000.0,
        "valid_time": "2026-08-14T09:00:00Z",
        "model_cycle": "2026-08-14T09:00:00Z",
        "forecast_hour": 0,
        "cause": "CIG"
      }
    },
    {
      "type": "Feature",
      "geometry": {
        "type": "Polygon",
        "coordinates": [
          [
            [
              -73.534638,
              52.695712
            ],
            [
              -72.984303,
              52.824998
            ],
            [
              -72.537559,
              52.518506
            ],
            [
              -71.897503,
              52.381507
            ],
            [
              -70.586445,
              52.460286
            ],
            [
              -70.773014,
              52.116619
            ],
            [
              -70.760284,
              51.808181
            ],
            [
              -70.335754,
              51.310856
            ],
            [
              -69.827799,
              51.000817
            ],
            [
              -69.837019,
              50.730294
            ],
            [
              -69.936606,
              50.576093
            ],
            [
              -70.038377,
              50.601718
            ],
            [
              -70.244692,
              51.00885
            ],
            [
              -70.768578,
              51.373208
            ],
            [
              -71.487272,
              51.766238
            ],
            [
              -72.441975,
              51.939396
            ],
            [
              -72.761495,
              52.391485
            ],
            [
              -73.534638,
              52.695712
            ]
          ]
        ]
      },
      "properties": {
        "hazard": "IFR",
        "threshold_pct": 50.0,
        "neighborhood_radius_nm": 50.0,
        "min_area_sq_mi": 3000.0,
        "valid_time": "2026-08-14T09:00:00Z",
        "model_cycle": "2026-08-14T09:00:00Z",
        "forecast_hour": 0,
        "cause": "CIG"
      }
    },
    {
      "type": "Feature",
      "geometry": {
        "type": "Polygon",
        "coordinates": [
          [
            [
              -106.737047,
              43.101411
            ],
            [
              -106.0582,
              43.397039
            ],
            [
              -105.794217,
              43.716685
            ],
            [
              -105.725437,
              44.000089
            ],
            [
              -104.9107,
              44.060791
            ],
            [
              -104.253273,
              43.984053
            ],
            [
              -103.610648,
              44.169131
            ],
            [
              -103.336931,
              43.969321
            ],
            [
              -103.205889,
              43.647319
            ],
            [
              -102.951622,
              43.385669
            ],
            [
              -102.47873,
              43.185633
            ],
            [
              -101.885376,
              43.150146
            ],
            [
              -101.50781,
              42.783075
            ],
            [
              -101.162779,
              42.590413
            ],
            [
              -100.51291,
              42.500125
            ],
            [
              -99.918826,
              42.28126
            ],
            [
              -99.067437,
              42.325092
            ],
            [
              -98.329793,
              41.974586
            ],
            [
              -96.870194,
              41.879424
            ],
            [
              -97.187801,
              41.540065
            ],
            [
              -97.328134,
              41.101379
            ],
            [
              -97.46101,
              41.016954
            ],
            [
              -97.659632,
              41.052007
            ],
            [
              -98.061797,
              41.365137
            ],
            [
              -98.910333,
              41.629772
            ],
            [
              -99.335576,
              41.674437
            ],
            [
              -100.113143,
              41.606509
            ],
            [
              -100.494028,
              41.426515
            ],
            [
              -100.751016,
              41.183556
            ],
            [
              -100.872384,
              40.959297
            ],
            [
              -100.912096,
              40.658017
            ],
            [
              -101.735267,
              40.294213
            ],
            [
              -101.883344,
              40.451344
            ],
            [
              -101.800039,
              41.035138
            ],
            [
              -101.999039,
              41.40125
            ],
            [
              -102.051794,
              41.683749
            ],
            [
              -102.60935,
              42.325641
            ],
            [
              -103.105445,
              42.501391
            ],
            [
              -103.589241,
              42.502124
            ],
            [
              -103.972681,
              42.389551
            ],
            [
              -104.46189,
              42.105351
            ],
            [
              -104.682223,
              41.92913
            ],
            [
              -104.852491,
              41.635266
            ],
            [
              -104.861322,
              41.314982
            ],
            [
              -104.709752,
              41.001259
            ],
            [
              -104.862022,
              40.88358
            ],
            [
              -105.02549,
              40.872961
            ],
            [
              -105.093987,
              40.976161
            ],
            [
              -105.026016,
              41.392322
            ],
            [
              -105.174126,
              41.71013
            ],
            [
              -105.625542,
              42.188834
            ],
            [
              -105.909561,
              42.3563
            ],
            [
              -106.016565,
              42.644794
            ],
            [
              -106.202421,
              42.850949
            ],
            [
              -106.737047,
              43.101411
            ]
          ]
        ]
      },
      "properties": {
        "hazard": "IFR",
        "threshold_pct": 50.0,
        "neighborhood_radius_nm": 50.0,
        "min_area_sq_mi": 3000.0,
        "valid_time": "2026-08-14T09:00:00Z",
        "model_cycle": "2026-08-14T09:00:00Z",
        "forecast_hour": 0,
        "cause": "CIG"
      }
    },
    {
      "type": "Feature",
      "geometry": {
        "type": "Polygon",
        "coordinates": [
          [
            [
              -95.550026,
              42.17252
            ],
            [
              -95.393276,
              42.403804
            ],
            [
              -95.337259,
              42.675189
            ],
            [
              -94.68418,
              42.568012
            ],
            [
              -94.065094,
              42.651616
            ],
            [
              -93.591251,
              42.11458
            ],
            [
              -94.205996,
              41.968769
            ],
            [
              -94.710005,
              41.524598
            ],
            [
              -95.050329,
              41.926676
            ],
            [
              -95.550026,
              42.17252
            ]
          ]
        ]
      },
      "properties": {
        "hazard": "IFR",
        "threshold_pct": 50.0,
        "neighborhood_radius_nm": 50.0,
        "min_area_sq_mi": 3000.0,
        "valid_time": "2026-08-14T09:00:00Z",
        "model_cycle": "2026-08-14T09:00:00Z",
        "forecast_hour": 0,
        "cause": "CIG"
      }
    },
    {
      "type": "Feature",
      "geometry": {
        "type": "MultiPolygon",
        "coordinates": [
          [
            [
              [
                -82.062245,
                38.786074
              ],
              [
                -80.82752,
                38.522079
              ],
              [
                -80.322701,
                38.651326
              ],
              [
                -79.88585,
                39.020156
              ],
              [
                -79.635562,
                39.013027
              ],
              [
                -79.429821,
                38.901412
              ],
              [
                -79.531462,
                38.551762
              ],
              [
                -80.436258,
                38.120659
              ],
              [
                -80.94659,
                38.421772
              ],
              [
                -81.535255,
                38.517786
              ],
              [
                -82.062245,
                38.786074
              ]
            ]
          ],
          [
            [
              [
                -92.80266,
                41.878009
              ],
              [
                -91.511095,
                41.927619
              ],
              [
                -91.011763,
                41.654288
              ],
              [
                -90.445228,
                41.568843
              ],
              [
                -89.923179,
                41.671326
              ],
              [
                -89.588782,
                41.87857
              ],
              [
                -89.125775,
                42.462812
              ],
              [
                -89.066188,
                42.774236
              ],
              [
                -89.127777,
                43.00623
              ],
              [
                -89.467066,
                43.439657
              ],
              [
                -90.043683,
                43.829789
              ],
              [
                -90.584626,
                43.950154
              ],
              [
                -90.608916,
                44.050483
              ],
              [
                -90.535842,
                44.071174
              ],
              [
                -90.102915,
                43.931692
              ],
              [
                -89.559619,
                43.913068
              ],
              [
                -88.545475,
                43.393971
              ],
              [
                -87.936615,
                43.362189
              ],
              [
                -87.919978,
                43.13706
              ],
              [
                -88.402021,
                42.980425
              ],
              [
                -88.699373,
                42.736735
              ],
              [
                -88.851774,
                42.263414
              ],
              [
                -88.781869,
                42.023136
              ],
              [
                -88.54983,
                41.745948
              ],
              [
                -88.237737,
                41.524473
              ],
              [
                -87.836104,
                41.389126
              ],
              [
                -87.396303,
                41.380302
              ],
              [
                -86.894761,
                41.54721
              ],
              [
                -86.557656,
                41.872534
              ],
              [
                -86.426115,
                42.391204
              ],
              [
                -85.782275,
                42.613366
              ],
              [
                -85.296818,
                42.999829
              ],
              [
                -84.840016,
                42.975082
              ],
              [
                -83.909729,
                42.549378
              ],
              [
                -83.26205,
                42.429116
              ],
              [
                -83.199821,
                42.225936
              ],
              [
                -83.410909,
                42.005519
              ],
              [
                -84.117556,
                42.169206
              ],
              [
                -84.548964,
                42.100214
              ],
              [
                -84.829243,
                41.968835
              ],
              [
                -85.062374,
                41.768538
              ],
              [
                -85.215827,
                41.470967
              ],
              [
                -85.224768,
                41.231305
              ],
              [
                -85.095544,
                40.92777
              ],
              [
                -84.79689,
                40.65184
              ],
              [
                -84.361513,
                40.482642
              ],
              [
                -84.014588,
                40.09946
              ],
              [
                -83.47854,
                39.900349
              ],
              [
                -83.263279,
                39.47211
              ],
              [
                -83.001674,
                39.214832
              ],
              [
                -82.411375,
                39.017504
              ],
              [
                -82.098791,
                38.825105
              ],
              [
                -82.984219,
                39.010152
              ],
              [
                -84.509605,
                38.87325
              ],
              [
                -84.727396,
                39.316719
              ],
              [
                -85.234439,
                39.59655
              ],
              [
                -85.280827,
                39.902601
              ],
              [
                -85.474582,
                40.18479
              ],
              [
                -86.09004,
                40.47357
              ],
              [
                -86.711715,
                40.434362
              ],
              [
                -87.336137,
                40.086032
              ],
              [
                -87.510666,
                40.087382
              ],
              [
                -87.773972,
                40.176741
              ],
              [
                -88.170382,
                40.583938
              ],
              [
                -88.562801,
                40.717417
              ],
              [
                -88.99317,
                40.724292
              ],
              [
                -89.485993,
                40.575792
              ],
              [
                -89.885308,
                40.654082
              ],
              [
                -90.3827,
                40.914053
              ],
              [
                -90.900562,
                40.985471
              ],
              [
                -91.302684,
                40.909699
              ],
              [
                -91.685825,
                40.683989
              ],
              [
                -91.9346,
                40.825763
              ],
              [
                -92.112393,
                41.212862
              ],
              [
                -92.80266,
                41.878009
              ]
            ]
          ]
        ]
      },
      "properties": {
        "hazard": "IFR",
        "threshold_pct": 50.0,
        "neighborhood_radius_nm": 50.0,
        "min_area_sq_mi": 3000.0,
        "valid_time": "2026-08-14T09:00:00Z",
        "model_cycle": "2026-08-14T09:00:00Z",
        "forecast_hour": 0,
        "cause": "CIG"
      }
    },
    {
      "type": "Feature",
      "geometry": {
        "type": "Polygon",
        "coordinates": [
          [
            [
              -101.134736,
              24.579136
            ],
            [
              -100.786077,
              24.85657
            ],
            [
              -100.53632,
              25.398972
            ],
            [
              -100.012097,
              24.496357
            ],
            [
              -100.126558,
              24.053063
            ],
            [
              -100.057015,
              23.724431
            ],
            [
              -99.711741,
              23.341178
            ],
            [
              -100.15905,
              23.022077
            ],
            [
              -100.335377,
              22.70453
            ],
            [
              -100.5072,
              23.181126
            ],
            [
              -100.899981,
              23.501482
            ],
            [
              -100.845029,
              24.083628
            ],
            [
              -101.134736,
              24.579136
            ]
          ]
        ]
      },
      "properties": {
        "hazard": "IFR",
        "threshold_pct": 50.0,
        "neighborhood_radius_nm": 50.0,
        "min_area_sq_mi": 3000.0,
        "valid_time": "2026-08-14T09:00:00Z",
        "model_cycle": "2026-08-14T09:00:00Z",
        "forecast_hour": 0,
        "cause": "CIG"
      }
    },
    {
      "type": "Feature",
      "geometry": {
        "type": "Polygon",
        "coordinates": [
          [
            [
              -117.909919,
              51.576881
            ],
            [
              -117.930495,
              51.65065
            ],
            [
              -117.621012,
              51.83579
            ],
            [
              -117.397923,
              52.129195
            ],
            [
              -117.378741,
              52.454523
            ],
            [
              -117.533074,
              52.729323
            ],
            [
              -117.198816,
              52.600401
            ],
            [
              -117.042336,
              52.370904
            ],
            [
              -116.679757,
              52.125809
            ],
            [
              -115.634756,
              51.865385
            ],
            [
              -115.137264,
              51.54132
            ],
            [
              -115.003703,
              51.232545
            ],
            [
              -114.440371,
              50.682868
            ],
            [
              -113.951928,
              50.428176
            ],
            [
              -113.338204,
              50.344381
            ],
            [
              -112.510949,
              50.481146
            ],
            [
              -112.037288,
              50.120928
            ],
            [
              -111.329358,
              49.977503
            ],
            [
              -110.726578,
              50.064682
            ],
            [
              -110.084228,
              50.425069
            ],
            [
              -109.697003,
              50.072467
            ],
            [
              -109.187879,
              49.900126
            ],
            [
              -109.660102,
              49.37251
            ],
            [
              -109.701328,
              49.132615
            ],
            [
              -109.590787,
              48.8191
            ],
            [
              -109.218492,
              48.501924
            ],
            [
              -108.460876,
              48.244324
            ],
            [
              -107.374066,
              48.249477
            ],
            [
              -106.908344,
              48.354407
            ],
            [
              -106.408045,
              48.711146
            ],
            [
              -106.218812,
              49.22521
            ],
            [
              -105.735673,
              49.376095
            ],
            [
              -105.62115,
              49.327063
            ],
            [
              -106.199509,
              48.807921
            ],
            [
              -106.335804,
              48.586636
            ],
            [
              -106.35914,
              48.268647
            ],
            [
              -106.212184,
              47.947957
            ],
            [
              -106.453871,
              47.451392
            ],
            [
              -106.661576,
              47.226286
            ],
            [
              -107.342822,
              46.781006
            ],
            [
              -107.644921,
              46.419521
            ],
            [
              -107.705806,
              46.01082
            ],
            [
              -107.890509,
              45.541269
            ],
            [
              -107.664412,
              44.978546
            ],
            [
              -108.456882,
              45.009272
            ],
            [
              -109.282279,
              44.760447
            ],
            [
              -109.611343,
              44.586577
            ],
            [
              -110.347281,
              44.517319
            ],
            [
              -110.860184,
              44.27346
            ],
            [
              -111.427045,
              44.716283
            ],
            [
              -112.184841,
              44.857735
            ],
            [
              -111.984402,
              45.274395
            ],
            [
              -111.695553,
              45.616147
            ],
            [
              -111.645424,
              45.856824
            ],
            [
              -111.698251,
              46.097625
            ],
            [
              -111.921715,
              46.382851
            ],
            [
              -112.507465,
              46.726653
            ],
            [
              -112.712127,
              47.12208
            ],
            [
              -113.139441,
              47.526567
            ],
            [
              -113.285299,
              47.84491
            ],
            [
              -113.663109,
              48.126702
            ],
            [
              -113.793742,
              48.52325
            ],
            [
              -114.136503,
              48.950886
            ],
            [
              -114.83005,
              49.351702
            ],
            [
              -114.985715,
              49.694957
            ],
            [
              -115.305714,
              49.943511
            ],
            [
              -115.849471,
              50.112183
            ],
            [
              -116.509484,
              50.092259
            ],
            [
              -116.712914,
              50.925663
            ],
            [
              -116.850351,
              51.154392
            ],
            [
              -117.296493,
              51.449797
            ],
            [
              -117.909919,
              51.576881
            ]
          ]
        ]
      },
      "properties": {
        "hazard": "IFR",
        "threshold_pct": 50.0,
        "neighborhood_radius_nm": 50.0,
        "min_area_sq_mi": 3000.0,
        "valid_time": "2026-08-14T09:00:00Z",
        "model_cycle": "2026-08-14T09:00:00Z",
        "forecast_hour": 0,
        "cause": "CIG"
      }
    },
    {
      "type": "Feature",
      "geometry": {
        "type": "Polygon",
        "coordinates": [
          [
            [
              -114.984681,
              25.958669
            ],
            [
              -114.769756,
              26.452332
            ],
            [
              -114.797844,
              26.851227
            ],
            [
              -114.601062,
              27.261953
            ],
            [
              -114.690749,
              27.775718
            ],
            [
              -114.310796,
              27.948753
            ],
            [
              -114.001721,
              27.725766
            ],
            [
              -114.334177,
              27.443154
            ],
            [
              -114.470866,
              27.223036
            ],
            [
              -114.528428,
              26.977619
            ],
            [
              -114.475191,
              26.649762
            ],
            [
              -114.076952,
              26.038308
            ],
            [
              -113.461443,
              25.802974
            ],
            [
              -113.358481,
              25.691474
            ],
            [
              -113.265432,
              25.295312
            ],
            [
              -112.981766,
              24.975753
            ],
            [
              -113.026651,
              24.885233
            ],
            [
              -113.635537,
              25.131636
            ],
            [
              -114.235197,
              25.092625
            ],
            [
              -114.984681,
              25.958669
            ]
          ]
        ]
      },
      "properties": {
        "hazard": "IFR",
        "threshold_pct": 50.0,
        "neighborhood_radius_nm": 50.0,
        "min_area_sq_mi": 3000.0,
        "valid_time": "2026-08-14T09:00:00Z",
        "model_cycle": "2026-08-14T09:00:00Z",
        "forecast_hour": 0,
        "cause": "CIG"
      }
    },
    {
      "type": "Feature",
      "geometry": {
        "type": "Polygon",
        "coordinates": [
          [
            [
              -136.376106,
              53.40025
            ],
            [
              -135.294161,
              53.633622
            ],
            [
              -134.642692,
              53.676066
            ],
            [
              -133.206171,
              54.000163
            ],
            [
              -133.073997,
              53.601175
            ],
            [
              -133.251707,
              53.139171
            ],
            [
              -133.191792,
              52.501258
            ],
            [
              -133.510591,
              52.172311
            ],
            [
              -133.548804,
              51.798867
            ],
            [
              -132.952559,
              50.824065
            ],
            [
              -132.713218,
              50.642506
            ],
            [
              -132.286802,
              50.477071
            ],
            [
              -131.794429,
              50.420045
            ],
            [
              -131.305308,
              50.479726
            ],
            [
              -130.888531,
              50.648008
            ],
            [
              -130.634801,
              50.859976
            ],
            [
              -130.185767,
              50.944723
            ],
            [
              -129.587772,
              50.8446
            ],
            [
              -129.00998,
              50.89035
            ],
            [
              -128.478638,
              51.106859
            ],
            [
              -128.159252,
              51.499855
            ],
            [
              -127.636392,
              51.595133
            ],
            [
              -126.799024,
              50.963644
            ],
            [
              -126.230708,
              50.725313
            ],
            [
              -126.14873,
              50.57636
            ],
            [
              -126.380254,
              50.321024
            ],
            [
              -126.447044,
              50.000371
            ],
            [
              -126.363024,
              49.761817
            ],
            [
              -126.11736,
              49.481821
            ],
            [
              -125.5624,
              49.171185
            ],
            [
              -124.886947,
              49.062764
            ],
            [
              -124.619224,
              48.788905
            ],
            [
              -123.893934,
              48.424609
            ],
            [
              -122.804292,
              48.176147
            ],
            [
              -123.104841,
              47.940322
            ],
            [
              -123.276127,
              47.65021
            ],
            [
              -123.288378,
              47.415433
            ],
            [
              -123.177915,
              47.150944
            ],
            [
              -123.322174,
              46.70958
            ],
            [
              -123.307368,
              46.276124
            ],
            [
              -123.603093,
              45.793639
            ],
            [
              -123.631847,
              45.501322
            ],
            [
              -123.937049,
              45.145344
            ],
            [
              -124.174418,
              45.538857
            ],
            [
              -124.603768,
              45.788005
            ],
            [
              -125.310132,
              45.90471
            ],
            [
              -125.809177,
              46.086941
            ],
            [
              -126.58552,
              46.06317
            ],
            [
              -127.03682,
              46.269008
            ],
            [
              -127.609902,
              46.333452
            ],
            [
              -128.249854,
              46.717898
            ],
            [
              -128.686589,
              46.841519
            ],
            [
              -130.447686,
              46.925192
            ],
            [
              -130.857379,
              46.784867
            ],
            [
              -131.810506,
              46.210228
            ],
            [
              -132.973169,
              46.408875
            ],
            [
              -133.38514,
              46.402
            ],
            [
              -133.834793,
              46.676853
            ],
            [
              -134.029482,
              46.932309
            ],
            [
              -134.083259,
              47.600722
            ],
            [
              -133.766271,
              47.904285
            ],
            [
              -133.645554,
              48.406345
            ],
            [
              -133.319457,
              48.771672
            ],
            [
              -133.307942,
              49.456384
            ],
            [
              -133.502911,
              49.729101
            ],
            [
              -133.762223,
              49.901626
            ],
            [
              -134.013602,
              50.607348
            ],
            [
              -134.383058,
              51.161331
            ],
            [
              -135.409297,
              52.012204
            ],
            [
              -135.778348,
              52.641756
            ],
            [
              -136.376106,
              53.40025
            ]
          ]
        ]
      },
      "properties": {
        "hazard": "IFR",
        "threshold_pct": 50.0,
        "neighborhood_radius_nm": 50.0,
        "min_area_sq_mi": 3000.0,
        "valid_time": "2026-08-14T09:00:00Z",
        "model_cycle": "2026-08-14T09:00:00Z",
        "forecast_hour": 0,
        "cause": "CIG/VIS",
        "weather_type": "BR"
      }
    },
    {
      "type": "Feature",
      "geometry": {
        "type": "Polygon",
        "coordinates": [
          [
            [
              -124.444853,
              42.00943
            ],
            [
              -124.553848,
              42.825942
            ],
            [
              -124.110422,
              43.941713
            ],
            [
              -123.843511,
              43.725779
            ],
            [
              -123.800304,
              43.450783
            ],
            [
              -124.151453,
              42.915562
            ],
            [
              -124.183862,
              42.53163
            ],
            [
              -123.977703,
              42.109856
            ],
            [
              -123.787141,
              41.905534
            ],
            [
              -123.746927,
              41.620784
            ],
            [
              -123.538884,
              41.3259
            ],
            [
              -123.911249,
              39.838287
            ],
            [
              -124.359564,
              40.266503
            ],
            [
              -124.416214,
              40.451146
            ],
            [
              -124.320079,
              40.755504
            ],
            [
              -124.336039,
              41.000564
            ],
            [
              -124.450057,
              41.230607
            ],
            [
              -124.68583,
              41.45145
            ],
            [
              -124.686612,
              41.625742
            ],
            [
              -124.444853,
              42.00943
            ]
          ]
        ]
      },
      "properties": {
        "hazard": "IFR",
        "threshold_pct": 50.0,
        "neighborhood_radius_nm": 50.0,
        "min_area_sq_mi": 3000.0,
        "valid_time": "2026-08-14T09:00:00Z",
        "model_cycle": "2026-08-14T09:00:00Z",
        "forecast_hour": 0,
        "cause": "CIG"
      }
    },
    {
      "type": "Feature",
      "geometry": {
        "type": "Polygon",
        "coordinates": [
          [
            [
              -90.440969,
              40.995552
            ],
            [
              -89.738243,
              41.450012
            ],
            [
              -88.37273,
              41.176124
            ],
            [
              -87.310975,
              41.175962
            ],
            [
              -86.547055,
              41.00895
            ],
            [
              -85.361429,
              40.936018
            ],
            [
              -84.345118,
              40.475318
            ],
            [
              -84.03147,
              40.052201
            ],
            [
              -83.480061,
              39.800066
            ],
            [
              -83.410672,
              39.677195
            ],
            [
              -83.636109,
              39.702083
            ],
            [
              -84.043269,
              39.98331
            ],
            [
              -84.585444,
              40.074615
            ],
            [
              -84.993533,
              40.337198
            ],
            [
              -85.937973,
              40.631657
            ],
            [
              -86.676005,
              40.564965
            ],
            [
              -87.187376,
              40.16393
            ],
            [
              -87.51067,
              40.087379
            ],
            [
              -87.773967,
              40.176745
            ],
            [
              -88.007744,
              40.474695
            ],
            [
              -88.357075,
              40.66524
            ],
            [
              -88.884852,
              40.735066
            ],
            [
              -89.512539,
              40.579968
            ],
            [
              -89.885394,
              40.654106
            ],
            [
              -90.434673,
              40.927144
            ],
            [
              -90.440969,
              40.995552
            ]
          ]
        ]
      },
      "properties": {
        "hazard": "IFR",
        "threshold_pct": 50.0,
        "neighborhood_radius_nm": 50.0,
        "min_area_sq_mi": 3000.0,
        "valid_time": "2026-08-14T09:00:00Z",
        "model_cycle": "2026-08-14T09:00:00Z",
        "forecast_hour": 0,
        "cause": "CIG"
      }
    },
    {
      "type": "Feature",
      "geometry": {
        "type": "Polygon",
        "coordinates": [
          [
            [
              -110.062861,
              46.600882
            ],
            [
              -109.959842,
              46.706598
            ],
            [
              -109.734234,
              46.751963
            ],
            [
              -108.8005,
              46.553448
            ],
            [
              -107.962725,
              46.72585
            ],
            [
              -107.780637,
              46.352018
            ],
            [
              -108.239618,
              45.994153
            ],
            [
              -108.336688,
              45.764964
            ],
            [
              -108.337162,
              45.446625
            ],
            [
              -109.210717,
              45.451633
            ],
            [
              -109.433738,
              45.53061
            ],
            [
              -109.387088,
              45.868576
            ],
            [
              -109.533179,
              46.184052
            ],
            [
              -110.034605,
              46.514442
            ],
            [
              -110.062861,
              46.600882
            ]
          ]
        ]
      },
      "properties": {
        "hazard": "IFR",
        "threshold_pct": 50.0,
        "neighborhood_radius_nm": 50.0,
        "min_area_sq_mi": 3000.0,
        "valid_time": "2026-08-14T09:00:00Z",
        "model_cycle": "2026-08-14T09:00:00Z",
        "forecast_hour": 0,
        "cause": "CIG"
      }
    },
    {
      "type": "Feature",
      "geometry": {
        "type": "Polygon",
        "coordinates": [
          [
            [
              -66.635001,
              42.078363
            ],
            [
              -66.733671,
              42.176365
            ],
            [
              -66.726894,
              42.32571
            ],
            [
              -66.507655,
              42.58673
            ],
            [
              -66.438308,
              42.829717
            ],
            [
              -66.497438,
              43.676696
            ],
            [
              -66.648182,
              44.001237
            ],
            [
              -66.530571,
              44.450386
            ],
            [
              -66.20578,
              44.660258
            ],
            [
              -65.69683,
              45.175499
            ],
            [
              -65.037909,
              45.496446
            ],
            [
              -64.044745,
              45.392764
            ],
            [
              -63.236234,
              45.50295
            ],
            [
              -63.086852,
              45.416396
            ],
            [
              -62.763702,
              44.900941
            ],
            [
              -63.228222,
              43.701702
            ],
            [
              -63.731447,
              43.137135
            ],
            [
              -63.702764,
              42.201133
            ],
            [
              -63.911686,
              41.715823
            ],
            [
              -64.111125,
              41.63646
            ],
            [
              -64.385118,
              41.658906
            ],
            [
              -64.886662,
              41.874082
            ],
            [
              -65.678466,
              41.888825
            ],
            [
              -66.635001,
              42.078363
            ]
          ]
        ]
      },
      "properties": {
        "hazard": "IFR",
        "threshold_pct": 50.0,
        "neighborhood_radius_nm": 50.0,
        "min_area_sq_mi": 3000.0,
        "valid_time": "2026-08-14T09:00:00Z",
        "model_cycle": "2026-08-14T09:00:00Z",
        "forecast_hour": 0,
        "cause": "CIG/VIS",
        "weather_type": "BR/FG"
      }
    },
    {
      "type": "Feature",
      "geometry": {
        "type": "Polygon",
        "coordinates": [
          [
            [
              -129.709172,
              49.326353
            ],
            [
              -129.533977,
              49.768578
            ],
            [
              -128.459502,
              50.636069
            ],
            [
              -128.043712,
              50.801444
            ],
            [
              -127.63536,
              51.150655
            ],
            [
              -127.151756,
              51.075156
            ],
            [
              -126.360539,
              50.649519
            ],
            [
              -126.937375,
              50.243675
            ],
            [
              -127.039901,
              50.003292
            ],
            [
              -127.093758,
              49.476805
            ],
            [
              -127.514724,
              49.387653
            ],
            [
              -128.061339,
              49.129711
            ],
            [
              -129.280899,
              49.098296
            ],
            [
              -129.634477,
              49.226817
            ],
            [
              -129.709172,
              49.326353
            ]
          ]
        ]
      },
      "properties": {
        "hazard": "IFR",
        "threshold_pct": 50.0,
        "neighborhood_radius_nm": 50.0,
        "min_area_sq_mi": 3000.0,
        "valid_time": "2026-08-14T09:00:00Z",
        "model_cycle": "2026-08-14T09:00:00Z",
        "forecast_hour": 0,
        "cause": "CIG/VIS",
        "weather_type": "BR"
      }
    }
  ]
}