{
  "type": "FeatureCollection",
  "features": [
    {
      "type": "Feature",
      "geometry": {
        "type": "MultiPolygon",
        "coordinates": [
          [
            [
              [
                -77.428618,
                42.764007
              ],
              [
                -76.79505,
                42.879265
              ],
              [
                -76.314238,
                43.205174
              ],
              [
                -76.167947,
                43.507534
              ],
              [
                -76.184204,
                43.847072
              ],
              [
                -75.984251,
                44.178904
              ],
              [
                -76.014924,
                44.601101
              ],
              [
                -75.921202,
                44.950513
              ],
              [
                -75.166766,
                45.359186
              ],
              [
                -74.872252,
                45.616071
              ],
              [
                -74.740545,
                46.050888
              ],
              [
                -74.250409,
                46.696789
              ],
              [
                -74.209492,
                47.051158
              ],
              [
                -73.67324,
                47.34781
              ],
              [
                -73.451852,
                47.675476
              ],
              [
                -72.962221,
                48.018384
              ],
              [
                -72.683239,
                48.600541
              ],
              [
                -72.018653,
                48.8997
              ],
              [
                -71.837745,
                49.105892
              ],
              [
                -71.727667,
                49.425873
              ],
              [
                -71.174585,
                49.761896
              ],
              [
                -70.481831,
                50.411392
              ],
              [
                -70.005994,
                50.671956
              ],
              [
                -69.669766,
                51.12156
              ],
              [
                -69.595618,
                51.431978
              ],
              [
                -69.668809,
                51.662159
              ],
              [
                -69.929385,
                51.928926
              ],
              [
                -70.227028,
                52.076702
              ],
              [
                -70.712731,
                52.179651
              ],
              [
                -71.271346,
                52.188974
              ],
              [
                -72.348769,
                51.984523
              ],
              [
                -71.924332,
                52.417498
              ],
              [
                -71.926323,
                52.825934
              ],
              [
                -70.939264,
                53.34515
              ],
              [
                -70.647318,
                53.709772
              ],
              [
                -70.646891,
                54.030316
              ],
              [
                -70.864608,
                54.32681
              ],
              [
                -70.688735,
                54.785852
              ],
              [
                -70.691548,
                55.276354
              ],
              [
                -70.834734,
                55.625359
              ],
              [
                -69.161233,
                55.703929
              ],
              [
                -64.984818,
                55.230765
              ],
              [
                -61.527712,
                54.72524
              ],
              [
                -61.714831,
                54.360562
              ],
              [
                -61.560897,
                53.801092
              ],
              [
                -62.05665,
                53.345417
              ],
              [
                -62.20901,
                53.056882
              ],
              [
                -62.089038,
                52.525974
              ],
              [
                -62.236485,
                52.115286
              ],
              [
                -62.025099,
                51.725995
              ],
              [
                -62.078687,
                51.326332
              ],
              [
                -62.405573,
                50.869486
              ],
              [
                -62.463337,
                50.634349
              ],
              [
                -62.406557,
                50.400197
              ],
              [
                -62.241775,
                50.187446
              ],
              [
                -61.412,
                49.756026
              ],
              [
                -61.162562,
                49.484436
              ],
              [
                -61.325902,
                49.0023
              ],
              [
                -61.286966,
                48.657402
              ],
              [
                -63.863828,
                41.692332
              ],
              [
                -64.27447,
                41.095608
              ],
              [
                -64.319076,
                40.676349
              ],
              [
                -64.486412,
                40.525066
              ],
              [
                -64.574164,
                40.527003
              ],
              [
                -64.664298,
                40.796224
              ],
              [
                -64.908588,
                41.055475
              ],
              [
                -65.477946,
                41.269882
              ],
              [
                -66.317435,
                41.17433
              ],
              [
                -67.410883,
                40.826963
              ],
              [
                -67.710324,
                40.888842
              ],
              [
                -67.788373,
                40.926497
              ],
              [
                -67.610524,
                41.465944
              ],
              [
                -67.729933,
                41.845369
              ],
              [
                -68.170679,
                42.18313
              ],
              [
                -68.68799,
                42.289067
              ],
              [
                -69.307722,
                42.167679
              ],
              [
                -69.778543,
                41.909065
              ],
              [
                -70.011614,
                41.667995
              ],
              [
                -70.645371,
                41.64693
              ],
              [
                -71.753078,
                41.278692
              ],
              [
                -72.17662,
                40.951834
              ],
              [
                -72.484466,
                40.821019
              ],
              [
                -73.560004,
                40.746078
              ],
              [
                -73.855106,
                41.026767
              ],
              [
                -74.027521,
                41.462786
              ],
              [
                -74.190679,
                41.66595
              ],
              [
                -74.614588,
                41.901802
              ],
              [
                -75.035091,
                41.966935
              ],
              [
                -75.222186,
                42.279607
              ],
              [
                -75.505508,
                42.512707
              ],
              [
                -75.88934,
                42.650664
              ],
              [
                -76.644697,
                42.710189
              ],
              [
                -76.985319,
                42.688153
              ],
              [
                -77.38664,
                42.549078
              ],
              [
                -77.428618,
                42.764007
              ]
            ],
            [
              [
                -68.49336,
                48.71465
              ],
              [
                -69.258962,
                48.12498
              ],
              [
                -69.374819,
                47.822869
              ],
              [
                -69.309862,
                47.515569
              ],
              [
                -68.995532,
                47.191853
              ],
              [
                -68.3642,
                46.852151
              ],
              [
                -67.781809,
                46.765561
              ],
              [
                -67.204769,
                46.873311
              ],
              [
                -66.636548,
                47.217257
              ],
              [
                -66.316143,
                47.025454
              ],
              [
                -66.185895,
                46.660977
              ],
              [
                -65.703128,
                46.103974
              ],
              [
                -65.300577,
                45.923402
              ],
              [
                -64.741521,
                45.850187
              ],
              [
                -64.148104,
                45.595781
              ],
              [
                -63.341861,
                45.538928
              ],
              [
                -62.639261,
                45.798089
              ],
              [
                -62.399191,
                46.066716
              ],
              [
                -61.984476,
                47.120137
              ],
              [
                -62.029314,
                47.503737
              ],
              [
                -62.261585,
                47.77206
              ],
              [
                -62.858051,
                48.017639
              ],
              [
                -63.60992,
                47.996542
              ],
              [
                -63.720204,
                48.334246
              ],
              [
                -63.906337,
                48.581571
              ],
              [
                -64.254223,
                48.813832
              ],
              [
                -64.596827,
                48.918034
              ],
              [
                -65.101813,
                48.944712
              ],
              [
                -65.685727,
                48.796761
              ],
              [
                -66.508708,
                48.811826
              ],
              [
                -67.021209,
                48.685592
              ],
              [
                -67.571597,
                48.831545
              ],
              [
                -68.049379,
                48.831332
              ],
              [
                -68.49336,
                48.71465
              ]
            ],
            [
              [
                -73.773464,
                45.910703
              ],
              [
                -74.078289,
                45.533243
              ],
              [
                -74.043481,
                45.06498
              ],
              [
                -73.648131,
                44.687998
              ],
              [
                -73.024801,
                44.523328
              ],
              [
                -72.216448,
                44.551549
              ],
              [
                -71.531611,
                44.839208
              ],
              [
                -71.25043,
                45.086118
              ],
              [
                -70.903493,
                45.686405
              ],
              [
                -70.951591,
                45.999759
              ],
              [
                -71.180662,
                46.286145
              ],
              [
                -71.533055,
                46.481614
              ],
              [
                -71.970245,
                46.57181
              ],
              [
                -72.761563,
                46.450299
              ],
              [
                -73.773464,
                45.910703
              ]
            ]
          ],
          [
            [
              [
                -72.520509,
                51.905761
              ],
              [
                -72.686497,
                51.77025
              ],
              [
                -72.833511,
                51.783735
              ],
              [
                -72.709942,
                51.840913
              ],
              [
                -72.520509,
                51.905761
              ]
            ]
          ]
        ]
      },
      "properties": {
        "hazard": "IFR",
        "threshold_pct": 50.0,
        "neighborhood_radius_nm": 50.0,
        "min_area_sq_mi": 3000.0,
        "valid_time": "2026-08-03T15:00:00Z",
        "model_cycle": "2026-08-03T09:00:00Z",
        "forecast_hour": 6,
        "cause": "CIG/VIS",
        "weather_type": "PCPN/BR/FG"
      }
    },
    {
      "type": "Feature",
      "geometry": {
        "type": "Polygon",
        "coordinates": [
          [
            [
              -102.134616,
              56.676291
            ],
            [
              -101.695353,
              57.000166
            ],
            [
              -100.524854,
              57.000124
            ],
            [
              -100.338845,
              56.688941
            ],
            [
              -99.979246,
              56.450652
            ],
            [
              -99.868251,
              56.124295
            ],
            [
              -99.449628,
              55.641457
            ],
            [
              -99.494975,
              55.351868
            ],
            [
              -99.660084,
              55.330882
            ],
            [
              -100.084352,
              55.57327
            ],
            [
              -100.27714,
              55.863226
            ],
            [
              -100.675578,
              56.104893
            ],
            [
              -101.211396,
              56.237805
            ],
            [
              -101.88468,
              56.228923
            ],
            [
              -102.134616,
              56.676291
            ]
          ]
        ]
      },
      "properties": {
        "hazard": "IFR",
        "threshold_pct": 50.0,
        "neighborhood_radius_nm": 50.0,
        "min_area_sq_mi": 3000.0,
        "valid_time": "2026-08-03T15:00:00Z",
        "model_cycle": "2026-08-03T09:00:00Z",
        "forecast_hour": 6,
        "cause": "CIG"
      }
    },
    {
      "type": "Feature",
      "geometry": {
        "type": "Polygon",
        "coordinates": [
          [
            [
              -121.495508,
              54.121999
            ],
            [
              -121.460559,
              54.575084
            ],
            [
              -120.739641,
              54.550031
            ],
            [
              -120.512118,
              54.457686
            ],
            [
              -120.095015,
              54.087086
            ],
            [
              -119.692814,
              53.925382
            ],
            [
              -119.33763,
              53.551245
            ],
            [
              -119.749139,
              53.326187
            ],
            [
              -120.012152,
              52.963618
            ],
            [
              -120.422539,
              52.691994
            ],
            [
              -120.587482,
              52.272624
            ],
            [
              -120.961468,
              52.097633
            ],
            [
              -121.059353,
              52.099803
            ],
            [
              -121.077477,
              52.393922
            ],
            [
              -121.287537,
              52.701247
            ],
            [
              -121.126472,
              53.018282
            ],
            [
              -121.179922,
              53.327871
            ],
            [
              -121.704416,
              53.801141
            ],
            [
              -121.495508,
              54.121999
            ]
          ]
        ]
      },
      "properties": {
        "hazard": "IFR",
        "threshold_pct": 50.0,
        "neighborhood_radius_nm": 50.0,
        "min_area_sq_mi": 3000.0,
        "valid_time": "2026-08-03T15:00:00Z",
        "model_cycle": "2026-08-03T09:00:00Z",
        "forecast_hour": 6,
        "cause": "CIG"
      }
    },
    {
      "type": "Feature",
      "geometry": {
        "type": "Polygon",
        "coordinates": [
          [
            [
              -128.713271,
              32.576828
            ],
            [
              -128.858335,
              32.994263
            ],
            [
              -128.88326,
              33.276069
            ],
            [
              -128.813236,
              33.475218
            ],
            [
              -128.310882,
              33.643723
            ],
            [
              -127.80319,
              33.565326
            ],
            [
              -127.262467,
              33.732034
            ],
            [
              -126.953871,
              34.038738
            ],
            [
              -126.709367,
              34.680665
            ],
            [
              -126.431728,
              35.125578
            ],
            [
              -125.999086,
              35.344812
            ],
            [
              -125.734884,
              35.604812
            ],
            [
              -124.98543,
              35.897734
            ],
            [
              -124.494106,
              35.836436
            ],
            [
              -124.020003,
              35.937834
            ],
            [
              -123.714154,
              36.138137
            ],
            [
              -123.435071,
              36.507988
            ],
            [
              -123.000478,
              36.740797
            ],
            [
              -122.795888,
              37.013964
            ],
            [
              -122.736904,
              37.24744
            ],
            [
              -122.795107,
              37.559689
            ],
            [
              -122.998964,
              37.876339
            ],
            [
              -123.019432,
              38.025283
            ],
            [
              -122.91119,
              38.0404
            ],
            [
              -122.726832,
              37.925495
            ],
            [
              -122.598259,
              37.528482
            ],
            [
              -122.376092,
              37.284916
            ],
            [
              -121.631278,
              36.960835
            ],
            [
              -121.480341,
              36.800466
            ],
            [
              -121.214723,
              36.375728
            ],
            [
              -121.180295,
              35.854784
            ],
            [
              -120.930749,
              35.524847
            ],
            [
              -119.861636,
              34.844157
            ],
            [
              -119.643184,
              34.566605
            ],
            [
              -119.234101,
              34.256972
            ],
            [
              -118.894879,
              34.104101
            ],
            [
              -118.497369,
              34.050158
            ],
            [
              -117.211932,
              33.174788
            ],
            [
              -117.110619,
              32.807289
            ],
            [
              -116.882536,
              32.525609
            ],
            [
              -116.797771,
              32.110749
            ],
            [
              -116.611936,
              31.855049
            ],
            [
              -116.494524,
              31.393666
            ],
            [
              -116.252299,
              31.079102
            ],
            [
              -115.986101,
              30.900543
            ],
            [
              -115.980115,
              30.56838
            ],
            [
              -115.677909,
              29.797327
            ],
            [
              -115.343165,
              29.502193
            ],
            [
              -114.982504,
              29.350103
            ],
            [
              -114.092174,
              28.525821
            ],
            [
              -114.135217,
              28.100202
            ],
            [
              -113.986527,
              27.725935
            ],
            [
              -114.050285,
              27.359768
            ],
            [
              -113.913403,
              26.981726
            ],
            [
              -113.155884,
              26.390183
            ],
            [
              -112.486714,
              26.201314
            ],
            [
              -112.211579,
              25.904941
            ],
            [
              -112.144704,
              25.700439
            ],
            [
              -112.618697,
              25.336759
            ],
            [
              -112.836668,
              24.822956
            ],
            [
              -112.917319,
              24.822264
            ],
            [
              -113.590666,
              25.010696
            ],
            [
              -113.970371,
              25.217742
            ],
            [
              -115.935311,
              25.643742
            ],
            [
              -116.208885,
              26.05063
            ],
            [
              -116.71779,
              26.374322
            ],
            [
              -117.445382,
              26.500157
            ],
            [
              -118.161504,
              26.462616
            ],
            [
              -119.11038,
              26.551912
            ],
            [
              -119.509514,
              26.770794
            ],
            [
              -119.666238,
              26.972607
            ],
            [
              -119.961627,
              27.154604
            ],
            [
              -120.887518,
              27.503294
            ],
            [
              -121.343571,
              27.540235
            ],
            [
              -121.660673,
              27.481054
            ],
            [
              -122.70617,
              28.080821
            ],
            [
              -123.428014,
              28.082563
            ],
            [
              -123.911823,
              27.876464
            ],
            [
              -124.334869,
              28.248772
            ],
            [
              -124.458298,
              28.650581
            ],
            [
              -123.689224,
              29.082837
            ],
            [
              -123.495433,
              29.359375
            ],
            [
              -123.436923,
              29.676419
            ],
            [
              -124.141869,
              31.353865
            ],
            [
              -124.505613,
              31.586986
            ],
            [
              -125.053723,
              31.636825
            ],
            [
              -125.550299,
              31.424193
            ],
            [
              -125.818591,
              31.068726
            ],
            [
              -126.091791,
              31.349526
            ],
            [
              -126.734683,
              31.647004
            ],
            [
              -126.904869,
              32.266354
            ],
            [
              -127.27928,
              32.617365
            ],
            [
              -127.833291,
              32.727897
            ],
            [
              -128.38614,
              32.55202
            ],
            [
              -128.713271,
              32.576828
            ]
          ]
        ]
      },
      "properties": {
        "hazard": "IFR",
        "threshold_pct": 50.0,
        "neighborhood_radius_nm": 50.0,
        "min_area_sq_mi": 3000.0,
        "valid_time": "2026-08-03T15:00:00Z",
        "model_cycle": "2026-08-03T09:00:00Z",
        "forecast_hour": 6,
        "cause": "CIG/VIS",
        "weather_type": "BR"
      }
    },
    {
      "type": "Feature",
      "geometry": {
        "type": "Polygon",
        "coordinates": [
          [
            [
              -133.429038,
              53.950109
            ],
            [
              -132.074481,
              54.200121
            ],
            [
              -130.904998,
              54.297813
            ],
            [
              -130.010687,
              54.510749
            ],
            [
              -129.062133,
              54.257316
            ],
            [
              -129.218868,
              53.68965
            ],
            [
              -129.119786,
              53.460244
            ],
            [
              -128.910301,
              53.250825
            ],
            [
              -128.736873,
              52.827573
            ],
            [
              -128.379854,
              52.574959
            ],
            [
              -127.534883,
              52.199971
            ],
            [
              -127.657157,
              51.943291
            ],
            [
              -127.662351,
              51.708466
            ],
            [
              -127.351165,
              51.280324
            ],
            [
              -126.01297,
              50.700942
            ],
            [
              -126.261291,
              50.547723
            ],
            [
              -127.441534,
              50.564459
            ],
            [
              -127.930365,
              50.471729
            ],
            [
              -128.317688,
              50.266995
            ],
            [
              -128.569756,
              49.905094
            ],
            [
              -128.515371,
              49.509079
            ],
            [
              -128.287182,
              49.25002
            ],
            [
              -128.084683,
              48.819328
            ],
            [
              -127.538224,
              48.203542
            ],
            [
              -127.611022,
              47.830655
            ],
            [
              -127.50934,
              47.526508
            ],
            [
              -127.244279,
              47.268124
            ],
            [
              -126.82561,
              47.05079
            ],
            [
              -126.801109,
              46.901342
            ],
            [
              -126.952526,
              46.656522
            ],
            [
              -127.022125,
              46.051319
            ],
            [
              -127.086508,
              45.989943
            ],
            [
              -127.184579,
              45.99387
            ],
            [
              -127.292511,
              46.535647
            ],
            [
              -128.06413,
              47.628761
            ],
            [
              -128.839033,
              48.032651
            ],
            [
              -129.219641,
              48.324122
            ],
            [
              -129.784853,
              48.478207
            ],
            [
              -130.068578,
              48.997324
            ],
            [
              -130.812134,
              49.576567
            ],
            [
              -131.040705,
              50.214569
            ],
            [
              -131.195388,
              50.427144
            ],
            [
              -131.542527,
              50.652112
            ],
            [
              -132.109818,
              50.792138
            ],
            [
              -132.859734,
              51.412293
            ],
            [
              -132.890622,
              51.475141
            ],
            [
              -132.406206,
              51.645994
            ],
            [
              -132.103132,
              51.892259
            ],
            [
              -131.991001,
              52.113397
            ],
            [
              -132.002152,
              52.403269
            ],
            [
              -132.17505,
              52.695158
            ],
            [
              -133.128376,
              53.426647
            ],
            [
              -133.429038,
              53.950109
            ]
          ]
        ]
      },
      "properties": {
        "hazard": "IFR",
        "threshold_pct": 50.0,
        "neighborhood_radius_nm": 50.0,
        "min_area_sq_mi": 3000.0,
        "valid_time": "2026-08-03T15:00:00Z",
        "model_cycle": "2026-08-03T09:00:00Z",
        "forecast_hour": 6,
        "cause": "CIG"
      }
    },
    {
      "type": "Feature",
      "geometry": {
        "type": "Polygon",
        "coordinates": [
          [
            [
              -75.009634,
              42.202702
            ],
            [
              -74.85913,
              42.435399
            ],
            [
              -74.798913,
              42.77742
            ],
            [
              -74.822162,
              43.024385
            ],
            [
              -74.954963,
              43.271812
            ],
            [
              -74.461453,
              43.301259
            ],
            [
              -74.046228,
              42.881669
            ],
            [
              -73.443874,
              42.720308
            ],
            [
              -72.332618,
              42.912825
            ],
            [
              -71.861543,
              43.121249
            ],
            [
              -71.550018,
              43.546375
            ],
            [
              -71.569749,
              43.975854
            ],
            [
              -70.569809,
              45.030857
            ],
            [
              -70.416172,
              45.327658
            ],
            [
              -70.461075,
              45.720516
            ],
            [
              -70.683504,
              45.996665
            ],
            [
              -71.431275,
              46.439197
            ],
            [
              -71.96923,
              46.571737
            ],
            [
              -72.762261,
              46.450293
            ],
            [
              -73.861119,
              45.866894
            ],
            [
              -74.310361,
              45.87666
            ],
            [
              -74.79614,
              45.73711
            ],
            [
              -74.740559,
              46.051089
            ],
            [
              -74.270212,
              46.663679
            ],
            [
              -74.210656,
              47.050485
            ],
            [
              -73.742682,
              47.285326
            ],
            [
              -73.451873,
              47.675472
            ],
            [
              -73.022635,
              47.94895
            ],
            [
              -72.683545,
              48.600436
            ],
            [
              -72.020788,
              48.896636
            ],
            [
              -71.840994,
              49.100154
            ],
            [
              -71.727963,
              49.425707
            ],
            [
              -71.170967,
              49.764448
            ],
            [
              -70.481537,
              50.411616
            ],
            [
              -70.002975,
              50.673572
            ],
            [
              -69.755759,
              51.000178
            ],
            [
              -69.034194,
              51.135251
            ],
            [
              -68.559793,
              51.464451
            ],
            [
              -68.06178,
              51.487281
            ],
            [
              -66.224929,
              51.870164
            ],
            [
              -65.449882,
              52.306816
            ],
            [
              -65.238419,
              52.503432
            ],
            [
              -64.934445,
              53.404204
            ],
            [
              -64.585397,
              53.556045
            ],
            [
              -64.086437,
              53.581964
            ],
            [
              -63.956106,
              53.500715
            ],
            [
              -63.966973,
              53.136811
            ],
            [
              -63.749985,
              52.783628
            ],
            [
              -63.787722,
              52.620179
            ],
            [
              -64.137103,
              52.225701
            ],
            [
              -65.018986,
              52.012763
            ],
            [
              -66.232288,
              51.312928
            ],
            [
              -66.643675,
              50.692732
            ],
            [
              -66.626384,
              50.161
            ],
            [
              -66.711507,
              50.096414
            ],
            [
              -67.535424,
              50.088605
            ],
            [
              -68.286452,
              49.798049
            ],
            [
              -68.793944,
              49.706856
            ],
            [
              -69.561656,
              49.225662
            ],
            [
              -70.010543,
              49.088692
            ],
            [
              -70.34035,
              48.850296
            ],
            [
              -70.508922,
              48.526575
            ],
            [
              -70.86558,
              48.230463
            ],
            [
              -70.98328,
              47.846434
            ],
            [
              -70.864611,
              47.321941
            ],
            [
              -70.668726,
              46.973846
            ],
            [
              -70.261117,
              46.700475
            ],
            [
              -69.970938,
              46.316852
            ],
            [
              -69.387287,
              46.046803
            ],
            [
              -68.860995,
              46.007575
            ],
            [
              -68.271333,
              45.845515
            ],
            [
              -67.706321,
              45.885556
            ],
            [
              -67.312568,
              46.045522
            ],
            [
              -67.088938,
              46.226509
            ],
            [
              -66.921624,
              46.521616
            ],
            [
              -66.91066,
              46.850734
            ],
            [
              -66.735226,
              46.951375
            ],
            [
              -66.281783,
              46.8999
            ],
            [
              -66.348515,
              46.334399
            ],
            [
              -66.260843,
              46.025282
            ],
            [
              -65.932303,
              45.705588
            ],
            [
              -65.486643,
              45.533515
            ],
            [
              -65.39257,
              45.032591
            ],
            [
              -65.059393,
              44.696404
            ],
            [
              -64.656004,
              44.533633
            ],
            [
              -64.197396,
              44.493067
            ],
            [
              -63.753086,
              44.580716
            ],
            [
              -63.335042,
              44.832793
            ],
            [
              -62.995181,
              44.817385
            ],
            [
              -62.926721,
              44.475815
            ],
            [
              -63.24033,
              43.685095
            ],
            [
              -64.043825,
              43.752806
            ],
            [
              -65.310849,
              43.489594
            ],
            [
              -65.635149,
              43.539624
            ],
            [
              -66.148424,
              43.786668
            ],
            [
              -66.835699,
              43.790728
            ],
            [
              -67.387304,
              44.015667
            ],
            [
              -67.985328,
              44.041758
            ],
            [
              -68.502169,
              44.193917
            ],
            [
              -69.077788,
              44.146479
            ],
            [
              -69.895642,
              43.694115
            ],
            [
              -71.000328,
              42.613737
            ],
            [
              -71.192653,
              42.255209
            ],
            [
              -71.212093,
              41.932124
            ],
            [
              -71.536879,
              41.624322
            ],
            [
              -72.103698,
              41.283856
            ],
            [
              -72.5615,
              40.825345
            ],
            [
              -73.560158,
              40.746106
            ],
            [
              -73.811299,
              40.926686
            ],
            [
              -73.948891,
              41.226089
            ],
            [
              -74.009483,
              41.622652
            ],
            [
              -74.153858,
              41.844493
            ],
            [
              -74.565795,
              42.113727
            ],
            [
              -75.009634,
              42.202702
            ]
          ]
        ]
      },
      "properties": {
        "hazard": "IFR",
        "threshold_pct": 50.0,
        "neighborhood_radius_nm": 50.0,
        "min_area_sq_mi": 3000.0,
        "valid_time": "2026-08-03T15:00:00Z",
        "model_cycle": "2026-08-03T09:00:00Z",
        "forecast_hour": 6,
        "cause": "CIG/VIS",
        "weather_type": "PCPN/BR/FG"
      }
    },
    {
      "type": "Feature",
      "geometry": {
        "type": "Polygon",
        "coordinates": [
          [
            [
              -101.908355,
              56.235453
            ],
            [
              -101.931044,
              56.575546
            ],
            [
              -101.589343,
              56.758226
            ],
            [
              -101.359316,
              57.000201
            ],
            [
              -100.524564,
              57.000124
            ],
            [
              -100.329818,
              56.679846
            ],
            [
              -99.979286,
              56.450651
            ],
            [
              -100.051871,
              56.059888
            ],
            [
              -99.976892,
              55.818295
            ],
            [
              -99.48763,
              55.400846
            ],
            [
              -99.678507,
              55.376945
            ],
            [
              -100.059757,
              55.55406
            ],
            [
              -100.295421,
              55.880415
            ],
            [
              -100.704372,
              56.117179
            ],
            [
              -101.24941,
              56.245217
            ],
            [
              -101.908355,
              56.235453
            ]
          ]
        ]
      },
      "properties": {
        "hazard": "IFR",
        "threshold_pct": 50.0,
        "neighborhood_radius_nm": 50.0,
        "min_area_sq_mi": 3000.0,
        "valid_time": "2026-08-03T15:00:00Z",
        "model_cycle": "2026-08-03T09:00:00Z",
        "forecast_hour": 6,
        "cause": "CIG"
      }
    },
    {
      "type": "Feature",
      "geometry": {
        "type": "Polygon",
        "coordinates": [
          [
            [
              -69.116312,
              44.153522
            ],
            [
              -68.784739,
              44.30012
            ],
            [
              -68.298341,
              44.225591
            ],
            [
              -67.755102,
              44.319486
            ],
            [
              -67.275804,
              44.649274
            ],
            [
              -67.128376,
              45.05032
            ],
            [
              -66.636747,
              45.210101
            ],
            [
              -66.160038,
              45.547056
            ],
            [
              -65.561527,
              45.575292
            ],
            [
              -65.438326,
              45.45105
            ],
            [
              -65.658093,
              45.160136
            ],
            [
              -65.70884,
              44.924034
            ],
            [
              -65.515844,
              44.469813
            ],
            [
              -65.104518,
              44.198542
            ],
            [
              -64.537277,
              44.09109
            ],
            [
              -64.382999,
              43.784623
            ],
            [
              -64.080564,
              43.545238
            ],
            [
              -63.462424,
              43.376105
            ],
            [
              -64.425095,
              43.227156
            ],
            [
              -65.073367,
              43.242069
            ],
            [
              -65.53636,
              43.058522
            ],
            [
              -66.210855,
              42.919382
            ],
            [
              -66.368199,
              42.951861
            ],
            [
              -66.736675,
              43.322115
            ],
            [
              -67.338508,
              43.614746
            ],
            [
              -68.204012,
              43.796054
            ],
            [
              -68.611692,
              44.05206
            ],
            [
              -69.116312,
              44.153522
            ]
          ]
        ]
      },
      "properties": {
        "hazard": "IFR",
        "threshold_pct": 50.0,
        "neighborhood_radius_nm": 50.0,
        "min_area_sq_mi": 3000.0,
        "valid_time": "2026-08-03T15:00:00Z",
        "model_cycle": "2026-08-03T09:00:00Z",
        "forecast_hour": 6,
        "cause": "CIG/VIS",
        "weather_type": "PCPN/BR"
      }
    }
  ]
}