{
  "type": "FeatureCollection",
  "features": [
    {
      "type": "Feature",
      "geometry": {
        "type": "Polygon",
        "coordinates": [
          [
            [
              -84.936305,
              34.686808
            ],
            [
              -84.836484,
              35.03294
            ],
            [
              -84.566077,
              35.230522
            ],
            [
              -84.143478,
              35.761617
            ],
            [
              -83.346993,
              36.036172
            ],
            [
              -82.675022,
              36.420176
            ],
            [
              -82.136614,
              37.020336
            ],
            [
              -81.706895,
              37.311552
            ],
            [
              -80.963261,
              37.529525
            ],
            [
              -80.511563,
              38.061222
            ],
            [
              -80.136267,
              38.311734
            ],
            [
              -80.012763,
              38.369922
            ],
            [
              -79.286972,
              37.66206
            ],
            [
              -79.235814,
              37.43105
            ],
            [
              -79.339148,
              37.147794
            ],
            [
              -79.350732,
              36.493041
            ],
            [
              -79.211646,
              36.195553
            ],
            [
              -78.911477,
              35.887969
            ],
            [
              -79.913125,
              35.186188
            ],
            [
              -80.740257,
              35.158571
            ],
            [
              -81.087988,
              35.008129
            ],
            [
              -81.83103,
              34.890856
            ],
            [
              -82.163204,
              34.709424
            ],
            [
              -82.782094,
              34.615132
            ],
            [
              -83.287808,
              34.373
            ],
            [
              -83.587632,
              34.323397
            ],
            [
              -84.393955,
              34.313437
            ],
            [
              -84.626664,
              34.538271
            ],
            [
              -84.936305,
              34.686808
            ]
          ]
        ]
      },
      "properties": {
        "hazard": "MTN_OBSC",
        "threshold_pct": 50.0,
        "clearance_margin_ft": 500.0,
        "neighborhood_radius_nm": 50.0,
        "min_area_sq_mi": 3000.0,
        "terrain_radius_nm": 12.0,
        "valid_time": "2026-07-24T18:00:00Z",
        "model_cycle": "2026-07-24T15:00:00Z",
        "forecast_hour": 3,
        "weather_type": "CLDS"
      }
    },
    {
      "type": "Feature",
      "geometry": {
        "type": "Polygon",
        "coordinates": [
          [
            [
              -124.66216,
              40.08801
            ],
            [
              -124.673061,
              40.742143
            ],
            [
              -124.333002,
              41.061743
            ],
            [
              -124.220015,
              41.453016
            ],
            [
              -124.319775,
              41.765396
            ],
            [
              -124.744543,
              42.13779
            ],
            [
              -124.738573,
              42.275437
            ],
            [
              -124.615511,
              42.542045
            ],
            [
              -124.621132,
              42.862293
            ],
            [
              -124.20362,
              43.863442
            ],
            [
              -124.009537,
              45.677792
            ],
            [
              -124.03988,
              46.014071
            ],
            [
              -124.173062,
              46.262632
            ],
            [
              -124.14333,
              46.494532
            ],
            [
              -124.266481,
              47.140254
            ],
            [
              -124.746253,
              48.012779
            ],
            [
              -124.767004,
              48.404623
            ],
            [
              -123.70176,
              48.252659
            ],
            [
              -123.221254,
              48.351296
            ],
            [
              -122.911856,
              48.509876
            ],
            [
              -122.237497,
              48.614631
            ],
            [
              -122.239009,
              48.540733
            ],
            [
              -122.699173,
              48.25685
            ],
            [
              -123.31361,
              47.566796
            ],
            [
              -123.348525,
              47.331778
            ],
            [
              -123.247227,
              47.037531
            ],
            [
              -123.561248,
              46.584091
            ],
            [
              -123.742468,
              45.862261
            ],
            [
              -123.699142,
              44.96416
            ],
            [
              -123.571606,
              44.687291
            ],
            [
              -123.664549,
              44.48737
            ],
            [
              -124.064526,
              44.114993
            ],
            [
              -124.442864,
              43.028165
            ],
            [
              -124.318991,
              42.283612
            ],
            [
              -124.1388,
              42.004313
            ],
            [
              -123.951186,
              41.462571
            ],
            [
              -123.981293,
              40.887639
            ],
            [
              -124.257031,
              40.263325
            ],
            [
              -124.062433,
              39.60286
            ],
            [
              -124.66216,
              40.08801
            ]
          ]
        ]
      },
      "properties": {
        "hazard": "MTN_OBSC",
        "threshold_pct": 50.0,
        "clearance_margin_ft": 500.0,
        "neighborhood_radius_nm": 50.0,
        "min_area_sq_mi": 3000.0,
        "terrain_radius_nm": 12.0,
        "valid_time": "2026-07-24T18:00:00Z",
        "model_cycle": "2026-07-24T15:00:00Z",
        "forecast_hour": 3,
        "weather_type": "CLDS"
      }
    }
  ]
}