{
  "type": "FeatureCollection",
  "features": [
    {
      "type": "Feature",
      "geometry": {
        "type": "Polygon",
        "coordinates": [
          [
            [
              -82.85541,
              35.713358
            ],
            [
              -82.486779,
              36.016593
            ],
            [
              -82.137539,
              36.125826
            ],
            [
              -81.847237,
              36.340743
            ],
            [
              -81.351252,
              37.336525
            ],
            [
              -80.653637,
              37.210795
            ],
            [
              -79.502646,
              37.351942
            ],
            [
              -79.882287,
              36.761227
            ],
            [
              -80.051916,
              36.205308
            ],
            [
              -80.063233,
              35.934552
            ],
            [
              -79.963717,
              35.671932
            ],
            [
              -80.013183,
              35.586783
            ],
            [
              -80.667613,
              35.478079
            ],
            [
              -80.964453,
              35.256545
            ],
            [
              -81.113312,
              35.013361
            ],
            [
              -81.631339,
              35.064261
            ],
            [
              -82.261625,
              34.947428
            ],
            [
              -82.458124,
              35.42805
            ],
            [
              -82.85541,
              35.713358
            ]
          ]
        ]
      },
      "properties": {
        "hazard": "MTN_OBSC",
        "threshold_pct": 50.0,
        "clearance_margin_ft": 500.0,
        "neighborhood_radius_nm": 50.0,
        "min_area_sq_mi": 3000.0,
        "terrain_radius_nm": 12.0,
        "valid_time": "2026-08-04T12:00:00Z",
        "model_cycle": "2026-08-04T03:00:00Z",
        "forecast_hour": 9,
        "weather_type": "BR"
      }
    },
    {
      "type": "Feature",
      "geometry": {
        "type": "Polygon",
        "coordinates": [
          [
            [
              -123.961023,
              38.838374
            ],
            [
              -123.795924,
              39.304959
            ],
            [
              -123.67612,
              38.972835
            ],
            [
              -123.318357,
              38.655479
            ],
            [
              -122.95361,
              38.524559
            ],
            [
              -122.416692,
              38.48655
            ],
            [
              -122.233037,
              38.212388
            ],
            [
              -122.231931,
              37.960848
            ],
            [
              -122.016254,
              37.349043
            ],
            [
              -121.74989,
              37.110629
            ],
            [
              -121.338509,
              36.92882
            ],
            [
              -121.26213,
              36.505717
            ],
            [
              -121.083281,
              36.235782
            ],
            [
              -121.031989,
              35.784848
            ],
            [
              -120.843597,
              35.510239
            ],
            [
              -119.511568,
              34.571404
            ],
            [
              -118.91272,
              34.43399
            ],
            [
              -118.479251,
              34.210705
            ],
            [
              -117.543653,
              34.061956
            ],
            [
              -117.370207,
              33.646855
            ],
            [
              -116.997,
              33.337113
            ],
            [
              -116.723755,
              32.587893
            ],
            [
              -117.512207,
              32.3591
            ],
            [
              -117.992308,
              32.608897
            ],
            [
              -118.736859,
              32.65539
            ],
            [
              -118.982145,
              32.887396
            ],
            [
              -119.239653,
              33.004746
            ],
            [
              -119.821607,
              33.063361
            ],
            [
              -120.058006,
              33.501702
            ],
            [
              -120.661417,
              33.851923
            ],
            [
              -121.020395,
              34.896291
            ],
            [
              -121.387236,
              35.382088
            ],
            [
              -122.172918,
              36.137864
            ],
            [
              -122.294433,
              36.604239
            ],
            [
              -122.594118,
              36.962646
            ],
            [
              -122.511644,
              37.328412
            ],
            [
              -122.634442,
              37.679312
            ],
            [
              -123.262006,
              38.2922
            ],
            [
              -123.911533,
              38.662968
            ],
            [
              -123.961023,
              38.838374
            ]
          ]
        ]
      },
      "properties": {
        "hazard": "MTN_OBSC",
        "threshold_pct": 50.0,
        "clearance_margin_ft": 500.0,
        "neighborhood_radius_nm": 50.0,
        "min_area_sq_mi": 3000.0,
        "terrain_radius_nm": 12.0,
        "valid_time": "2026-08-04T12:00:00Z",
        "model_cycle": "2026-08-04T03:00:00Z",
        "forecast_hour": 9,
        "weather_type": "BR"
      }
    }
  ]
}