{
  "type": "FeatureCollection",
  "features": [
    {
      "type": "Feature",
      "geometry": {
        "type": "Polygon",
        "coordinates": [
          [
            [
              -124.737022,
              48.01278
            ],
            [
              -124.682569,
              48.411542
            ],
            [
              -124.133964,
              48.231172
            ],
            [
              -123.252893,
              48.161532
            ],
            [
              -123.235691,
              47.864058
            ],
            [
              -123.06238,
              47.587967
            ],
            [
              -123.247113,
              47.24848
            ],
            [
              -123.242073,
              46.922501
            ],
            [
              -122.903302,
              46.4963
            ],
            [
              -122.282054,
              46.237132
            ],
            [
              -122.403542,
              45.81334
            ],
            [
              -122.171865,
              45.294223
            ],
            [
              -122.707617,
              45.375533
            ],
            [
              -123.149181,
              45.321604
            ],
            [
              -123.528073,
              45.154197
            ],
            [
              -123.838628,
              44.808004
            ],
            [
              -123.917049,
              44.813135
            ],
            [
              -123.961432,
              45.87934
            ],
            [
              -124.104454,
              46.513156
            ],
            [
              -123.988877,
              46.795769
            ],
            [
              -124.006466,
              47.040249
            ],
            [
              -124.356884,
              47.709877
            ],
            [
              -124.737022,
              48.01278
            ]
          ]
        ]
      },
      "properties": {
        "hazard": "MTN_OBSC",
        "threshold_pct": 50.0,
        "clearance_margin_ft": 500.0,
        "neighborhood_radius_nm": 50.0,
        "min_area_sq_mi": 3000.0,
        "terrain_radius_nm": 12.0,
        "valid_time": "2026-08-15T21:00:00Z",
        "model_cycle": "2026-08-15T21:00:00Z",
        "forecast_hour": 0,
        "weather_type": "CLDS"
      }
    }
  ]
}