{
  "type": "FeatureCollection",
  "features": [
    {
      "type": "Feature",
      "geometry": {
        "type": "Polygon",
        "coordinates": [
          [
            [
              -114.542392,
              48.76311
            ],
            [
              -114.533101,
              48.986566
            ],
            [
              -113.045363,
              48.986499
            ],
            [
              -112.392411,
              48.894048
            ],
            [
              -111.862069,
              48.989408
            ],
            [
              -111.067741,
              48.988667
            ],
            [
              -110.952574,
              48.887425
            ],
            [
              -110.98845,
              48.824186
            ],
            [
              -111.654186,
              48.773014
            ],
            [
              -112.147919,
              48.52831
            ],
            [
              -112.371616,
              48.236381
            ],
            [
              -112.409211,
              47.773266
            ],
            [
              -112.5134,
              47.631543
            ],
            [
              -112.820238,
              47.68836
            ],
            [
              -113.611468,
              48.121139
            ],
            [
              -114.022119,
              48.551053
            ],
            [
              -114.542392,
              48.76311
            ]
          ]
        ]
      },
      "properties": {
        "hazard": "MTN_OBSC",
        "threshold_pct": 50.0,
        "clearance_margin_ft": 500.0,
        "neighborhood_radius_nm": 50.0,
        "min_area_sq_mi": 3000.0,
        "terrain_radius_nm": 12.0,
        "valid_time": "2026-08-13T03:00:00Z",
        "model_cycle": "2026-08-12T21:00:00Z",
        "forecast_hour": 6,
        "weather_type": "CLDS"
      }
    },
    {
      "type": "Feature",
      "geometry": {
        "type": "Polygon",
        "coordinates": [
          [
            [
              -124.760168,
              48.414552
            ],
            [
              -124.236759,
              47.378669
            ],
            [
              -123.852262,
              46.962153
            ],
            [
              -123.715287,
              46.424912
            ],
            [
              -123.558294,
              46.186947
            ],
            [
              -123.744425,
              45.757641
            ],
            [
              -123.731305,
              45.362757
            ],
            [
              -123.920219,
              45.041355
            ],
            [
              -123.912731,
              44.512556
            ],
            [
              -124.082184,
              44.056206
            ],
            [
              -123.988993,
              43.115877
            ],
            [
              -124.279759,
              42.709899
            ],
            [
              -124.373,
              42.390942
            ],
            [
              -124.118565,
              41.639735
            ],
            [
              -123.591993,
              40.912602
            ],
            [
              -123.789482,
              40.662711
            ],
            [
              -123.869265,
              40.412861
            ],
            [
              -124.218871,
              40.08568
            ],
            [
              -124.321105,
              39.841079
            ],
            [
              -124.66836,
              40.088022
            ],
            [
              -124.696548,
              40.662464
            ],
            [
              -124.280272,
              41.174383
            ],
            [
              -124.23714,
              41.569592
            ],
            [
              -124.392743,
              41.86915
            ],
            [
              -124.740535,
              42.137786
            ],
            [
              -124.738055,
              42.271368
            ],
            [
              -124.613034,
              42.540614
            ],
            [
              -124.618991,
              42.862345
            ],
            [
              -124.206403,
              43.818166
            ],
            [
              -124.008239,
              45.671108
            ],
            [
              -124.034273,
              45.991888
            ],
            [
              -124.172146,
              46.262635
            ],
            [
              -124.147508,
              46.53512
            ],
            [
              -124.272841,
              47.163995
            ],
            [
              -124.743954,
              48.012836
            ],
            [
              -124.760168,
              48.414552
            ]
          ]
        ]
      },
      "properties": {
        "hazard": "MTN_OBSC",
        "threshold_pct": 50.0,
        "clearance_margin_ft": 500.0,
        "neighborhood_radius_nm": 50.0,
        "min_area_sq_mi": 3000.0,
        "terrain_radius_nm": 12.0,
        "valid_time": "2026-08-13T03:00:00Z",
        "model_cycle": "2026-08-12T21:00:00Z",
        "forecast_hour": 6,
        "weather_type": "CLDS"
      }
    },
    {
      "type": "Feature",
      "geometry": {
        "type": "Polygon",
        "coordinates": [
          [
            [
              -123.8579,
              39.043832
            ],
            [
              -123.439923,
              38.685677
            ],
            [
              -122.813531,
              38.351858
            ],
            [
              -122.59815,
              38.060562
            ],
            [
              -122.259408,
              37.861765
            ],
            [
              -122.159603,
              37.54424
            ],
            [
              -121.946352,
              37.267243
            ],
            [
              -121.338369,
              37.012228
            ],
            [
              -121.241652,
              36.762561
            ],
            [
              -121.302054,
              36.02149
            ],
            [
              -121.068843,
              35.602199
            ],
            [
              -120.32799,
              35.23667
            ],
            [
              -120.024174,
              34.740045
            ],
            [
              -119.738268,
              34.512201
            ],
            [
              -118.352786,
              34.061789
            ],
            [
              -118.092497,
              33.683294
            ],
            [
              -117.453356,
              33.311902
            ],
            [
              -117.261932,
              33.066139
            ],
            [
              -116.935613,
              32.861851
            ],
            [
              -117.052717,
              32.563326
            ],
            [
              -117.162248,
              32.532812
            ],
            [
              -117.746641,
              32.728591
            ],
            [
              -118.711909,
              32.657092
            ],
            [
              -118.788155,
              32.737829
            ],
            [
              -118.87924,
              33.290127
            ],
            [
              -119.185101,
              33.605774
            ],
            [
              -119.640048,
              33.756682
            ],
            [
              -120.417924,
              33.738417
            ],
            [
              -120.555059,
              34.108734
            ],
            [
              -120.88918,
              34.387852
            ],
            [
              -120.955136,
              34.795884
            ],
            [
              -121.276146,
              35.2905
            ],
            [
              -122.16392,
              36.137975
            ],
            [
              -122.298743,
              36.641181
            ],
            [
              -122.586499,
              36.966794
            ],
            [
              -122.508456,
              37.341688
            ],
            [
              -122.624103,
              37.667126
            ],
            [
              -123.040942,
              38.013107
            ],
            [
              -123.346699,
              38.427332
            ],
            [
              -123.886557,
              38.657316
            ],
            [
              -123.951248,
              38.812413
            ],
            [
              -123.8579,
              39.043832
            ]
          ]
        ]
      },
      "properties": {
        "hazard": "MTN_OBSC",
        "threshold_pct": 50.0,
        "clearance_margin_ft": 500.0,
        "neighborhood_radius_nm": 50.0,
        "min_area_sq_mi": 3000.0,
        "terrain_radius_nm": 12.0,
        "valid_time": "2026-08-13T03:00:00Z",
        "model_cycle": "2026-08-12T21:00:00Z",
        "forecast_hour": 6,
        "weather_type": "CLDS"
      }
    }
  ]
}