{
  "type": "FeatureCollection",
  "features": [
    {
      "type": "Feature",
      "geometry": {
        "type": "Polygon",
        "coordinates": [
          [
            [
              -124.747609,
              42.137791
            ],
            [
              -124.605986,
              42.593473
            ],
            [
              -124.622086,
              42.862429
            ],
            [
              -124.209285,
              43.818781
            ],
            [
              -124.010425,
              45.631883
            ],
            [
              -124.035001,
              45.989644
            ],
            [
              -124.172889,
              46.26202
            ],
            [
              -124.144545,
              46.491968
            ],
            [
              -124.276372,
              47.164894
            ],
            [
              -124.748497,
              48.012778
            ],
            [
              -124.768186,
              48.40663
            ],
            [
              -123.592136,
              48.208975
            ],
            [
              -123.112464,
              48.3033
            ],
            [
              -122.713948,
              48.504458
            ],
            [
              -122.563597,
              47.93769
            ],
            [
              -122.885525,
              47.608419
            ],
            [
              -122.953792,
              47.262759
            ],
            [
              -123.228576,
              46.854274
            ],
            [
              -123.256303,
              46.537221
            ],
            [
              -123.074959,
              46.162621
            ],
            [
              -123.390292,
              45.829282
            ],
            [
              -123.549068,
              45.468324
            ],
            [
              -123.607417,
              45.047359
            ],
            [
              -123.419569,
              44.612658
            ],
            [
              -123.632437,
              44.143204
            ],
            [
              -123.627252,
              43.787816
            ],
            [
              -123.881555,
              43.481005
            ],
            [
              -123.963755,
              42.985888
            ],
            [
              -124.127444,
              42.581493
            ],
            [
              -124.028182,
              42.173495
            ],
            [
              -123.522433,
              41.586437
            ],
            [
              -123.437034,
              41.387478
            ],
            [
              -123.518068,
              41.140128
            ],
            [
              -123.463777,
              40.808566
            ],
            [
              -123.728422,
              40.463584
            ],
            [
              -123.852406,
              40.048981
            ],
            [
              -123.701376,
              39.353407
            ],
            [
              -123.336974,
              38.955671
            ],
            [
              -122.374823,
              38.511789
            ],
            [
              -122.126028,
              37.960696
            ],
            [
              -121.819649,
              37.612034
            ],
            [
              -121.72005,
              37.342642
            ],
            [
              -121.330733,
              36.986885
            ],
            [
              -121.194141,
              36.526862
            ],
            [
              -120.917929,
              36.037317
            ],
            [
              -120.874309,
              35.742977
            ],
            [
              -120.695096,
              35.471513
            ],
            [
              -120.126175,
              35.11188
            ],
            [
              -119.876428,
              34.726364
            ],
            [
              -119.594521,
              34.492827
            ],
            [
              -119.112957,
              34.356685
            ],
            [
              -118.66056,
              34.07919
            ],
            [
              -118.213129,
              34.009979
            ],
            [
              -117.525496,
              33.513706
            ],
            [
              -117.163351,
              33.359302
            ],
            [
              -116.892328,
              32.862158
            ],
            [
              -116.893885,
              32.564196
            ],
            [
              -117.337335,
              32.436768
            ],
            [
              -117.849842,
              32.659518
            ],
            [
              -118.662197,
              32.635024
            ],
            [
              -119.162444,
              32.975881
            ],
            [
              -119.821081,
              33.063376
            ],
            [
              -120.058277,
              33.503335
            ],
            [
              -120.661413,
              33.851644
            ],
            [
              -120.721689,
              34.136983
            ],
            [
              -120.898584,
              34.388153
            ],
            [
              -121.019643,
              34.895121
            ],
            [
              -121.383874,
              35.377712
            ],
            [
              -122.173556,
              36.137828
            ],
            [
              -122.297158,
              36.607722
            ],
            [
              -122.597557,
              36.962651
            ],
            [
              -122.516445,
              37.35544
            ],
            [
              -122.631709,
              37.671353
            ],
            [
              -123.325877,
              38.333713
            ],
            [
              -123.919274,
              38.663022
            ],
            [
              -124.17271,
              39.642315
            ],
            [
              -124.671794,
              40.088036
            ],
            [
              -124.672994,
              40.762173
            ],
            [
              -124.361286,
              41.048778
            ],
            [
              -124.231213,
              41.429613
            ],
            [
              -124.357089,
              41.810554
            ],
            [
              -124.747609,
              42.137791
            ]
          ]
        ]
      },
      "properties": {
        "hazard": "MTN_OBSC",
        "threshold_pct": 50.0,
        "clearance_margin_ft": 500.0,
        "neighborhood_radius_nm": 50.0,
        "min_area_sq_mi": 3000.0,
        "terrain_radius_nm": 12.0,
        "valid_time": "2026-08-07T15:00:00Z",
        "model_cycle": "2026-08-07T03:00:00Z",
        "forecast_hour": 12,
        "weather_type": "BR"
      }
    }
  ]
}