{
 "type": "FeatureCollection",
 "features": [
  {
   "type": "Feature",
   "properties": {
    "area": "Appalachians",
    "source": "legacy NMAP MTN OBSC boundary",
    "bearing_datum": "TRUE (unverified - see notes)"
   },
   "geometry": {
    "type": "Polygon",
    "coordinates": [
     [
      [
       -69.31692,
       47.59217
      ],
      [
       -68.5155,
       45.5867
      ],
      [
       -71.5755,
       43.2198
      ],
      [
       -77.0696,
       40.3022
      ],
      [
       -79.9764,
       36.54536
      ],
      [
       -80.9517,
       35.1903
      ],
      [
       -84.4351,
       33.6291
      ],
      [
       -85.1534,
       34.9613
      ],
      [
       -85.06984,
       36.71054
      ],
      [
       -82.0262,
       38.7541
      ],
      [
       -80.2116,
       40.8252
      ],
      [
       -79.1213,
       42.1886
      ],
      [
       -76.2046,
       43.1605
      ],
      [
       -74.7227,
       44.9144
      ],
      [
       -71.6914,
       45.4386
      ],
      [
       -69.31692,
       47.59217
      ]
     ]
    ]
   }
  },
  {
   "type": "Feature",
   "properties": {
    "area": "Rockies",
    "source": "legacy NMAP MTN OBSC boundary",
    "bearing_datum": "TRUE (unverified - see notes)"
   },
   "geometry": {
    "type": "Polygon",
    "coordinates": [
     [
      [
       -124.627,
       48.2999
      ],
      [
       -122.579,
       48.9453
      ],
      [
       -112.668,
       48.96818
      ],
      [
       -111.412,
       47.45
      ],
      [
       -109.77,
       48.5405
      ],
      [
       -107.061,
       44.8423
      ],
      [
       -104.773,
       41.211
      ],
      [
       -103.6,
       37.2587
      ],
      [
       -104.621,
       33.3375
      ],
      [
       -104.42074,
       31.86938
      ],
      [
       -102.0133,
       29.80132
      ],
      [
       -103.29975,
       28.91188
      ],
      [
       -106.282,
       31.8159
      ],
      [
       -108.81524,
       31.34515
      ],
      [
       -110.915,
       31.26243
      ],
      [
       -111.97,
       33.433
      ],
      [
       -114.474,
       34.766
      ],
      [
       -115.85453,
       34.79549
      ],
      [
       -116.463,
       34.29734
      ],
      [
       -115.69237,
       32.76339
      ],
      [
       -117.225,
       32.7822
      ],
      [
       -118.432,
       33.9331
      ],
      [
       -120.57947,
       34.50684
      ],
      [
       -122.868,
       38.0798
      ],
      [
       -124.235,
       40.6713
      ],
      [
       -124.38386,
       42.9164
      ],
      [
       -124.061,
       44.5754
      ],
      [
       -124.149,
       46.947
      ],
      [
       -124.627,
       48.2999
      ]
     ]
    ]
   }
  },
  {
   "type": "Feature",
   "properties": {
    "area": "CentralValleyCutout",
    "source": "legacy NMAP MTN OBSC boundary",
    "bearing_datum": "TRUE (unverified - see notes)"
   },
   "geometry": {
    "type": "Polygon",
    "coordinates": [
     [
      [
       -122.236,
       40.0989
      ],
      [
       -118.90788,
       35.54819
      ],
      [
       -118.86351,
       35.02275
      ],
      [
       -119.91516,
       35.48184
      ],
      [
       -122.06216,
       38.03354
      ],
      [
       -122.236,
       40.0989
      ]
     ]
    ]
   }
  }
 ]
}